{"type":"FeatureCollection", "features": [
{"type":"Feature","geometry":{"type":"Polygon","coordinates":[[[88.3186270853633,22.5448235245135],[88.318722462624,22.5448020074837],[88.3187456786202,22.5448908001273],[88.3186536390663,22.5449124153936],[88.3186270853633,22.5448235245135]]]},"properties": {
    "floor": "ground","fill-opacity":0,"stroke-opacity":1,"stroke":"#ff0000","ID":"1-29","REMARKS":"POLYGON ID-1"}},
{"type":"Feature","geometry":{"type":"Polygon","coordinates":[[[88.3188647502269,22.5448628363617],[88.3188730658547,22.5448726053708],[88.3188129454923,22.5449460324553],[88.3186536390663,22.5449124153936],[88.3187456786202,22.5448908001273],[88.3188647502269,22.5448628363617]]]},"properties": {
    "floor": "ground","fill-opacity":0,"stroke-opacity":1,"stroke":"#ff0000","ID":"1-28","REMARKS":"POLYGON ID-1"}},
{"type":"Feature","geometry":{"type":"Polygon","coordinates":[[[88.3187023997201,22.544725274153],[88.318722462624,22.5448020074837],[88.3186270853633,22.5448235245135],[88.3186070225078,22.5447467911688],[88.3187023997201,22.544725274153]]]},"properties": {
    "floor": "ground","fill-opacity":0,"stroke-opacity":1,"stroke":"#ff0000","ID":"1-30","REMARKS":"POLYGON ID-1"}},
{"type":"Feature","geometry":{"type":"Polygon","coordinates":[[[88.318722462624,22.5448020074837],[88.3187983903337,22.5447848782114],[88.3188647502269,22.5448628363617],[88.3187456786202,22.5448908001273],[88.318722462624,22.5448020074837]]]},"properties": {
    "floor": "ground","fill-opacity":0,"stroke-opacity":1,"stroke":"#ff0000","ID":"1-34","REMARKS":"POLYGON ID-1"}},
{"type":"Feature","geometry":{"type":"Polygon","coordinates":[[[88.3186823368407,22.5446485408181],[88.3187983903337,22.5447848782114],[88.318722462624,22.5448020074837],[88.3187023997201,22.544725274153],[88.3186823368407,22.5446485408181]]]},"properties": {
    "floor": "ground","fill-opacity":0,"stroke-opacity":1,"stroke":"#ff0000","ID":"1-35","REMARKS":"POLYGON ID-1"}},
{"type":"Feature","geometry":{"type":"Polygon","coordinates":[[[88.3186536390663,22.5449124153936],[88.3184363307444,22.5448665584077],[88.3185317080701,22.5448450414882],[88.3186270853633,22.5448235245135],[88.3186536390663,22.5449124153936]]]},"properties": {
    "floor": "ground","fill-opacity":0,"stroke-opacity":1,"stroke":"#ff0000","ID":"1-23","REMARKS":"POLYGON ID-1"}},
{"type":"Feature","geometry":{"type":"Polygon","coordinates":[[[88.3181510039562,22.5448747748039],[88.3180719389419,22.5448770515053],[88.3180513313682,22.5447908939186],[88.3181083091671,22.5447780399962],[88.3181268651542,22.5447738538483],[88.3181510039562,22.5448747748039]]]},"properties": {
    "floor": "ground","fill-opacity":0,"stroke-opacity":1,"stroke":"#ff0000","ID":"1-6","REMARKS":"POLYGON ID-1"}},
{"type":"Feature","geometry":{"type":"Polygon","coordinates":[[[88.3186070225078,22.5447467911688],[88.3186270853633,22.5448235245135],[88.3185317080701,22.5448450414882],[88.3185116452629,22.5447683081294],[88.3186070225078,22.5447467911688]]]},"properties": {
    "floor": "ground","fill-opacity":0,"stroke-opacity":1,"stroke":"#ff0000","ID":"1-24","REMARKS":"POLYGON ID-1"}},
{"type":"Feature","geometry":{"type":"Polygon","coordinates":[[[88.3186070225078,22.5447467911688],[88.3185869596767,22.5446700578198],[88.3186823368407,22.5446485408181],[88.3187023997201,22.544725274153],[88.3186070225078,22.5447467911688]]]},"properties": {
    "floor": "ground","fill-opacity":0,"stroke-opacity":1,"stroke":"#ff0000","ID":"1-31","REMARKS":"POLYGON ID-1"}},
{"type":"Feature","geometry":{"type":"Polygon","coordinates":[[[88.3185116452629,22.5447683081294],[88.3184915824801,22.5446915747664],[88.3185643700521,22.5446751540095],[88.3185869596767,22.5446700578198],[88.3186070225078,22.5447467911688],[88.3185116452629,22.5447683081294]]]},"properties": {
    "floor": "ground","fill-opacity":0,"stroke-opacity":1,"stroke":"#ff0000","ID":"1-25","REMARKS":"POLYGON ID-1"}},
{"type":"Feature","geometry":{"type":"Polygon","coordinates":[[[88.3180719389419,22.5448770515053],[88.3178987346513,22.5448820388404],[88.3178849332524,22.5448328545813],[88.3178346722791,22.5448397709822],[88.3179258846048,22.5448191940374],[88.3180170969008,22.544798617042],[88.3180513313682,22.5447908939186],[88.3180719389419,22.5448770515053]]]},"properties": {
    "floor": "ground","fill-opacity":0,"stroke-opacity":1,"stroke":"#ff0000","ID":"1-3","REMARKS":"POLYGON ID-1"}},
{"type":"Feature","geometry":{"type":"Polygon","coordinates":[[[88.3182919248175,22.5448707168478],[88.3182276583066,22.5448725674811],[88.318200095927,22.5447573332896],[88.3182614921211,22.5447434825344],[88.3182919248175,22.5448707168478]]]},"properties": {
    "floor": "ground","fill-opacity":0,"stroke-opacity":1,"stroke":"#ff0000","ID":"1-12","REMARKS":"POLYGON ID-1"}},
{"type":"Feature","geometry":{"type":"Polygon","coordinates":[[[88.3182276583066,22.5448725674811],[88.3181510039562,22.5448747748039],[88.3181268651542,22.5447738538483],[88.3181995214036,22.5447574628998],[88.318200095927,22.5447573332896],[88.3182276583066,22.5448725674811]]]},"properties": {
    "floor": "ground","fill-opacity":0,"stroke-opacity":1,"stroke":"#ff0000","ID":"1-9","REMARKS":"POLYGON ID-1"}},
{"type":"Feature","geometry":{"type":"Polygon","coordinates":[[[88.3184363307444,22.5448665584077],[88.318359893963,22.5448687595646],[88.3183264255687,22.5447288337596],[88.3183819457873,22.5447163085557],[88.318396205251,22.5447130916576],[88.318396205251,22.5447130916577],[88.3184162679855,22.5447898250348],[88.3184363307444,22.5448665584077]]]},"properties": {
    "floor": "ground","fill-opacity":0,"stroke-opacity":1,"stroke":"#ff0000","ID":"1-18","REMARKS":"POLYGON ID-1"}},
{"type":"Feature","geometry":{"type":"Polygon","coordinates":[[[88.318359893963,22.5448687595646],[88.3182919248175,22.5448707168478],[88.3182614921211,22.5447434825344],[88.3182907336103,22.544736885753],[88.3183264255687,22.5447288337596],[88.318359893963,22.5448687595646]]]},"properties": {
    "floor": "ground","fill-opacity":0,"stroke-opacity":1,"stroke":"#ff0000","ID":"1-15","REMARKS":"POLYGON ID-1"}},
{"type":"Feature","geometry":{"type":"Polygon","coordinates":[[[88.3184162679855,22.5447898250348],[88.318396205251,22.5447130916577],[88.318396205251,22.5447130916576],[88.3184731579346,22.5446957313078],[88.3184915824801,22.5446915747664],[88.3185116452629,22.5447683081294],[88.3184162679855,22.5447898250348]]]},"properties": {
    "floor": "ground","fill-opacity":0,"stroke-opacity":1,"stroke":"#ff0000","ID":"1-20","REMARKS":"POLYGON ID-1"}},
{"type":"Feature","geometry":{"type":"Polygon","coordinates":[[[88.3185116452629,22.5447683081294],[88.3185317080701,22.5448450414882],[88.3184363307444,22.5448665584077],[88.3184162679855,22.5447898250348],[88.3185116452629,22.5447683081294]]]},"properties": {
    "floor": "ground","fill-opacity":0,"stroke-opacity":1,"stroke":"#ff0000","ID":"1-19","REMARKS":"POLYGON ID-1"}},
{"type":"Feature","geometry":{"type":"Polygon","coordinates":[[[88.318538606596,22.5445807997373],[88.3186296542427,22.5445596203766],[88.3186823368407,22.5446485408181],[88.3185869596767,22.5446700578198],[88.3185643700521,22.5446751540095],[88.318538606596,22.5445807997373]]]},"properties": {
    "floor": "ground","fill-opacity":0,"stroke-opacity":1,"stroke":"#ff0000","ID":"1-32","REMARKS":"POLYGON ID-1"}},
{"type":"Feature","geometry":{"type":"Polygon","coordinates":[[[88.3183565112112,22.5446231583079],[88.3184475589188,22.5446019790478],[88.3184731579346,22.5446957313078],[88.318396205251,22.5447130916577],[88.3183819457873,22.5447163085557],[88.3183565112112,22.5446231583079]]]},"properties": {
    "floor": "ground","fill-opacity":0,"stroke-opacity":1,"stroke":"#ff0000","ID":"1-21","REMARKS":"POLYGON ID-1"}},
{"type":"Feature","geometry":{"type":"Polygon","coordinates":[[[88.3184475589188,22.5446019790478],[88.318538606596,22.5445807997373],[88.3185643700521,22.5446751540095],[88.3184915824801,22.5446915747664],[88.3184731579346,22.5446957313078],[88.3184475589188,22.5446019790478]]]},"properties": {
    "floor": "ground","fill-opacity":0,"stroke-opacity":1,"stroke":"#ff0000","ID":"1-26","REMARKS":"POLYGON ID-1"}},
{"type":"Feature","geometry":{"type":"Polygon","coordinates":[[[88.3181492487068,22.54457327759],[88.3182400920925,22.5445514627858],[88.3182401207359,22.5445515232532],[88.3182654634731,22.5446443375178],[88.3181744157045,22.5446655166774],[88.3181492484811,22.5445733449899],[88.3181492487068,22.54457327759]]]},"properties": {
    "floor": "ground","fill-opacity":0,"stroke-opacity":1,"stroke":"#ff0000","ID":"1-14","REMARKS":"POLYGON ID-1"}},
{"type":"Feature","geometry":{"type":"Polygon","coordinates":[[[88.3181744157045,22.5446655166774],[88.3182654634731,22.5446443375178],[88.3182907336103,22.544736885753],[88.3182614921211,22.5447434825344],[88.318200095927,22.5447573332896],[88.3181995214036,22.5447574628998],[88.3181744157045,22.5446655166774]]]},"properties": {
    "floor": "ground","fill-opacity":0,"stroke-opacity":1,"stroke":"#ff0000","ID":"1-13","REMARKS":"POLYGON ID-1"}},
{"type":"Feature","geometry":{"type":"Polygon","coordinates":[[[88.3182400920925,22.5445514627858],[88.3183309487351,22.5445296447407],[88.3183309929594,22.5445297014665],[88.3183565112112,22.5446231583079],[88.3182654634731,22.5446443375178],[88.3182401207359,22.5445515232532],[88.3182400920925,22.5445514627858]]]},"properties": {
    "floor": "ground","fill-opacity":0,"stroke-opacity":1,"stroke":"#ff0000","ID":"1-17","REMARKS":"POLYGON ID-1"}},
{"type":"Feature","geometry":{"type":"Polygon","coordinates":[[[88.3182654634731,22.5446443375178],[88.3183565112112,22.5446231583079],[88.3183819457873,22.5447163085557],[88.3183264255687,22.5447288337596],[88.3182907336103,22.544736885753],[88.3182654634731,22.5446443375178]]]},"properties": {
    "floor": "ground","fill-opacity":0,"stroke-opacity":1,"stroke":"#ff0000","ID":"1-16","REMARKS":"POLYGON ID-1"}},
{"type":"Feature","geometry":{"type":"Polygon","coordinates":[[[88.3179923200614,22.5447078748492],[88.317901272216,22.5447290538546],[88.3178766315293,22.5446388098996],[88.3178766252494,22.5446387935983],[88.3179674947214,22.5446169548926],[88.3179923200614,22.5447078748492]]]},"properties": {
    "floor": "ground","fill-opacity":0,"stroke-opacity":1,"stroke":"#ff0000","ID":"1-5","REMARKS":"POLYGON ID-1"}},
{"type":"Feature","geometry":{"type":"Polygon","coordinates":[[[88.3180170969008,22.544798617042],[88.3179258846048,22.5448191940374],[88.317901272216,22.5447290538546],[88.3179923200614,22.5447078748492],[88.3180170969008,22.544798617042]]]},"properties": {
    "floor": "ground","fill-opacity":0,"stroke-opacity":1,"stroke":"#ff0000","ID":"1-4","REMARKS":"POLYGON ID-1"}},
{"type":"Feature","geometry":{"type":"Polygon","coordinates":[[[88.3180583624978,22.5445951165368],[88.3181293685791,22.5445780515247],[88.3181492487068,22.54457327759],[88.3181492484811,22.5445733449899],[88.3181744157045,22.5446655166774],[88.3180833676964,22.5446866958354],[88.3180583624978,22.5445951165368]]]},"properties": {
    "floor": "ground","fill-opacity":0,"stroke-opacity":1,"stroke":"#ff0000","ID":"1-11","REMARKS":"POLYGON ID-1"}},
{"type":"Feature","geometry":{"type":"Polygon","coordinates":[[[88.3180833676964,22.5446866958354],[88.3181744157045,22.5446655166774],[88.3181995214036,22.5447574628998],[88.3181268651542,22.5447738538483],[88.3181083091671,22.5447780399962],[88.3180833676964,22.5446866958354]]]},"properties": {
    "floor": "ground","fill-opacity":0,"stroke-opacity":1,"stroke":"#ff0000","ID":"1-10","REMARKS":"POLYGON ID-1"}},
{"type":"Feature","geometry":{"type":"Polygon","coordinates":[[[88.317901272216,22.5447290538546],[88.3178102243255,22.5447502328131],[88.3177857591496,22.544660631436],[88.3178766252494,22.5446387935983],[88.3178766315293,22.5446388098996],[88.317901272216,22.5447290538546]]]},"properties": {
    "floor": "ground","fill-opacity":0,"stroke-opacity":1,"stroke":"#ff0000","ID":"1-2","REMARKS":"POLYGON ID-1"}},
{"type":"Feature","geometry":{"type":"Polygon","coordinates":[[[88.3179258846048,22.5448191940374],[88.3178346722791,22.5448397709822],[88.3178102243255,22.5447502328131],[88.317901272216,22.5447290538546],[88.3179258846048,22.5448191940374]]]},"properties": {
    "floor": "ground","fill-opacity":0,"stroke-opacity":1,"stroke":"#ff0000","ID":"1-1","REMARKS":"POLYGON ID-1"}},
{"type":"Feature","geometry":{"type":"Polygon","coordinates":[[[88.3179674947214,22.5446169548926],[88.3180583624978,22.5445951165368],[88.3180833676964,22.5446866958354],[88.3179923200614,22.5447078748492],[88.3179674947214,22.5446169548926]]]},"properties": {
    "floor": "ground","fill-opacity":0,"stroke-opacity":1,"stroke":"#ff0000","ID":"1-8","REMARKS":"POLYGON ID-1"}},
{"type":"Feature","geometry":{"type":"Polygon","coordinates":[[[88.3179923200614,22.5447078748492],[88.3180833676964,22.5446866958354],[88.3181083091671,22.5447780399962],[88.3180513313682,22.5447908939186],[88.3180170969008,22.544798617042],[88.3179923200614,22.5447078748492]]]},"properties": {
    "floor": "ground","fill-opacity":0,"stroke-opacity":1,"stroke":"#ff0000","ID":"1-7","REMARKS":"POLYGON ID-1"}},
{"type":"Feature","geometry":{"type":"Polygon","coordinates":[[[88.3184475589188,22.5446019790478],[88.3183565112112,22.5446231583079],[88.3183309929594,22.5445297014665],[88.3183309487351,22.5445296447407],[88.3183493437272,22.5445252274148],[88.3184218477099,22.5445078164725],[88.3184475589188,22.5446019790478]]]},"properties": {
    "floor": "ground","fill-opacity":0,"stroke-opacity":1,"stroke":"#ff0000","ID":"1-22","REMARKS":"POLYGON ID-1"}},
{"type":"Feature","geometry":{"type":"Polygon","coordinates":[[[88.318538606596,22.5445807997373],[88.3184475589188,22.5446019790478],[88.3184218477099,22.5445078164725],[88.3184233134733,22.544507464487],[88.3184950252208,22.5444902442624],[88.3185127200256,22.5444859951806],[88.318538606596,22.5445807997373]]]},"properties": {
    "floor": "ground","fill-opacity":0,"stroke-opacity":1,"stroke":"#ff0000","ID":"1-27","REMARKS":"POLYGON ID-1"}},
{"type":"Feature","geometry":{"type":"Polygon","coordinates":[[[88.3185127200256,22.5444859951806],[88.3185789481896,22.5444700916858],[88.3186296542427,22.5445596203766],[88.318538606596,22.5445807997373],[88.3185127200256,22.5444859951806]]]},"properties": {
    "floor": "ground","fill-opacity":0,"stroke-opacity":1,"stroke":"#ff0000","ID":"1-33","REMARKS":"POLYGON ID-1"}}
]}