{
    "type": "FeatureCollection", 
    "features": [
        {
            "type": "Feature", 
            "geometry": {
                "type": "Polygon", 
                "coordinates": [
                    [
                        [88.3150880009275, 22.5387519016963], 
                        [88.3151227849299, 22.5388134251891], 
                        [88.3153004149569, 22.5387200635594], 
                        [88.3152647710055, 22.5386584758464], 
                        [88.3150880009275, 22.5387519016963]  
                    ]
                ]
            }, 
            "properties": {
    "floor": "ground",
                "fill-opacity": 0, 
                "stroke-opacity": 1, 
                "stroke": "#ff0000", 
                "ID": "11-B14-H1", 
                "REMARKS": "POLYGON-43"
            }, 
            "id": "p43.1"
        }, 
        {
            "type": "Feature", 
            "geometry": {
                "type": "Polygon", 
                "coordinates": [
                    [
                        [88.3154777856782, 22.5394987243513], 
                        [88.3155175643733, 22.5395702710924], 
                        [88.3156943037093, 22.5394843557695], 
                        [88.3156522044833, 22.5394152295129], 
                        [88.3154777856782, 22.5394987243513]  
                    ]
                ]
            }, 
            "properties": {
    "floor": "ground",
                "fill-opacity": 0, 
                "stroke-opacity": 1, 
                "stroke": "#ff0000", 
                "ID": "11-B1-H1", 
                "REMARKS": "POLYGON-43"
            }, 
            "id": "p43.2"
        }, 
        {
            "type": "Feature", 
            "geometry": {
                "type": "Polygon", 
                "coordinates": [
                    [
                        [88.3154409440843, 22.5394324603378], 
                        [88.3154777856782, 22.5394987243513], 
                        [88.3156522044833, 22.5394152295129], 
                        [88.3156173758495, 22.5393580414523], 
                        [88.3156549980786, 22.539331387101 ], 
                        [88.3156544151894, 22.5393317259551], 
                        [88.3156543862708, 22.5393316759879], 
                        [88.3154409440843, 22.5394324603378]  
                    ]
                ]
            }, 
            "properties": {
    "floor": "ground",
                "fill-opacity": 0, 
                "stroke-opacity": 1, 
                "stroke": "#ff0000", 
                "ID": "11-B2-H1", 
                "REMARKS": "POLYGON-43"
            }, 
            "id": "p43.3"
        }, 
        {
            "type": "Feature", 
            "geometry": {
                "type": "Polygon", 
                "coordinates": [
                    [
                        [88.3154328825353, 22.5393619039869], 
                        [88.3154660666992, 22.5394205977981], 
                        [88.3156543862708, 22.5393316759879], 
                        [88.3156186913894, 22.5392700002751], 
                        [88.3154328825353, 22.5393619039869]  
                    ]
                ]
            }, 
            "properties": {
    "floor": "ground",
                "fill-opacity": 0, 
                "stroke-opacity": 1, 
                "stroke": "#ff0000", 
                "ID": "11-B3-H1", 
                "REMARKS": "POLYGON-43"
            }, 
            "id": "p43.4"
        }, 
        {
            "type": "Feature", 
            "geometry": {
                "type": "Polygon", 
                "coordinates": [
                    [
                        [88.3153995048466, 22.5393028678826], 
                        [88.3154328825353, 22.5393619039869], 
                        [88.3156186913894, 22.5392700002751], 
                        [88.3155826006936, 22.5392076406508], 
                        [88.3153995048466, 22.5393028678826]  
                    ]
                ]
            }, 
            "properties": {
    "floor": "ground",
                "fill-opacity": 0, 
                "stroke-opacity": 1, 
                "stroke": "#ff0000", 
                "ID": "11-B4-H1", 
                "REMARKS": "POLYGON-43"
            }, 
            "id": "p43.5"
        }, 
        {
            "type": "Feature", 
            "geometry": {
                "type": "Polygon", 
                "coordinates": [
                    [
                        [88.3153675068096, 22.539246272009 ], 
                        [88.3153995048466, 22.5393028678826], 
                        [88.3155826006936, 22.5392076406508], 
                        [88.3155499152519, 22.5391511648248], 
                        [88.3153675068096, 22.539246272009 ]  
                    ]
                ]
            }, 
            "properties": {
    "floor": "ground",
                "fill-opacity": 0, 
                "stroke-opacity": 1, 
                "stroke": "#ff0000", 
                "ID": "11-B5-H1", 
                "REMARKS": "POLYGON-43"
            }, 
            "id": "p43.6"
        }, 
        {
            "type": "Feature", 
            "geometry": {
                "type": "Polygon", 
                "coordinates": [
                    [
                        [88.3153675068096, 22.539246272009 ], 
                        [88.3153368672368, 22.5391920788912], 
                        [88.3151573406612, 22.5392833696922], 
                        [88.3151888810492, 22.5393394069149], 
                        [88.3153675068096, 22.539246272009 ]  
                    ]
                ]
            }, 
            "properties": {
    "floor": "ground",
                "fill-opacity": 0, 
                "stroke-opacity": 1, 
                "stroke": "#ff0000", 
                "ID": "11-B6-H2", 
                "REMARKS": "POLYGON-43"
            }, 
            "id": "p43.7"
        }, 
        {
            "type": "Feature", 
            "geometry": {
                "type": "Polygon", 
                "coordinates": [
                    [
                        [88.3153031683923, 22.5391324747492], 
                        [88.3153368672368, 22.5391920788912], 
                        [88.3155197669514, 22.5390990728203], 
                        [88.3154847288034, 22.53903853185  ], 
                        [88.3153031683923, 22.5391324747492]  
                    ]
                ]
            }, 
            "properties": {
    "floor": "ground",
                "fill-opacity": 0, 
                "stroke-opacity": 1, 
                "stroke": "#ff0000", 
                "ID": "11-B7-H1", 
                "REMARKS": "POLYGON-43"
            }, 
            "id": "p43.8"
        }, 
        {
            "type": "Feature", 
            "geometry": {
                "type": "Polygon", 
                "coordinates": [
                    [
                        [88.3153031683923, 22.5391324747492], 
                        [88.3152738988258, 22.5390807048021], 
                        [88.3150947817747, 22.5391722224777], 
                        [88.3151244559582, 22.5392249440497], 
                        [88.3153031683923, 22.5391324747492]  
                    ]
                ]
            }, 
            "properties": {
    "floor": "ground",
                "fill-opacity": 0, 
                "stroke-opacity": 1, 
                "stroke": "#ff0000", 
                "ID": "11-B8-H2", 
                "REMARKS": "POLYGON-43"
            }, 
            "id": "p43.9"
        }, 
        {
            "type": "Feature", 
            "geometry": {
                "type": "Polygon", 
                "coordinates": [
                    [
                        [88.3152738988258, 22.5390807048021], 
                        [88.3152428790539, 22.5390258392149], 
                        [88.3150622063282, 22.5391143462857], 
                        [88.3150947817747, 22.5391722224777], 
                        [88.3152738988258, 22.5390807048021]  
                    ]
                ]
            }, 
            "properties": {
    "floor": "ground",
                "fill-opacity": 0, 
                "stroke-opacity": 1, 
                "stroke": "#ff0000", 
                "ID": "11-B9-H2", 
                "REMARKS": "POLYGON-43"
            }, 
            "id": "p43.10"
        }, 
        {
            "type": "Feature", 
            "geometry": {
                "type": "Polygon", 
                "coordinates": [
                    [
                        [88.3152117341263, 22.5389707522612], 
                        [88.3152428790539, 22.5390258392149], 
                        [88.3154255833801, 22.5389363369134], 
                        [88.3153919751692, 22.5388782666724], 
                        [88.3152117341263, 22.5389707522612]  
                    ]
                ]
            }, 
            "properties": {
    "floor": "ground",
                "fill-opacity": 0, 
                "stroke-opacity": 1, 
                "stroke": "#ff0000", 
                "ID": "11-B10-H1", 
                "REMARKS": "POLYGON-43"
            }, 
            "id": "p43.11"
        }, 
        {
            "type": "Feature", 
            "geometry": {
                "type": "Polygon", 
                "coordinates": [
                    [
                        [88.3151819548439, 22.5389180807644], 
                        [88.3152117341263, 22.5389707522612], 
                        [88.3153919751692, 22.5388782666724], 
                        [88.3153609232916, 22.5388246134143], 
                        [88.3151819548439, 22.5389180807644]  
                    ]
                ]
            }, 
            "properties": {
    "floor": "ground",
                "fill-opacity": 0, 
                "stroke-opacity": 1, 
                "stroke": "#ff0000", 
                "ID": "11-B11-H1", 
                "REMARKS": "POLYGON-43"
            }, 
            "id": "p43.12"
        }, 
        {
            "type": "Feature", 
            "geometry": {
                "type": "Polygon", 
                "coordinates": [
                    [
                        [88.3151819548439, 22.5389180807644], 
                        [88.3151528590122, 22.5388666181073], 
                        [88.3149743781036, 22.5389583035066], 
                        [88.3150040376578, 22.5390109990868], 
                        [88.3151819548439, 22.5389180807644]  
                    ]
                ]
            }, 
            "properties": {
    "floor": "ground",
                "fill-opacity": 0, 
                "stroke-opacity": 1, 
                "stroke": "#ff0000", 
                "ID": "11-B12-H2", 
                "REMARKS": "POLYGON-43"
            }, 
            "id": "p43.13"
        }, 
        {
            "type": "Feature", 
            "geometry": {
                "type": "Polygon", 
                "coordinates": [
                    [
                        [88.3151227849299, 22.5388134251891], 
                        [88.3151528590122, 22.5388666181073], 
                        [88.3153319801807, 22.5387746038073], 
                        [88.3153004149569, 22.5387200635594], 
                        [88.3151227849299, 22.5388134251891]  
                    ]
                ]
            }, 
            "properties": {
    "floor": "ground",
                "fill-opacity": 0, 
                "stroke-opacity": 1, 
                "stroke": "#ff0000", 
                "ID": "11-B13-H1", 
                "REMARKS": "POLYGON-43"
            }, 
            "id": "p43.14"
        }, 
        {
            "type": "Feature", 
            "geometry": {
                "type": "Polygon", 
                "coordinates": [
                    [
                        [88.3150880009275, 22.5387519016963], 
                        [88.3150495321878, 22.5386838608998], 
                        [88.3150418414909, 22.5386869947045], 
                        [88.3148794382313, 22.5387896255949], 
                        [88.3149108910069, 22.5388455071584], 
                        [88.3150880009275, 22.5387519016963]  
                    ]
                ]
            }, 
            "properties": {
    "floor": "ground",
                "fill-opacity": 0, 
                "stroke-opacity": 1, 
                "stroke": "#ff0000", 
                "ID": "11-B15-H2", 
                "REMARKS": "POLYGON-43"
            }, 
            "id": "p43.15"
        }, 
        {
            "type": "Feature", 
            "geometry": {
                "type": "Polygon", 
                "coordinates": [
                    [
                        [88.3155175643733, 22.5395702710924], 
                        [88.3154777856782, 22.5394987243513], 
                        [88.3153285487614, 22.5395701645394], 
                        [88.3153581004701, 22.5396264592382], 
                        [88.3153694971901, 22.5396422485035], 
                        [88.3155175643733, 22.5395702710924]  
                    ]
                ]
            }, 
            "properties": {
    "floor": "ground",
                "fill-opacity": 0, 
                "stroke-opacity": 1, 
                "stroke": "#ff0000", 
                "ID": "11-B1-H2", 
                "REMARKS": "POLYGON-43"
            }, 
            "id": "p43.16"
        }, 
        {
            "type": "Feature", 
            "geometry": {
                "type": "Polygon", 
                "coordinates": [
                    [
                        [88.3154777856782, 22.5394987243513], 
                        [88.3154409440843, 22.5394324603378], 
                        [88.315283183633 , 22.5395069525681], 
                        [88.3152897201503, 22.5395185658772], 
                        [88.3153125135902, 22.5395396182469], 
                        [88.3153285487614, 22.5395701645394], 
                        [88.3154777856782, 22.5394987243513]  
                    ]
                ]
            }, 
            "properties": {
    "floor": "ground",
                "fill-opacity": 0, 
                "stroke-opacity": 1, 
                "stroke": "#ff0000", 
                "ID": "11-B2-H2", 
                "REMARKS": "POLYGON-43"
            }, 
            "id": "p43.17"
        }, 
        {
            "type": "Feature", 
            "geometry": {
                "type": "Polygon", 
                "coordinates": [
                    [
                        [88.3154660666992, 22.5394205977981], 
                        [88.3154328825353, 22.5393619039869], 
                        [88.3152519215804, 22.5394514098586], 
                        [88.315283183633 , 22.5395069525681], 
                        [88.3154660666992, 22.5394205977981]  
                    ]
                ]
            }, 
            "properties": {
    "floor": "ground",
                "fill-opacity": 0, 
                "stroke-opacity": 1, 
                "stroke": "#ff0000", 
                "ID": "11-B3-H2", 
                "REMARKS": "POLYGON-43"
            }, 
            "id": "p43.18"
        }, 
        {
            "type": "Feature", 
            "geometry": {
                "type": "Polygon", 
                "coordinates": [
                    [
                        [88.3154328825353, 22.5393619039869], 
                        [88.3153995048466, 22.5393028678826], 
                        [88.3152206670544, 22.5393958805214], 
                        [88.3152519215804, 22.5394514098586], 
                        [88.3154328825353, 22.5393619039869]  
                    ]
                ]
            }, 
            "properties": {
    "floor": "ground",
                "fill-opacity": 0, 
                "stroke-opacity": 1, 
                "stroke": "#ff0000", 
                "ID": "11-B4-H2", 
                "REMARKS": "POLYGON-43"
            }, 
            "id": "p43.19"
        }, 
        {
            "type": "Feature", 
            "geometry": {
                "type": "Polygon", 
                "coordinates": [
                    [
                        [88.3153995048466, 22.5393028678826], 
                        [88.3153675068096, 22.539246272009 ], 
                        [88.3151888810492, 22.5393394069149], 
                        [88.3152206670544, 22.5393958805214], 
                        [88.3153995048466, 22.5393028678826]  
                    ]
                ]
            }, 
            "properties": {
    "floor": "ground",
                "fill-opacity": 0, 
                "stroke-opacity": 1, 
                "stroke": "#ff0000", 
                "ID": "11-B5-H2", 
                "REMARKS": "POLYGON-43"
            }, 
            "id": "p43.20"
        }, 
        {
            "type": "Feature", 
            "geometry": {
                "type": "Polygon", 
                "coordinates": [
                    [
                        [88.3153368672368, 22.5391920788912], 
                        [88.3153675068096, 22.539246272009 ], 
                        [88.3155499152519, 22.5391511648248], 
                        [88.3155197669514, 22.5390990728203], 
                        [88.3153368672368, 22.5391920788912]  
                    ]
                ]
            }, 
            "properties": {
    "floor": "ground",
                "fill-opacity": 0, 
                "stroke-opacity": 1, 
                "stroke": "#ff0000", 
                "ID": "11-B6-H1", 
                "REMARKS": "POLYGON-43"
            }, 
            "id": "p43.21"
        }, 
        {
            "type": "Feature", 
            "geometry": {
                "type": "Polygon", 
                "coordinates": [
                    [
                        [88.3153368672368, 22.5391920788912], 
                        [88.3153031683923, 22.5391324747492], 
                        [88.3151244559582, 22.5392249440497], 
                        [88.3151573406612, 22.5392833696922], 
                        [88.3153368672368, 22.5391920788912]  
                    ]
                ]
            }, 
            "properties": {
    "floor": "ground",
                "fill-opacity": 0, 
                "stroke-opacity": 1, 
                "stroke": "#ff0000", 
                "ID": "11-B7-H2", 
                "REMARKS": "POLYGON-43"
            }, 
            "id": "p43.22"
        }, 
        {
            "type": "Feature", 
            "geometry": {
                "type": "Polygon", 
                "coordinates": [
                    [
                        [88.3152738988258, 22.5390807048021], 
                        [88.3153031683923, 22.5391324747492], 
                        [88.3154847288034, 22.53903853185  ], 
                        [88.3154554505482, 22.5389879431609], 
                        [88.3152738988258, 22.5390807048021]  
                    ]
                ]
            }, 
            "properties": {
    "floor": "ground",
                "fill-opacity": 0, 
                "stroke-opacity": 1, 
                "stroke": "#ff0000", 
                "ID": "11-B8-H1", 
                "REMARKS": "POLYGON-43"
            }, 
            "id": "p43.23"
        }, 
        {
            "type": "Feature", 
            "geometry": {
                "type": "Polygon", 
                "coordinates": [
                    [
                        [88.3152428790539, 22.5390258392149], 
                        [88.3152738988258, 22.5390807048021], 
                        [88.3154554505482, 22.5389879431609], 
                        [88.3154255833801, 22.5389363369134], 
                        [88.3152428790539, 22.5390258392149]  
                    ]
                ]
            }, 
            "properties": {
    "floor": "ground",
                "fill-opacity": 0, 
                "stroke-opacity": 1, 
                "stroke": "#ff0000", 
                "ID": "11-B9-H1", 
                "REMARKS": "POLYGON-43"
            }, 
            "id": "p43.24"
        }, 
        {
            "type": "Feature", 
            "geometry": {
                "type": "Polygon", 
                "coordinates": [
                    [
                        [88.3152428790539, 22.5390258392149], 
                        [88.3152117341263, 22.5389707522612], 
                        [88.3150330037885, 22.5390624626745], 
                        [88.3150622063282, 22.5391143462857], 
                        [88.3152428790539, 22.5390258392149]  
                    ]
                ]
            }, 
            "properties": {
    "floor": "ground",
                "fill-opacity": 0, 
                "stroke-opacity": 1, 
                "stroke": "#ff0000", 
                "ID": "11-B10-H2", 
                "REMARKS": "POLYGON-43"
            }, 
            "id": "p43.25"
        }, 
        {
            "type": "Feature", 
            "geometry": {
                "type": "Polygon", 
                "coordinates": [
                    [
                        [88.3152117341263, 22.5389707522612], 
                        [88.3151819548439, 22.5389180807644], 
                        [88.3150040376578, 22.5390109990868], 
                        [88.3150330037885, 22.5390624626745], 
                        [88.3152117341263, 22.5389707522612]  
                    ]
                ]
            }, 
            "properties": {
    "floor": "ground",
                "fill-opacity": 0, 
                "stroke-opacity": 1, 
                "stroke": "#ff0000", 
                "ID": "11-B11-H2", 
                "REMARKS": "POLYGON-43"
            }, 
            "id": "p43.26"
        }, 
        {
            "type": "Feature", 
            "geometry": {
                "type": "Polygon", 
                "coordinates": [
                    [
                        [88.3151528590122, 22.5388666181073], 
                        [88.3151819548439, 22.5389180807644], 
                        [88.3153609232916, 22.5388246134143], 
                        [88.3153319801807, 22.5387746038073], 
                        [88.3151528590122, 22.5388666181073]  
                    ]
                ]
            }, 
            "properties": {
    "floor": "ground",
                "fill-opacity": 0, 
                "stroke-opacity": 1, 
                "stroke": "#ff0000", 
                "ID": "11-B12-H1", 
                "REMARKS": "POLYGON-43"
            }, 
            "id": "p43.27"
        }, 
        {
            "type": "Feature", 
            "geometry": {
                "type": "Polygon", 
                "coordinates": [
                    [
                        [88.3151528590122, 22.5388666181073], 
                        [88.3151227849299, 22.5388134251891], 
                        [88.3149453302212, 22.5389066946722], 
                        [88.3149743781036, 22.5389583035066], 
                        [88.3151528590122, 22.5388666181073]  
                    ]
                ]
            }, 
            "properties": {
    "floor": "ground",
                "fill-opacity": 0, 
                "stroke-opacity": 1, 
                "stroke": "#ff0000", 
                "ID": "11-B13-H2", 
                "REMARKS": "POLYGON-43"
            }, 
            "id": "p43.28"
        }, 
        {
            "type": "Feature", 
            "geometry": {
                "type": "Polygon", 
                "coordinates": [
                    [
                        [88.3150495321878, 22.5386838608998], 
                        [88.3150880009275, 22.5387519016963], 
                        [88.3152647710055, 22.5386584758464], 
                        [88.3152355857304, 22.5386080478139], 
                        [88.3150495321878, 22.5386838608998]  
                    ]
                ]
            }, 
            "properties": {
    "floor": "ground",
                "fill-opacity": 0, 
                "stroke-opacity": 1, 
                "stroke": "#ff0000", 
                "ID": "11-B15-H1", 
                "REMARKS": "POLYGON-43"
            }, 
            "id": "p43.29"
        }, 
        {
            "type": "Feature", 
            "geometry": {
                "type": "Polygon", 
                "coordinates": [
                    [
                        [88.3151227849299, 22.5388134251891], 
                        [88.3150880009275, 22.5387519016963], 
                        [88.3149108910069, 22.5388455071584], 
                        [88.3149453302212, 22.5389066946722], 
                        [88.3151227849299, 22.5388134251891]  
                    ]
                ]
            }, 
            "properties": {
    "floor": "ground",
                "fill-opacity": 0, 
                "stroke-opacity": 1, 
                "stroke": "#ff0000", 
                "ID": "11-B14-H2", 
                "REMARKS": "POLYGON-43"
            }, 
            "id": "p43.30"
        }
    ]
}
