{
    "type": "FeatureCollection", 
    "features": [
        {
            "type": "Feature", 
            "geometry": {
                "type": "Polygon", 
                "coordinates": [
                    [
                        [88.313739047594 , 22.5313820672084], 
                        [88.3137220302795, 22.531446924363 ], 
                        [88.3139410495921, 22.5314878663174], 
                        [88.313956023615 , 22.5314224103257], 
                        [88.313739047594 , 22.5313820672084]  
                    ]
                ]
            }, 
            "properties": {
    "floor": "first",
                "fill-opacity": 0, 
                "stroke-opacity": 1, 
                "stroke": "#ff0000", 
                "pkuid": 1, 
                "ID": "26F-B20-H1", 
                "REMARKS": "POLYGON-54"
            }, 
            "id": "polygon55g.1"
        }, 
        {
            "type": "Feature", 
            "geometry": {
                "type": "Polygon", 
                "coordinates": [
                    [
                        [88.3134804623651, 22.5323675988654], 
                        [88.3134658804692, 22.5324231740433], 
                        [88.3137151291651, 22.5324754329676], 
                        [88.3137285223848, 22.5324168871457], 
                        [88.3134804623651, 22.5323675988654]  
                    ]
                ]
            }, 
            "properties": {
    "floor": "first",
                "fill-opacity": 0, 
                "stroke-opacity": 1, 
                "stroke": "#ff0000", 
                "pkuid": 2, 
                "ID": "26F-B1-H1", 
                "REMARKS": "POLYGON-54"
            }, 
            "id": "polygon55g.2"
        }, 
        {
            "type": "Feature", 
            "geometry": {
                "type": "Polygon", 
                "coordinates": [
                    [
                        [88.3134937443981, 22.5323169777838], 
                        [88.3134804623651, 22.5323675988654], 
                        [88.3137285223848, 22.5324168871457], 
                        [88.3137402812534, 22.5323654855673], 
                        [88.3134937443981, 22.5323169777838]  
                    ]
                ]
            }, 
            "properties": {
    "floor": "first",
                "fill-opacity": 0, 
                "stroke-opacity": 1, 
                "stroke": "#ff0000", 
                "pkuid": 3, 
                "ID": "26F-B2-H1", 
                "REMARKS": "POLYGON-54"
            }, 
            "id": "polygon55g.3"
        }, 
        {
            "type": "Feature", 
            "geometry": {
                "type": "Polygon", 
                "coordinates": [
                    [
                        [88.3135074358328, 22.532264796372 ], 
                        [88.3134937443981, 22.5323169777838], 
                        [88.3137402812534, 22.5323654855673], 
                        [88.3137526478599, 22.5323114273829], 
                        [88.3135074358328, 22.532264796372 ]  
                    ]
                ]
            }, 
            "properties": {
    "floor": "first",
                "fill-opacity": 0, 
                "stroke-opacity": 1, 
                "stroke": "#ff0000", 
                "pkuid": 4, 
                "ID": "26F-B3-H1", 
                "REMARKS": "POLYGON-54"
            }, 
            "id": "polygon55g.4"
        }, 
        {
            "type": "Feature", 
            "geometry": {
                "type": "Polygon", 
                "coordinates": [
                    [
                        [88.3135203860302, 22.5322154399971], 
                        [88.3135074358328, 22.532264796372 ], 
                        [88.3137526478599, 22.5323114273829], 
                        [88.3137656600879, 22.5322545469911], 
                        [88.3135203860302, 22.5322154399971]  
                    ]
                ]
            }, 
            "properties": {
    "floor": "first",
                "fill-opacity": 0, 
                "stroke-opacity": 1, 
                "stroke": "#ff0000", 
                "pkuid": 5, 
                "ID": "26F-B4-H1", 
                "REMARKS": "POLYGON-54"
            }, 
            "id": "polygon55g.5"
        }, 
        {
            "type": "Feature", 
            "geometry": {
                "type": "Polygon", 
                "coordinates": [
                    [
                        [88.3135313600683, 22.5321736152494], 
                        [88.3135203860302, 22.5322154399971], 
                        [88.3137656600879, 22.5322545469911], 
                        [88.3137757197819, 22.53221057302  ], 
                        [88.3135313600683, 22.5321736152494]  
                    ]
                ]
            }, 
            "properties": {
    "floor": "first",
                "fill-opacity": 0, 
                "stroke-opacity": 1, 
                "stroke": "#ff0000", 
                "pkuid": 6, 
                "ID": "26F-B5-H1", 
                "REMARKS": "POLYGON-54"
            }, 
            "id": "polygon55g.6"
        }, 
        {
            "type": "Feature", 
            "geometry": {
                "type": "Polygon", 
                "coordinates": [
                    [
                        [88.313547326931 , 22.532112761624 ], 
                        [88.3135313600683, 22.5321736152494], 
                        [88.3137757197819, 22.53221057302  ], 
                        [88.3137894721385, 22.5321504573016], 
                        [88.313547326931 , 22.532112761624 ]  
                    ]
                ]
            }, 
            "properties": {
    "floor": "first",
                "fill-opacity": 0, 
                "stroke-opacity": 1, 
                "stroke": "#ff0000", 
                "pkuid": 7, 
                "ID": "26F-B6-H1", 
                "REMARKS": "POLYGON-54"
            }, 
            "id": "polygon55g.7"
        }, 
        {
            "type": "Feature", 
            "geometry": {
                "type": "Polygon", 
                "coordinates": [
                    [
                        [88.3135610216208, 22.532060567806 ], 
                        [88.313547326931 , 22.532112761624 ], 
                        [88.3137894721385, 22.5321504573016], 
                        [88.3138011189664, 22.5320995454876], 
                        [88.3135610216208, 22.532060567806 ]  
                    ]
                ]
            }, 
            "properties": {
    "floor": "first",
                "fill-opacity": 0, 
                "stroke-opacity": 1, 
                "stroke": "#ff0000", 
                "pkuid": 8, 
                "ID": "26F-B7-H1", 
                "REMARKS": "POLYGON-54"
            }, 
            "id": "polygon55g.8"
        }, 
        {
            "type": "Feature", 
            "geometry": {
                "type": "Polygon", 
                "coordinates": [
                    [
                        [88.3135750041746, 22.5320072768681], 
                        [88.3135610216208, 22.532060567806 ], 
                        [88.3138011189664, 22.5320995454876], 
                        [88.3138124305203, 22.5320500992576], 
                        [88.3135750041746, 22.5320072768681]  
                    ]
                ]
            }, 
            "properties": {
    "floor": "first",
                "fill-opacity": 0, 
                "stroke-opacity": 1, 
                "stroke": "#ff0000", 
                "pkuid": 9, 
                "ID": "26F-B8-H1", 
                "REMARKS": "POLYGON-54"
            }, 
            "id": "polygon55g.9"
        }, 
        {
            "type": "Feature", 
            "geometry": {
                "type": "Polygon", 
                "coordinates": [
                    [
                        [88.3135878526968, 22.5319583080021], 
                        [88.3135750041746, 22.5320072768681], 
                        [88.3138124305203, 22.5320500992576], 
                        [88.3138242133534, 22.5319985929231], 
                        [88.3135878526968, 22.5319583080021]  
                    ]
                ]
            }, 
            "properties": {
    "floor": "first",
                "fill-opacity": 0, 
                "stroke-opacity": 1, 
                "stroke": "#ff0000", 
                "pkuid": 10, 
                "ID": "26F-B9-H1", 
                "REMARKS": "POLYGON-54"
            }, 
            "id": "polygon55g.10"
        }, 
        {
            "type": "Feature", 
            "geometry": {
                "type": "Polygon", 
                "coordinates": [
                    [
                        [88.3136009182256, 22.5319085120711], 
                        [88.3135878526968, 22.5319583080021], 
                        [88.3138242133534, 22.5319985929231], 
                        [88.3138356677229, 22.531948522403 ], 
                        [88.3136009182256, 22.5319085120711]  
                    ]
                ]
            }, 
            "properties": {
    "floor": "first",
                "fill-opacity": 0, 
                "stroke-opacity": 1, 
                "stroke": "#ff0000", 
                "pkuid": 11, 
                "ID": "26F-B10-H1", 
                "REMARKS": "POLYGON-54"
            }, 
            "id": "polygon55g.11"
        }, 
        {
            "type": "Feature", 
            "geometry": {
                "type": "Polygon", 
                "coordinates": [
                    [
                        [88.3136135679484, 22.5318603008784], 
                        [88.3136009182256, 22.5319085120711], 
                        [88.3138356677229, 22.531948522403 ], 
                        [88.313846989369 , 22.531899032057 ], 
                        [88.3136135679484, 22.5318603008784]  
                    ]
                ]
            }, 
            "properties": {
    "floor": "first",
                "fill-opacity": 0, 
                "stroke-opacity": 1, 
                "stroke": "#ff0000", 
                "pkuid": 12, 
                "ID": "26F-B11-H1", 
                "REMARKS": "POLYGON-54"
            }, 
            "id": "polygon55g.12"
        }, 
        {
            "type": "Feature", 
            "geometry": {
                "type": "Polygon", 
                "coordinates": [
                    [
                        [88.3136275807262, 22.5318068947495], 
                        [88.3136135679484, 22.5318603008784], 
                        [88.313846989369 , 22.531899032057 ], 
                        [88.313858531418 , 22.5318485782632], 
                        [88.3136275807262, 22.5318068947495]  
                    ]
                ]
            }, 
            "properties": {
    "floor": "first",
                "fill-opacity": 0, 
                "stroke-opacity": 1, 
                "stroke": "#ff0000", 
                "pkuid": 13, 
                "ID": "26F-B12-H1", 
                "REMARKS": "POLYGON-54"
            }, 
            "id": "polygon55g.13"
        }, 
        {
            "type": "Feature", 
            "geometry": {
                "type": "Polygon", 
                "coordinates": [
                    [
                        [88.3136414994453, 22.531753847101 ], 
                        [88.3136275807262, 22.5318068947495], 
                        [88.313858531418 , 22.5318485782632], 
                        [88.3138708056279, 22.531794923972 ], 
                        [88.3136414994453, 22.531753847101 ]  
                    ]
                ]
            }, 
            "properties": {
    "floor": "first",
                "fill-opacity": 0, 
                "stroke-opacity": 1, 
                "stroke": "#ff0000", 
                "pkuid": 14, 
                "ID": "26F-B13-H1", 
                "REMARKS": "POLYGON-54"
            }, 
            "id": "polygon55g.14"
        }, 
        {
            "type": "Feature", 
            "geometry": {
                "type": "Polygon", 
                "coordinates": [
                    [
                        [88.3136564497359, 22.5316968678809], 
                        [88.3136414994453, 22.531753847101 ], 
                        [88.3138708056279, 22.531794923972 ], 
                        [88.3138842808809, 22.5317360195577], 
                        [88.3136564497359, 22.5316968678809]  
                    ]
                ]
            }, 
            "properties": {
    "floor": "first",
                "fill-opacity": 0, 
                "stroke-opacity": 1, 
                "stroke": "#ff0000", 
                "pkuid": 15, 
                "ID": "26F-B14-H1", 
                "REMARKS": "POLYGON-54"
            }, 
            "id": "polygon55g.15"
        }, 
        {
            "type": "Feature", 
            "geometry": {
                "type": "Polygon", 
                "coordinates": [
                    [
                        [88.3136693048798, 22.531647873778 ], 
                        [88.3136564497359, 22.5316968678809], 
                        [88.3138842808809, 22.5317360195577], 
                        [88.3138942993818, 22.5316922256541], 
                        [88.3136693048798, 22.531647873778 ]  
                    ]
                ]
            }, 
            "properties": {
    "floor": "first",
                "fill-opacity": 0, 
                "stroke-opacity": 1, 
                "stroke": "#ff0000", 
                "pkuid": 16, 
                "ID": "26F-B15-H1", 
                "REMARKS": "POLYGON-54"
            }, 
            "id": "polygon55g.16"
        }, 
        {
            "type": "Feature", 
            "geometry": {
                "type": "Polygon", 
                "coordinates": [
                    [
                        [88.3136823751096, 22.5315980599305], 
                        [88.3136693048798, 22.531647873778 ], 
                        [88.3138942993818, 22.5316922256541], 
                        [88.3139057482353, 22.531642179246 ], 
                        [88.3136823751096, 22.5315980599305]  
                    ]
                ]
            }, 
            "properties": {
    "floor": "first",
                "fill-opacity": 0, 
                "stroke-opacity": 1, 
                "stroke": "#ff0000", 
                "pkuid": 17, 
                "ID": "26F-B16-H1", 
                "REMARKS": "POLYGON-54"
            }, 
            "id": "polygon55g.17"
        }, 
        {
            "type": "Feature", 
            "geometry": {
                "type": "Polygon", 
                "coordinates": [
                    [
                        [88.3136948479676, 22.5315505228128], 
                        [88.3136823751096, 22.5315980599305], 
                        [88.3139057482353, 22.531642179246 ], 
                        [88.3139169745663, 22.531593105551 ], 
                        [88.3136948479676, 22.5315505228128]  
                    ]
                ]
            }, 
            "properties": {
    "floor": "first",
                "fill-opacity": 0, 
                "stroke-opacity": 1, 
                "stroke": "#ff0000", 
                "pkuid": 18, 
                "ID": "26F-B17-H1", 
                "REMARKS": "POLYGON-54"
            }, 
            "id": "polygon55g.18"
        }, 
        {
            "type": "Feature", 
            "geometry": {
                "type": "Polygon", 
                "coordinates": [
                    [
                        [88.3137072257715, 22.5315033479696], 
                        [88.3136948479676, 22.5315505228128], 
                        [88.3139169745663, 22.531593105551 ], 
                        [88.3139285050451, 22.5315427023341], 
                        [88.3137072257715, 22.5315033479696]  
                    ]
                ]
            }, 
            "properties": {
    "floor": "first",
                "fill-opacity": 0, 
                "stroke-opacity": 1, 
                "stroke": "#ff0000", 
                "pkuid": 19, 
                "ID": "26F-B18-H1", 
                "REMARKS": "POLYGON-54"
            }, 
            "id": "polygon55g.19"
        }, 
        {
            "type": "Feature", 
            "geometry": {
                "type": "Polygon", 
                "coordinates": [
                    [
                        [88.3137220302795, 22.531446924363 ], 
                        [88.3137072257715, 22.5315033479696], 
                        [88.3139285050451, 22.5315427023341], 
                        [88.3139410495921, 22.5314878663174], 
                        [88.3137220302795, 22.531446924363 ]  
                    ]
                ]
            }, 
            "properties": {
    "floor": "first",
                "fill-opacity": 0, 
                "stroke-opacity": 1, 
                "stroke": "#ff0000", 
                "pkuid": 20, 
                "ID": "26F-B19-H1", 
                "REMARKS": "POLYGON-54"
            }, 
            "id": "polygon55g.20"
        }, 
        {
            "type": "Feature", 
            "geometry": {
                "type": "Polygon", 
                "coordinates": [
                    [
                        [88.3137220302795, 22.531446924363 ], 
                        [88.313739047594 , 22.5313820672084], 
                        [88.3135339374247, 22.5313439303508], 
                        [88.3135177832313, 22.5314087438335], 
                        [88.3137220302795, 22.531446924363 ]  
                    ]
                ]
            }, 
            "properties": {
    "floor": "first",
                "fill-opacity": 0, 
                "stroke-opacity": 1, 
                "stroke": "#ff0000", 
                "pkuid": 21, 
                "ID": "26F-B20-H2", 
                "REMARKS": "POLYGON-54"
            }, 
            "id": "polygon55g.21"
        }, 
        {
            "type": "Feature", 
            "geometry": {
                "type": "Polygon", 
                "coordinates": [
                    [
                        [88.3134658804692, 22.5324231740433], 
                        [88.3134804623651, 22.5323675988654], 
                        [88.3132883128239, 22.5323294197164], 
                        [88.313274924247 , 22.5323831370564], 
                        [88.3134658804692, 22.5324231740433]  
                    ]
                ]
            }, 
            "properties": {
    "floor": "first",
                "fill-opacity": 0, 
                "stroke-opacity": 1, 
                "stroke": "#ff0000", 
                "pkuid": 22, 
                "ID": "26F-B1-H2", 
                "REMARKS": "POLYGON-54"
            }, 
            "id": "polygon55g.22"
        }, 
        {
            "type": "Feature", 
            "geometry": {
                "type": "Polygon", 
                "coordinates": [
                    [
                        [88.3134804623651, 22.5323675988654], 
                        [88.3134937443981, 22.5323169777838], 
                        [88.3133008722938, 22.5322790289009], 
                        [88.3132883128239, 22.5323294197164], 
                        [88.3134804623651, 22.5323675988654]  
                    ]
                ]
            }, 
            "properties": {
    "floor": "first",
                "fill-opacity": 0, 
                "stroke-opacity": 1, 
                "stroke": "#ff0000", 
                "pkuid": 23, 
                "ID": "26F-B2-H2", 
                "REMARKS": "POLYGON-54"
            }, 
            "id": "polygon55g.23"
        }, 
        {
            "type": "Feature", 
            "geometry": {
                "type": "Polygon", 
                "coordinates": [
                    [
                        [88.3134937443981, 22.5323169777838], 
                        [88.3135074358328, 22.532264796372 ], 
                        [88.3133136065964, 22.5322279366252], 
                        [88.3133008722938, 22.5322790289009], 
                        [88.3134937443981, 22.5323169777838]  
                    ]
                ]
            }, 
            "properties": {
    "floor": "first",
                "fill-opacity": 0, 
                "stroke-opacity": 1, 
                "stroke": "#ff0000", 
                "pkuid": 24, 
                "ID": "26F-B3-H2", 
                "REMARKS": "POLYGON-55"
            }, 
            "id": "polygon55g.24"
        }, 
        {
            "type": "Feature", 
            "geometry": {
                "type": "Polygon", 
                "coordinates": [
                    [
                        [88.3135074358328, 22.532264796372 ], 
                        [88.3135203860302, 22.5322154399971], 
                        [88.3133245054731, 22.5321842084031], 
                        [88.3133136065964, 22.5322279366252], 
                        [88.3135074358328, 22.532264796372 ]  
                    ]
                ]
            }, 
            "properties": {
    "floor": "first",
                "fill-opacity": 0, 
                "stroke-opacity": 1, 
                "stroke": "#ff0000", 
                "pkuid": 25, 
                "ID": "26F-B4-H2", 
                "REMARKS": "POLYGON-54"
            }, 
            "id": "polygon55g.25"
        }, 
        {
            "type": "Feature", 
            "geometry": {
                "type": "Polygon", 
                "coordinates": [
                    [
                        [88.3135203860302, 22.5322154399971], 
                        [88.3135313600683, 22.5321736152494], 
                        [88.3133345641565, 22.5321438511853], 
                        [88.3133245054731, 22.5321842084031], 
                        [88.3135203860302, 22.5322154399971]  
                    ]
                ]
            }, 
            "properties": {
    "floor": "first",
                "fill-opacity": 0, 
                "stroke-opacity": 1, 
                "stroke": "#ff0000", 
                "pkuid": 26, 
                "ID": "26F-B5-H2", 
                "REMARKS": "POLYGON-54"
            }, 
            "id": "polygon55g.26"
        }, 
        {
            "type": "Feature", 
            "geometry": {
                "type": "Polygon", 
                "coordinates": [
                    [
                        [88.3135313600683, 22.5321736152494], 
                        [88.313547326931 , 22.532112761624 ], 
                        [88.313349970457 , 22.5320820383811], 
                        [88.3133345641565, 22.5321438511853], 
                        [88.3135313600683, 22.5321736152494]  
                    ]
                ]
            }, 
            "properties": {
    "floor": "first",
                "fill-opacity": 0, 
                "stroke-opacity": 1, 
                "stroke": "#ff0000", 
                "pkuid": 27, 
                "ID": "26F-B6-H2", 
                "REMARKS": "POLYGON-54"
            }, 
            "id": "polygon55g.27"
        }, 
        {
            "type": "Feature", 
            "geometry": {
                "type": "Polygon", 
                "coordinates": [
                    [
                        [88.313547326931 , 22.532112761624 ], 
                        [88.3135610216208, 22.532060567806 ], 
                        [88.3133633211874, 22.5320284728883], 
                        [88.313349970457 , 22.5320820383811], 
                        [88.313547326931 , 22.532112761624 ]  
                    ]
                ]
            }, 
            "properties": {
    "floor": "first",
                "fill-opacity": 0, 
                "stroke-opacity": 1, 
                "stroke": "#ff0000", 
                "pkuid": 28, 
                "ID": "26F-B7-H2", 
                "REMARKS": "POLYGON-54"
            }, 
            "id": "polygon55g.28"
        }, 
        {
            "type": "Feature", 
            "geometry": {
                "type": "Polygon", 
                "coordinates": [
                    [
                        [88.3135610216208, 22.532060567806 ], 
                        [88.3135750041746, 22.5320072768681], 
                        [88.3133774833305, 22.5319716518641], 
                        [88.3133633211874, 22.5320284728883], 
                        [88.3135610216208, 22.532060567806 ]  
                    ]
                ]
            }, 
            "properties": {
    "floor": "first",
                "fill-opacity": 0, 
                "stroke-opacity": 1, 
                "stroke": "#ff0000", 
                "pkuid": 29, 
                "ID": "26F-B8-H2", 
                "REMARKS": "POLYGON-54"
            }, 
            "id": "polygon55g.29"
        }, 
        {
            "type": "Feature", 
            "geometry": {
                "type": "Polygon", 
                "coordinates": [
                    [
                        [88.3135750041746, 22.5320072768681], 
                        [88.3135878526968, 22.5319583080021], 
                        [88.3133892460355, 22.5319244578099], 
                        [88.3133774833305, 22.5319716518641], 
                        [88.3135750041746, 22.5320072768681]  
                    ]
                ]
            }, 
            "properties": {
    "floor": "first",
                "fill-opacity": 0, 
                "stroke-opacity": 1, 
                "stroke": "#ff0000", 
                "pkuid": 30, 
                "ID": "26F-B9-H2", 
                "REMARKS": "POLYGON-54"
            }, 
            "id": "polygon55g.30"
        }, 
        {
            "type": "Feature", 
            "geometry": {
                "type": "Polygon", 
                "coordinates": [
                    [
                        [88.3135878526968, 22.5319583080021], 
                        [88.3136009182256, 22.5319085120711], 
                        [88.3134016839018, 22.531874554889 ], 
                        [88.3133892460355, 22.5319244578099], 
                        [88.3135878526968, 22.5319583080021]  
                    ]
                ]
            }, 
            "properties": {
    "floor": "first",
                "fill-opacity": 0, 
                "stroke-opacity": 1, 
                "stroke": "#ff0000", 
                "pkuid": 31, 
                "ID": "26F-B10-H2", 
                "REMARKS": "POLYGON-54"
            }, 
            "id": "polygon55g.31"
        }, 
        {
            "type": "Feature", 
            "geometry": {
                "type": "Polygon", 
                "coordinates": [
                    [
                        [88.3136009182256, 22.5319085120711], 
                        [88.3136135679484, 22.5318603008784], 
                        [88.313413510204 , 22.531827105672 ], 
                        [88.3134016839018, 22.531874554889 ], 
                        [88.3136009182256, 22.5319085120711]  
                    ]
                ]
            }, 
            "properties": {
    "floor": "first",
                "fill-opacity": 0, 
                "stroke-opacity": 1, 
                "stroke": "#ff0000", 
                "pkuid": 32, 
                "ID": "26F-B11-H2", 
                "REMARKS": "POLYGON-54"
            }, 
            "id": "polygon55g.32"
        }, 
        {
            "type": "Feature", 
            "geometry": {
                "type": "Polygon", 
                "coordinates": [
                    [
                        [88.3136135679484, 22.5318603008784], 
                        [88.3136275807262, 22.5318068947495], 
                        [88.3134275461002, 22.5317707911725], 
                        [88.313413510204 , 22.531827105672 ], 
                        [88.3136135679484, 22.5318603008784]  
                    ]
                ]
            }, 
            "properties": {
    "floor": "first",
                "fill-opacity": 0, 
                "stroke-opacity": 1, 
                "stroke": "#ff0000", 
                "pkuid": 33, 
                "ID": "26F-B12-H2", 
                "REMARKS": "POLYGON-54"
            }, 
            "id": "polygon55g.33"
        }, 
        {
            "type": "Feature", 
            "geometry": {
                "type": "Polygon", 
                "coordinates": [
                    [
                        [88.3136275807262, 22.5318068947495], 
                        [88.3136414994453, 22.531753847101 ], 
                        [88.3134407330686, 22.5317178827216], 
                        [88.3134275461002, 22.5317707911725], 
                        [88.3136275807262, 22.5318068947495]  
                    ]
                ]
            }, 
            "properties": {
    "floor": "first",
                "fill-opacity": 0, 
                "stroke-opacity": 1, 
                "stroke": "#ff0000", 
                "pkuid": 34, 
                "ID": "26F-B13-H2", 
                "REMARKS": "POLYGON-54"
            }, 
            "id": "polygon55g.34"
        }, 
        {
            "type": "Feature", 
            "geometry": {
                "type": "Polygon", 
                "coordinates": [
                    [
                        [88.3136414994453, 22.531753847101 ], 
                        [88.3136564497359, 22.5316968678809], 
                        [88.3134546155725, 22.5316621836593], 
                        [88.3134407330686, 22.5317178827216], 
                        [88.3136414994453, 22.531753847101 ]  
                    ]
                ]
            }, 
            "properties": {
    "floor": "first",
                "fill-opacity": 0, 
                "stroke-opacity": 1, 
                "stroke": "#ff0000", 
                "pkuid": 35, 
                "ID": "26F-B14-H2", 
                "REMARKS": "POLYGON-54"
            }, 
            "id": "polygon55g.35"
        }, 
        {
            "type": "Feature", 
            "geometry": {
                "type": "Polygon", 
                "coordinates": [
                    [
                        [88.3136564497359, 22.5316968678809], 
                        [88.3136693048798, 22.531647873778 ], 
                        [88.3134680691958, 22.5316082053415], 
                        [88.3134546155725, 22.5316621836593], 
                        [88.3136564497359, 22.5316968678809]  
                    ]
                ]
            }, 
            "properties": {
    "floor": "first",
                "fill-opacity": 0, 
                "stroke-opacity": 1, 
                "stroke": "#ff0000", 
                "pkuid": 36, 
                "ID": "26F-B15-H2", 
                "REMARKS": "POLYGON-54"
            }, 
            "id": "polygon55g.36"
        }, 
        {
            "type": "Feature", 
            "geometry": {
                "type": "Polygon", 
                "coordinates": [
                    [
                        [88.3136693048798, 22.531647873778 ], 
                        [88.3136823751096, 22.5315980599305], 
                        [88.3134805342024, 22.5315581935293], 
                        [88.3134680691958, 22.5316082053415], 
                        [88.3136693048798, 22.531647873778 ]  
                    ]
                ]
            }, 
            "properties": {
    "floor": "first",
                "fill-opacity": 0, 
                "stroke-opacity": 1, 
                "stroke": "#ff0000", 
                "pkuid": 37, 
                "ID": "26F-B16-H2", 
                "REMARKS": "POLYGON-54"
            }, 
            "id": "polygon55g.37"
        }, 
        {
            "type": "Feature", 
            "geometry": {
                "type": "Polygon", 
                "coordinates": [
                    [
                        [88.3136823751096, 22.5315980599305], 
                        [88.3136948479676, 22.5315505228128], 
                        [88.3134921319826, 22.5315116611827], 
                        [88.3134805342024, 22.5315581935293], 
                        [88.3136823751096, 22.5315980599305]  
                    ]
                ]
            }, 
            "properties": {
    "floor": "first",
                "fill-opacity": 0, 
                "stroke-opacity": 1, 
                "stroke": "#ff0000", 
                "pkuid": 38, 
                "ID": "26F-B17-H2", 
                "REMARKS": "POLYGON-54"
            }, 
            "id": "polygon55g.38"
        }, 
        {
            "type": "Feature", 
            "geometry": {
                "type": "Polygon", 
                "coordinates": [
                    [
                        [88.3136948479676, 22.5315505228128], 
                        [88.3137072257715, 22.5315033479696], 
                        [88.3135032458732, 22.531467070287 ], 
                        [88.3134921319826, 22.5315116611827], 
                        [88.3136948479676, 22.5315505228128]  
                    ]
                ]
            }, 
            "properties": {
    "floor": "first",
                "fill-opacity": 0, 
                "stroke-opacity": 1, 
                "stroke": "#ff0000", 
                "pkuid": 39, 
                "ID": "26F-B18-H2", 
                "REMARKS": "POLYGON-54"
            }, 
            "id": "polygon55g.39"
        }, 
        {
            "type": "Feature", 
            "geometry": {
                "type": "Polygon", 
                "coordinates": [
                    [
                        [88.3137072257715, 22.5315033479696], 
                        [88.3137220302795, 22.531446924363 ], 
                        [88.3135177832313, 22.5314087438335], 
                        [88.3135032458732, 22.531467070287 ], 
                        [88.3137072257715, 22.5315033479696]  
                    ]
                ]
            }, 
            "properties": {
    "floor": "first",
                "fill-opacity": 0, 
                "stroke-opacity": 1, 
                "stroke": "#ff0000", 
                "pkuid": 40, 
                "ID": "26F-B19-H2", 
                "REMARKS": "POLYGON-54"
            }, 
            "id": "polygon55g.40"
        }
    ]
}
