{
    "type": "FeatureCollection",
    "features": [
        {
            "type": "Feature",
            "geometry": {
                "type": "Polygon",
                "coordinates": [
                    [
                        [88.3135915442525, 22.5329373414744],
                        [88.3136025339435, 22.5329848171278],
                        [88.3137727610167, 22.5329473314047],
                        [88.3137601209322, 22.532896418367 ],
                        [88.3135915442525, 22.5329373414744]
                    ]
                ]
            },
            "properties": {
    "floor": "first",
                "fill-opacity": 0,
                "stroke-opacity": 1,
                "stroke": "#ff0000",
                "pkuid": 1,
                "ID": "25F-B19-H1",
                "REMARKS": "POLYGON-52"
            },
            "id": "poly53.1"
        },
        {
            "type": "Feature",
            "geometry": {
                "type": "Polygon",
                "coordinates": [
                    [
                        [88.3138164532167, 22.5339089520512],
                        [88.3138321951702, 22.5339769575598],
                        [88.3140204488748, 22.5339449941421],
                        [88.3140024614682, 22.5338725426082],
                        [88.3138164532167, 22.5339089520512]
                    ]
                ]
            },
            "properties": {
    "floor": "first",
                "fill-opacity": 0,
                "stroke-opacity": 1,
                "stroke": "#ff0000",
                "pkuid": 2,
                "ID": "25F-B1-H1",
                "REMARKS": "POLYGON-53"
            },
            "id": "poly53.2"
        },
        {
            "type": "Feature",
            "geometry": {
                "type": "Polygon",
                "coordinates": [
                    [
                        [88.3136338234567, 22.5338858386324],
                        [88.3136463545599, 22.5339422473341],
                        [88.3138164532167, 22.5339089520512],
                        [88.3138031117704, 22.5338513167748],
                        [88.3136338234567, 22.5338858386324]
                    ]
                ]
            },
            "properties": {
    "floor": "first",
                "fill-opacity": 0,
                "stroke-opacity": 1,
                "stroke": "#ff0000",
                "pkuid": 3,
                "ID": "25F-B2-H2",
                "REMARKS": "POLYGON-52"
            },
            "id": "poly53.3"
        },
        {
            "type": "Feature",
            "geometry": {
                "type": "Polygon",
                "coordinates": [
                    [
                        [88.313620596858 , 22.5338262991607],
                        [88.3136338234567, 22.5338858386324],
                        [88.3138031117704, 22.5338513167748],
                        [88.313789481265 , 22.5337924327579],
                        [88.313620596858 , 22.5338262991607]
                    ]
                ]
            },
            "properties": {
    "floor": "first",
                "fill-opacity": 0,
                "stroke-opacity": 1,
                "stroke": "#ff0000",
                "pkuid": 4,
                "ID": "25F-B3-H2",
                "REMARKS": "POLYGON-52"
            },
            "id": "poly53.4"
        },
        {
            "type": "Feature",
            "geometry": {
                "type": "Polygon",
                "coordinates": [
                    [
                        [88.3136076497442, 22.5337680177893],
                        [88.313620596858 , 22.5338262991607],
                        [88.313789481265 , 22.5337924327579],
                        [88.3137763742482, 22.5337358102209],
                        [88.3136076497442, 22.5337680177893]
                    ]
                ]
            },
            "properties": {
    "floor": "first",
                "fill-opacity": 0,
                "stroke-opacity": 1,
                "stroke": "#ff0000",
                "pkuid": 5,
                "ID": "25F-B4-H2",
                "REMARKS": "POLYGON-52"
            },
            "id": "poly53.5"
        },
        {
            "type": "Feature",
            "geometry": {
                "type": "Polygon",
                "coordinates": [
                    [
                        [88.3135948491779, 22.533710396101 ],
                        [88.3136076497442, 22.5337680177893],
                        [88.3137763742482, 22.5337358102209],
                        [88.3137631223526, 22.5336785618049],
                        [88.3135948491779, 22.533710396101 ]
                    ]
                ]
            },
            "properties": {
    "floor": "first",
                "fill-opacity": 0,
                "stroke-opacity": 1,
                "stroke": "#ff0000",
                "pkuid": 6,
                "ID": "25F-B5-H2",
                "REMARKS": "POLYGON-52"
            },
            "id": "poly53.6"
        },
        {
            "type": "Feature",
            "geometry": {
                "type": "Polygon",
                "coordinates": [
                    [
                        [88.3135826041491, 22.5336552751617],
                        [88.3135948491779, 22.533710396101 ],
                        [88.3137631223526, 22.5336785618049],
                        [88.3137499434303, 22.5336216286349],
                        [88.3135826041491, 22.5336552751617]
                    ]
                ]
            },
            "properties": {
    "floor": "first",
                "fill-opacity": 0,
                "stroke-opacity": 1,
                "stroke": "#ff0000",
                "pkuid": 7,
                "ID": "25F-B6-H2",
                "REMARKS": "POLYGON-52"
            },
            "id": "poly53.7"
        },
        {
            "type": "Feature",
            "geometry": {
                "type": "Polygon",
                "coordinates": [
                    [
                        [88.313571397145 , 22.5336048268857],
                        [88.3135826041491, 22.5336552751617],
                        [88.3137499434303, 22.5336216286349],
                        [88.3137376360167, 22.5335684603976],
                        [88.313571397145 , 22.5336048268857]
                    ]
                ]
            },
            "properties": {
    "floor": "first",
                "fill-opacity": 0,
                "stroke-opacity": 1,
                "stroke": "#ff0000",
                "pkuid": 8,
                "ID": "25F-B7-H2",
                "REMARKS": "POLYGON-52"
            },
            "id": "poly53.8"
        },
        {
            "type": "Feature",
            "geometry": {
                "type": "Polygon",
                "coordinates": [
                    [
                        [88.3135589036541, 22.5335485874955],
                        [88.313571397145 , 22.5336048268857],
                        [88.3137376360167, 22.5335684603976],
                        [88.3137250085521, 22.5335139095342],
                        [88.3135589036541, 22.5335485874955]
                    ]
                ]
            },
            "properties": {
    "floor": "first",
                "fill-opacity": 0,
                "stroke-opacity": 1,
                "stroke": "#ff0000",
                "pkuid": 9,
                "ID": "25F-B8-H2",
                "REMARKS": "POLYGON-52"
            },
            "id": "poly53.9"
        },
        {
            "type": "Feature",
            "geometry": {
                "type": "Polygon",
                "coordinates": [
                    [
                        [88.3135467967328, 22.5334940882469],
                        [88.3135589036541, 22.5335485874955],
                        [88.3137250085521, 22.5335139095342],
                        [88.3137122751197, 22.5334589008884],
                        [88.3135467967328, 22.5334940882469]
                    ]
                ]
            },
            "properties": {
    "floor": "first",
                "fill-opacity": 0,
                "stroke-opacity": 1,
                "stroke": "#ff0000",
                "pkuid": 10,
                "ID": "25F-B9-H2",
                "REMARKS": "POLYGON-52"
            },
            "id": "poly53.10"
        },
        {
            "type": "Feature",
            "geometry": {
                "type": "Polygon",
                "coordinates": [
                    [
                        [88.3137000776524, 22.5334062076206],
                        [88.3137122751197, 22.5334589008884],
                        [88.3138903656942, 22.5334210316716],
                        [88.3138763749809, 22.5333646784318],
                        [88.3137000776524, 22.5334062076206]
                    ]
                ]
            },
            "properties": {
    "floor": "first",
                "fill-opacity": 0,
                "stroke-opacity": 1,
                "stroke": "#ff0000",
                "pkuid": 11,
                "ID": "25F-B10-H1",
                "REMARKS": "POLYGON-52"
            },
            "id": "poly53.11"
        },
        {
            "type": "Feature",
            "geometry": {
                "type": "Polygon",
                "coordinates": [
                    [
                        [88.3135238638962, 22.5333908561916],
                        [88.3135358673219, 22.5334448895557],
                        [88.3137000776524, 22.5334062076206],
                        [88.3136870535852, 22.533349943427 ],
                        [88.3135238638962, 22.5333908561916]
                    ]
                ]
            },
            "properties": {
    "floor": "first",
                "fill-opacity": 0,
                "stroke-opacity": 1,
                "stroke": "#ff0000",
                "pkuid": 12,
                "ID": "25F-B11-H2",
                "REMARKS": "POLYGON-52"
            },
            "id": "poly53.12"
        },
        {
            "type": "Feature",
            "geometry": {
                "type": "Polygon",
                "coordinates": [
                    [
                        [88.3135111659288, 22.5333336963516],
                        [88.3135238638962, 22.5333908561916],
                        [88.3136870535852, 22.533349943427 ],
                        [88.3136746161871, 22.5332962136546],
                        [88.3135111659288, 22.5333336963516]
                    ]
                ]
            },
            "properties": {
    "floor": "first",
                "fill-opacity": 0,
                "stroke-opacity": 1,
                "stroke": "#ff0000",
                "pkuid": 13,
                "ID": "25F-B12-H2",
                "REMARKS": "POLYGON-52"
            },
            "id": "poly53.13"
        },
        {
            "type": "Feature",
            "geometry": {
                "type": "Polygon",
                "coordinates": [
                    [
                        [88.3134987353771, 22.533277740282 ],
                        [88.3135111659288, 22.5333336963516],
                        [88.3136746161871, 22.5332962136546],
                        [88.3136623771647, 22.5332433408682],
                        [88.3134987353771, 22.533277740282 ]
                    ]
                ]
            },
            "properties": {
    "floor": "first",
                "fill-opacity": 0,
                "stroke-opacity": 1,
                "stroke": "#ff0000",
                "pkuid": 14,
                "ID": "25F-B13-H2",
                "REMARKS": "POLYGON-52"
            },
            "id": "poly53.14"
        },
        {
            "type": "Feature",
            "geometry": {
                "type": "Polygon",
                "coordinates": [
                    [
                        [88.3134864256249, 22.5332223279908],
                        [88.3134987353771, 22.533277740282 ],
                        [88.3136623771647, 22.5332433408682],
                        [88.313650355083 , 22.5331914052694],
                        [88.3134864256249, 22.5332223279908]
                    ]
                ]
            },
            "properties": {
    "floor": "first",
                "fill-opacity": 0,
                "stroke-opacity": 1,
                "stroke": "#ff0000",
                "pkuid": 15,
                "ID": "25F-B14-H2",
                "REMARKS": "POLYGON-52"
            },
            "id": "poly53.15"
        },
        {
            "type": "Feature",
            "geometry": {
                "type": "Polygon",
                "coordinates": [
                    [
                        [88.3134743476937, 22.5331679592406],
                        [88.3134864256249, 22.5332223279908],
                        [88.313650355083 , 22.5331914052694],
                        [88.3136375555391, 22.5331361110204],
                        [88.3134743476937, 22.5331679592406]
                    ]
                ]
            },
            "properties": {
    "floor": "first",
                "fill-opacity": 0,
                "stroke-opacity": 1,
                "stroke": "#ff0000",
                "pkuid": 16,
                "ID": "25F-B15-H2",
                "REMARKS": "POLYGON-52"
            },
            "id": "poly53.16"
        },
        {
            "type": "Feature",
            "geometry": {
                "type": "Polygon",
                "coordinates": [
                    [
                        [88.3136244941288, 22.5330796855042],
                        [88.3136375555391, 22.5331361110204],
                        [88.3138112156989, 22.5331022231456],
                        [88.3137964381472, 22.5330427005965],
                        [88.3136244941288, 22.5330796855042]
                    ]
                ]
            },
            "properties": {
    "floor": "first",
                "fill-opacity": 0,
                "stroke-opacity": 1,
                "stroke": "#ff0000",
                "pkuid": 17,
                "ID": "25F-B16-H1",
                "REMARKS": "POLYGON-52"
            },
            "id": "poly53.17"
        },
        {
            "type": "Feature",
            "geometry": {
                "type": "Polygon",
                "coordinates": [
                    [
                        [88.3134515505738, 22.5330653381135],
                        [88.3134624794983, 22.5331145346151],
                        [88.3136244941288, 22.5330796855042],
                        [88.3136131482284, 22.5330306710206],
                        [88.3134515505738, 22.5330653381135]
                    ]
                ]
            },
            "properties": {
    "floor": "first",
                "fill-opacity": 0,
                "stroke-opacity": 1,
                "stroke": "#ff0000",
                "pkuid": 18,
                "ID": "25F-B17-H2",
                "REMARKS": "POLYGON-52"
            },
            "id": "poly53.18"
        },
        {
            "type": "Feature",
            "geometry": {
                "type": "Polygon",
                "coordinates": [
                    [
                        [88.3134415387419, 22.5330202698994],
                        [88.3134515505738, 22.5330653381135],
                        [88.3136131482284, 22.5330306710206],
                        [88.3136025339435, 22.5329848171278],
                        [88.3134415387419, 22.5330202698994]
                    ]
                ]
            },
            "properties": {
    "floor": "first",
                "fill-opacity": 0,
                "stroke-opacity": 1,
                "stroke": "#ff0000",
                "pkuid": 19,
                "ID": "25F-B18-H2",
                "REMARKS": "POLYGON-52"
            },
            "id": "poly53.19"
        },
        {
            "type": "Feature",
            "geometry": {
                "type": "Polygon",
                "coordinates": [
                    [
                        [88.313581629327 , 22.5328945088265],
                        [88.3135915442525, 22.5329373414744],
                        [88.3137601209322, 22.532896418367 ],
                        [88.3137487423441, 22.5328505865145],
                        [88.313581629327 , 22.5328945088265]
                    ]
                ]
            },
            "properties": {
    "floor": "first",
                "fill-opacity": 0,
                "stroke-opacity": 1,
                "stroke": "#ff0000",
                "pkuid": 20,
                "ID": "25F-B20-H1",
                "REMARKS": "POLYGON-52"
            },
            "id": "poly53.20"
        },
        {
            "type": "Feature",
            "geometry": {
                "type": "Polygon",
                "coordinates": [
                    [
                        [88.3134317345424, 22.5329761363417],
                        [88.3134415387419, 22.5330202698994],
                        [88.3136025339435, 22.5329848171278],
                        [88.3135915442525, 22.5329373414744],
                        [88.3134317345424, 22.5329761363417]
                    ]
                ]
            },
            "properties": {
    "floor": "first",
                "fill-opacity": 0,
                "stroke-opacity": 1,
                "stroke": "#ff0000",
                "pkuid": 21,
                "ID": "25F-B19-H2",
                "REMARKS": "POLYGON-52"
            },
            "id": "poly53.21"
        },
        {
            "type": "Feature",
            "geometry": {
                "type": "Polygon",
                "coordinates": [
                    [
                        [88.3136463545599, 22.5339422473341],
                        [88.3136605399364, 22.5340061027389],
                        [88.3138321951702, 22.5339769575598],
                        [88.3138164532167, 22.5339089520512],
                        [88.3136463545599, 22.5339422473341]
                    ]
                ]
            },
            "properties": {
    "floor": "first",
                "fill-opacity": 0,
                "stroke-opacity": 1,
                "stroke": "#ff0000",
                "pkuid": 22,
                "ID": "25F-B1-H2",
                "REMARKS": "POLYGON-52"
            },
            "id": "poly53.22"
        },
        {
            "type": "Feature",
            "geometry": {
                "type": "Polygon",
                "coordinates": [
                    [
                        [88.3138031117704, 22.5338513167748],
                        [88.3138164532167, 22.5339089520512],
                        [88.3140024614682, 22.5338725426082],
                        [88.3139878394348, 22.5338136464715],
                        [88.3138031117704, 22.5338513167748]
                    ]
                ]
            },
            "properties": {
    "floor": "first",
                "fill-opacity": 0,
                "stroke-opacity": 1,
                "stroke": "#ff0000",
                "pkuid": 23,
                "ID": "25F-B2-H1",
                "REMARKS": "POLYGON-52"
            },
            "id": "poly53.23"
        },
        {
            "type": "Feature",
            "geometry": {
                "type": "Polygon",
                "coordinates": [
                    [
                        [88.313789481265 , 22.5337924327579],
                        [88.3138031117704, 22.5338513167748],
                        [88.3139878394348, 22.5338136464715],
                        [88.3139734155366, 22.5337555484047],
                        [88.313789481265 , 22.5337924327579]
                    ]
                ]
            },
            "properties": {
    "floor": "first",
                "fill-opacity": 0,
                "stroke-opacity": 1,
                "stroke": "#ff0000",
                "pkuid": 24,
                "ID": "25F-B3-H1",
                "REMARKS": "POLYGON-52"
            },
            "id": "poly53.24"
        },
        {
            "type": "Feature",
            "geometry": {
                "type": "Polygon",
                "coordinates": [
                    [
                        [88.3137763742482, 22.5337358102209],
                        [88.313789481265 , 22.5337924327579],
                        [88.3139734155366, 22.5337555484047],
                        [88.3139598213362, 22.5337007922804],
                        [88.3137763742482, 22.5337358102209]
                    ]
                ]
            },
            "properties": {
    "floor": "first",
                "fill-opacity": 0,
                "stroke-opacity": 1,
                "stroke": "#ff0000",
                "pkuid": 25,
                "ID": "25F-B4-H1",
                "REMARKS": "POLYGON-52"
            },
            "id": "poly53.25"
        },
        {
            "type": "Feature",
            "geometry": {
                "type": "Polygon",
                "coordinates": [
                    [
                        [88.3137631223526, 22.5336785618049],
                        [88.3137763742482, 22.5337358102209],
                        [88.3139598213362, 22.5337007922804],
                        [88.3139457257175, 22.5336440164913],
                        [88.3137631223526, 22.5336785618049]
                    ]
                ]
            },
            "properties": {
    "floor": "first",
                "fill-opacity": 0,
                "stroke-opacity": 1,
                "stroke": "#ff0000",
                "pkuid": 26,
                "ID": "25F-B5-H1",
                "REMARKS": "POLYGON-52"
            },
            "id": "poly53.26"
        },
        {
            "type": "Feature",
            "geometry": {
                "type": "Polygon",
                "coordinates": [
                    [
                        [88.3137499434303, 22.5336216286349],
                        [88.3137631223526, 22.5336785618049],
                        [88.3139457257175, 22.5336440164913],
                        [88.3139311232637, 22.53358519922  ],
                        [88.3137499434303, 22.5336216286349]
                    ]
                ]
            },
            "properties": {
    "floor": "first",
                "fill-opacity": 0,
                "stroke-opacity": 1,
                "stroke": "#ff0000",
                "pkuid": 27,
                "ID": "25F-B6-H1",
                "REMARKS": "POLYGON-52"
            },
            "id": "poly53.27"
        },
        {
            "type": "Feature",
            "geometry": {
                "type": "Polygon",
                "coordinates": [
                    [
                        [88.3137376360167, 22.5335684603976],
                        [88.3137499434303, 22.5336216286349],
                        [88.3139311232637, 22.53358519922  ],
                        [88.3139172144212, 22.5335291757475],
                        [88.3137376360167, 22.5335684603976]
                    ]
                ]
            },
            "properties": {
    "floor": "first",
                "fill-opacity": 0,
                "stroke-opacity": 1,
                "stroke": "#ff0000",
                "pkuid": 28,
                "ID": "25F-B7-H1",
                "REMARKS": "POLYGON-52"
            },
            "id": "poly53.28"
        },
        {
            "type": "Feature",
            "geometry": {
                "type": "Polygon",
                "coordinates": [
                    [
                        [88.3137250085521, 22.5335139095342],
                        [88.3137376360167, 22.5335684603976],
                        [88.3139172144212, 22.5335291757475],
                        [88.3139041397068, 22.5334765120623],
                        [88.3137250085521, 22.5335139095342]
                    ]
                ]
            },
            "properties": {
    "floor": "first",
                "fill-opacity": 0,
                "stroke-opacity": 1,
                "stroke": "#ff0000",
                "pkuid": 29,
                "ID": "25F-B8-H1",
                "REMARKS": "POLYGON-52"
            },
            "id": "poly53.29"
        },
        {
            "type": "Feature",
            "geometry": {
                "type": "Polygon",
                "coordinates": [
                    [
                        [88.3137122751197, 22.5334589008884],
                        [88.3137250085521, 22.5335139095342],
                        [88.3139041397068, 22.5334765120623],
                        [88.3138903656942, 22.5334210316716],
                        [88.3137122751197, 22.5334589008884]
                    ]
                ]
            },
            "properties": {
    "floor": "first",
                "fill-opacity": 0,
                "stroke-opacity": 1,
                "stroke": "#ff0000",
                "pkuid": 30,
                "ID": "25F-B9-H1",
                "REMARKS": "POLYGON-52"
            },
            "id": "poly53.30"
        },
        {
            "type": "Feature",
            "geometry": {
                "type": "Polygon",
                "coordinates": [
                    [
                        [88.3135358673219, 22.5334448895557],
                        [88.3135467967328, 22.5334940882469],
                        [88.3137122751197, 22.5334589008884],
                        [88.3137000776524, 22.5334062076206],
                        [88.3135358673219, 22.5334448895557]
                    ]
                ]
            },
            "properties": {
    "floor": "first",
                "fill-opacity": 0,
                "stroke-opacity": 1,
                "stroke": "#ff0000",
                "pkuid": 31,
                "ID": "25F-B10-H2",
                "REMARKS": "POLYGON-52"
            },
            "id": "poly53.31"
        },
        {
            "type": "Feature",
            "geometry": {
                "type": "Polygon",
                "coordinates": [
                    [
                        [88.3136870535852, 22.533349943427 ],
                        [88.3137000776524, 22.5334062076206],
                        [88.3138763749809, 22.5333646784318],
                        [88.3138618377446, 22.5333061238499],
                        [88.3136870535852, 22.533349943427 ]
                    ]
                ]
            },
            "properties": {
    "floor": "first",
                "fill-opacity": 0,
                "stroke-opacity": 1,
                "stroke": "#ff0000",
                "pkuid": 32,
                "ID": "25F-B11-H1",
                "REMARKS": "POLYGON-52"
            },
            "id": "poly53.32"
        },
        {
            "type": "Feature",
            "geometry": {
                "type": "Polygon",
                "coordinates": [
                    [
                        [88.3136746161871, 22.5332962136546],
                        [88.3136870535852, 22.533349943427 ],
                        [88.3138618377446, 22.5333061238499],
                        [88.3138494249246, 22.5332561262115],
                        [88.3136746161871, 22.5332962136546]
                    ]
                ]
            },
            "properties": {
    "floor": "first",
                "fill-opacity": 0,
                "stroke-opacity": 1,
                "stroke": "#ff0000",
                "pkuid": 33,
                "ID": "25F-B12-H1",
                "REMARKS": "POLYGON-52"
            },
            "id": "poly53.33"
        },
        {
            "type": "Feature",
            "geometry": {
                "type": "Polygon",
                "coordinates": [
                    [
                        [88.3136623771647, 22.5332433408682],
                        [88.3136746161871, 22.5332962136546],
                        [88.3138494249246, 22.5332561262115],
                        [88.3138371305517, 22.5332066056666],
                        [88.3136623771647, 22.5332433408682]
                    ]
                ]
            },
            "properties": {
    "floor": "first",
                "fill-opacity": 0,
                "stroke-opacity": 1,
                "stroke": "#ff0000",
                "pkuid": 34,
                "ID": "25F-B13-H1",
                "REMARKS": "POLYGON-52"
            },
            "id": "poly53.34"
        },
        {
            "type": "Feature",
            "geometry": {
                "type": "Polygon",
                "coordinates": [
                    [
                        [88.313650355083 , 22.5331914052694],
                        [88.3136623771647, 22.5332433408682],
                        [88.3138371305517, 22.5332066056666],
                        [88.313825169871 , 22.5331584292011],
                        [88.313650355083 , 22.5331914052694]
                    ]
                ]
            },
            "properties": {
    "floor": "first",
                "fill-opacity": 0,
                "stroke-opacity": 1,
                "stroke": "#ff0000",
                "pkuid": 35,
                "ID": "25F-B14-H1",
                "REMARKS": "POLYGON-52"
            },
            "id": "poly53.35"
        },
        {
            "type": "Feature",
            "geometry": {
                "type": "Polygon",
                "coordinates": [
                    [
                        [88.3136375555391, 22.5331361110204],
                        [88.313650355083 , 22.5331914052694],
                        [88.313825169871 , 22.5331584292011],
                        [88.3138112156989, 22.5331022231456],
                        [88.3136375555391, 22.5331361110204]
                    ]
                ]
            },
            "properties": {
    "floor": "first",
                "fill-opacity": 0,
                "stroke-opacity": 1,
                "stroke": "#ff0000",
                "pkuid": 36,
                "ID": "25F-B15-H1",
                "REMARKS": "POLYGON-52"
            },
            "id": "poly53.36"
        },
        {
            "type": "Feature",
            "geometry": {
                "type": "Polygon",
                "coordinates": [
                    [
                        [88.3134624794983, 22.5331145346151],
                        [88.3134743476937, 22.5331679592406],
                        [88.3136375555391, 22.5331361110204],
                        [88.3136244941288, 22.5330796855042],
                        [88.3134624794983, 22.5331145346151]
                    ]
                ]
            },
            "properties": {
    "floor": "first",
                "fill-opacity": 0,
                "stroke-opacity": 1,
                "stroke": "#ff0000",
                "pkuid": 37,
                "ID": "25F-B16-H2",
                "REMARKS": "POLYGON-52"
            },
            "id": "poly53.37"
        },
        {
            "type": "Feature",
            "geometry": {
                "type": "Polygon",
                "coordinates": [
                    [
                        [88.3136131482284, 22.5330306710206],
                        [88.3136244941288, 22.5330796855042],
                        [88.3137964381472, 22.5330427005965],
                        [88.3137843341776, 22.5329939469777],
                        [88.3136131482284, 22.5330306710206]
                    ]
                ]
            },
            "properties": {
    "floor": "first",
                "fill-opacity": 0,
                "stroke-opacity": 1,
                "stroke": "#ff0000",
                "pkuid": 38,
                "ID": "25F-B17-H1",
                "REMARKS": "POLYGON-52"
            },
            "id": "poly53.38"
        },
        {
            "type": "Feature",
            "geometry": {
                "type": "Polygon",
                "coordinates": [
                    [
                        [88.3136025339435, 22.5329848171278],
                        [88.3136131482284, 22.5330306710206],
                        [88.3137843341776, 22.5329939469777],
                        [88.3137727610167, 22.5329473314047],
                        [88.3136025339435, 22.5329848171278]
                    ]
                ]
            },
            "properties": {
    "floor": "first",
                "fill-opacity": 0,
                "stroke-opacity": 1,
                "stroke": "#ff0000",
                "pkuid": 39,
                "ID": "25F-B18-H1",
                "REMARKS": "POLYGON-52"
            },
            "id": "poly53.39"
        },
        {
            "type": "Feature",
            "geometry": {
                "type": "Polygon",
                "coordinates": [
                    [
                        [88.313422870607 , 22.5329362353787],
                        [88.3134317345424, 22.5329761363417],
                        [88.3135915442525, 22.5329373414744],
                        [88.313581629327 , 22.5328945088265],
                        [88.313422870607 , 22.5329362353787]
                    ]
                ]
            },
            "properties": {
    "floor": "first",
                "fill-opacity": 0,
                "stroke-opacity": 1,
                "stroke": "#ff0000",
                "pkuid": 40,
                "ID": "25F-B20-H2",
                "REMARKS": "POLYGON-52"
            },
            "id": "poly53.40"
        }
    ]
}
