{
    "type": "FeatureCollection",
    "features": [
        {
            "type": "Feature",
            "geometry": {
                "type": "Polygon",
                "coordinates": [
                    [
                        [88.3162132224301, 22.5407110341713],
                        [88.3161895136192, 22.5406676769472],
                        [88.3160151508479, 22.5407634550388],
                        [88.3160396370084, 22.5408081721272],
                        [88.3162132224301, 22.5407110341713]
                    ]
                ]
            },
            "properties": {
    "floor": "ground",
                "fill-opacity": 0,
                "stroke-opacity": 1,
                "stroke": "#ff0000",
                "ID": "7-B14-H2",
                "REMARKS": "POLYGON-63"
            },
            "id": "polygon63ff.1"
        },
        {
            "type": "Feature",
            "geometry": {
                "type": "Polygon",
                "coordinates": [
                    [
                        [88.3165799788228, 22.5413817358422],
                        [88.3165503525873, 22.5413275571938],
                        [88.3163727908323, 22.541416583928 ],
                        [88.3163792602252, 22.5414283984553],
                        [88.3163990128292, 22.5414689396852],
                        [88.3165799788228, 22.5413817358422]
                    ]
                ]
            },
            "properties": {
    "floor": "ground",
                "fill-opacity": 0,
                "stroke-opacity": 1,
                "stroke": "#ff0000",
                "ID": "7-B1-H2",
                "REMARKS": "POLYGON-63"
            },
            "id": "polygon63ff.2"
        },
        {
            "type": "Feature",
            "geometry": {
                "type": "Polygon",
                "coordinates": [
                    [
                        [88.3165503525873, 22.5413275571938],
                        [88.3165205119495, 22.5412729864595],
                        [88.3163434760294, 22.5413630486816],
                        [88.3163727908323, 22.541416583928 ],
                        [88.3165503525873, 22.5413275571938]
                    ]
                ]
            },
            "properties": {
    "floor": "ground",
                "fill-opacity": 0,
                "stroke-opacity": 1,
                "stroke": "#ff0000",
                "ID": "7-B2-H2",
                "REMARKS": "POLYGON-63"
            },
            "id": "polygon63ff.3"
        },
        {
            "type": "Feature",
            "geometry": {
                "type": "Polygon",
                "coordinates": [
                    [
                        [88.3166864673799, 22.5411885611359],
                        [88.3166607710228, 22.5411426465549],
                        [88.3164936973797, 22.5412239496135],
                        [88.3165205119495, 22.5412729864595],
                        [88.3166864673799, 22.5411885611359]
                    ]
                ]
            },
            "properties": {
    "floor": "ground",
                "fill-opacity": 0,
                "stroke-opacity": 1,
                "stroke": "#ff0000",
                "ID": "7-B3-H1",
                "REMARKS": "POLYGON-63"
            },
            "id": "polygon63ff.4"
        },
        {
            "type": "Feature",
            "geometry": {
                "type": "Polygon",
                "coordinates": [
                    [
                        [88.3166607710228, 22.5411426465549],
                        [88.3166293409085, 22.5410864868229],
                        [88.3164631700347, 22.5411681230711],
                        [88.3164936973797, 22.5412239496135],
                        [88.3166607710228, 22.5411426465549]
                    ]
                ]
            },
            "properties": {
    "floor": "ground",
                "fill-opacity": 0,
                "stroke-opacity": 1,
                "stroke": "#ff0000",
                "ID": "7-B4-H1",
                "REMARKS": "POLYGON-63"
            },
            "id": "polygon63ff.5"
        },
        {
            "type": "Feature",
            "geometry": {
                "type": "Polygon",
                "coordinates": [
                    [
                        [88.3166293409085, 22.5410864868229],
                        [88.316600841151 , 22.54103556309  ],
                        [88.3164350410886, 22.541116682574 ],
                        [88.3164631700347, 22.5411681230711],
                        [88.3166293409085, 22.5410864868229]
                    ]
                ]
            },
            "properties": {
    "floor": "ground",
                "fill-opacity": 0,
                "stroke-opacity": 1,
                "stroke": "#ff0000",
                "ID": "7-B5-H1",
                "REMARKS": "POLYGON-63"
            },
            "id": "polygon63ff.6"
        },
        {
            "type": "Feature",
            "geometry": {
                "type": "Polygon",
                "coordinates": [
                    [
                        [88.316600841151 , 22.54103556309  ],
                        [88.3165707937779, 22.5409818740577],
                        [88.3164044433989, 22.5410607273895],
                        [88.3164350410886, 22.541116682574 ],
                        [88.316600841151 , 22.54103556309  ]
                    ]
                ]
            },
            "properties": {
    "floor": "ground",
                "fill-opacity": 0,
                "stroke-opacity": 1,
                "stroke": "#ff0000",
                "ID": "7-B6-H1",
                "REMARKS": "POLYGON-63"
            },
            "id": "polygon63ff.7"
        },
        {
            "type": "Feature",
            "geometry": {
                "type": "Polygon",
                "coordinates": [
                    [
                        [88.3165707937779, 22.5409818740577],
                        [88.3165427892407, 22.5409318351908],
                        [88.3163771650425, 22.5410108423989],
                        [88.3164044433989, 22.5410607273895],
                        [88.3165707937779, 22.5409818740577]
                    ]
                ]
            },
            "properties": {
    "floor": "ground",
                "fill-opacity": 0,
                "stroke-opacity": 1,
                "stroke": "#ff0000",
                "ID": "7-B7-H1",
                "REMARKS": "POLYGON-63"
            },
            "id": "polygon63ff.8"
        },
        {
            "type": "Feature",
            "geometry": {
                "type": "Polygon",
                "coordinates": [
                    [
                        [88.3165427892407, 22.5409318351908],
                        [88.316511504923 , 22.5408759359702],
                        [88.3163478042698, 22.5409571492127],
                        [88.3163771650425, 22.5410108423989],
                        [88.3165427892407, 22.5409318351908]
                    ]
                ]
            },
            "properties": {
    "floor": "ground",
                "fill-opacity": 0,
                "stroke-opacity": 1,
                "stroke": "#ff0000",
                "ID": "7-B8-H1",
                "REMARKS": "POLYGON-63"
            },
            "id": "polygon63ff.9"
        },
        {
            "type": "Feature",
            "geometry": {
                "type": "Polygon",
                "coordinates": [
                    [
                        [88.3163478042698, 22.5409571492127],
                        [88.3163205454846, 22.5409073000127],
                        [88.3161404756268, 22.5409923255152],
                        [88.3161696193012, 22.5410455482434],
                        [88.3163478042698, 22.5409571492127]
                    ]
                ]
            },
            "properties": {
    "floor": "ground",
                "fill-opacity": 0,
                "stroke-opacity": 1,
                "stroke": "#ff0000",
                "ID": "7-B9-H2",
                "REMARKS": "POLYGON-63"
            },
            "id": "polygon63ff.10"
        },
        {
            "type": "Feature",
            "geometry": {
                "type": "Polygon",
                "coordinates": [
                    [
                        [88.3164854741667, 22.5408294238804],
                        [88.3164528996548, 22.540771219324 ],
                        [88.3162896688454, 22.5408508347023],
                        [88.3163205454846, 22.5409073000127],
                        [88.3164854741667, 22.5408294238804]
                    ]
                ]
            },
            "properties": {
    "floor": "ground",
                "fill-opacity": 0,
                "stroke-opacity": 1,
                "stroke": "#ff0000",
                "ID": "7-B10-H1",
                "REMARKS": "POLYGON-63"
            },
            "id": "polygon63ff.11"
        },
        {
            "type": "Feature",
            "geometry": {
                "type": "Polygon",
                "coordinates": [
                    [
                        [88.3164528996548, 22.540771219324 ],
                        [88.3164265734539, 22.5407241793299],
                        [88.3162636861136, 22.5408033190707],
                        [88.3162896688454, 22.5408508347023],
                        [88.3164528996548, 22.540771219324 ]
                    ]
                ]
            },
            "properties": {
    "floor": "ground",
                "fill-opacity": 0,
                "stroke-opacity": 1,
                "stroke": "#ff0000",
                "ID": "7-B11-H1",
                "REMARKS": "POLYGON-63"
            },
            "id": "polygon63ff.12"
        },
        {
            "type": "Feature",
            "geometry": {
                "type": "Polygon",
                "coordinates": [
                    [
                        [88.3164265734539, 22.5407241793299],
                        [88.3163976059517, 22.5406724198249],
                        [88.316237742405 , 22.5407558748024],
                        [88.3162636861136, 22.5408033190707],
                        [88.3164265734539, 22.5407241793299]
                    ]
                ]
            },
            "properties": {
    "floor": "ground",
                "fill-opacity": 0,
                "stroke-opacity": 1,
                "stroke": "#ff0000",
                "ID": "7-B12-H1",
                "REMARKS": "POLYGON-63"
            },
            "id": "polygon63ff.13"
        },
        {
            "type": "Feature",
            "geometry": {
                "type": "Polygon",
                "coordinates": [
                    [
                        [88.3163976059517, 22.5406724198249],
                        [88.3163700889403, 22.5406232520754],
                        [88.3162132224301, 22.5407110341713],
                        [88.316237742405 , 22.5407558748024],
                        [88.3163976059517, 22.5406724198249]
                    ]
                ]
            },
            "properties": {
    "floor": "ground",
                "fill-opacity": 0,
                "stroke-opacity": 1,
                "stroke": "#ff0000",
                "ID": "7-B13-H1",
                "REMARKS": "POLYGON-63"
            },
            "id": "polygon63ff.14"
        },
        {
            "type": "Feature",
            "geometry": {
                "type": "Polygon",
                "coordinates": [
                    [
                        [88.3161895136192, 22.5406676769472],
                        [88.3161697757395, 22.5406315815195],
                        [88.3159929870803, 22.5407229791482],
                        [88.3160151508479, 22.5407634550388],
                        [88.3161895136192, 22.5406676769472]
                    ]
                ]
            },
            "properties": {
    "floor": "ground",
                "fill-opacity": 0,
                "stroke-opacity": 1,
                "stroke": "#ff0000",
                "ID": "7-B15-H2",
                "REMARKS": "POLYGON-63"
            },
            "id": "polygon63ff.15"
        },
        {
            "type": "Feature",
            "geometry": {
                "type": "Polygon",
                "coordinates": [
                    [
                        [88.3163700889403, 22.5406232520754],
                        [88.3163466458468, 22.5405813636547],
                        [88.3161895136192, 22.5406676769472],
                        [88.3162132224301, 22.5407110341713],
                        [88.3163700889403, 22.5406232520754]
                    ]
                ]
            },
            "properties": {
    "floor": "ground",
                "fill-opacity": 0,
                "stroke-opacity": 1,
                "stroke": "#ff0000",
                "ID": "7-B14-H1",
                "REMARKS": "POLYGON-63"
            },
            "id": "polygon63ff.16"
        },
        {
            "type": "Feature",
            "geometry": {
                "type": "Polygon",
                "coordinates": [
                    [
                        [88.3165503525873, 22.5413275571938],
                        [88.3165799788228, 22.5413817358422],
                        [88.3167018860905, 22.5413229912017],
                        [88.3167060751096, 22.5412494803153],
                        [88.3165503525873, 22.5413275571938]
                    ]
                ]
            },
            "properties": {
    "floor": "ground",
                "fill-opacity": 0,
                "stroke-opacity": 1,
                "stroke": "#ff0000",
                "ID": "7-B1-H1",
                "REMARKS": "POLYGON-63"
            },
            "id": "polygon63ff.17"
        },
        {
            "type": "Feature",
            "geometry": {
                "type": "Polygon",
                "coordinates": [
                    [
                        [88.3167074137935, 22.5412259884569],
                        [88.3166864673799, 22.5411885611359],
                        [88.3165205119495, 22.5412729864595],
                        [88.3165503525873, 22.5413275571938],
                        [88.3167060751096, 22.5412494803153],
                        [88.3167074137935, 22.5412259884569]
                    ]
                ]
            },
            "properties": {
    "floor": "ground",
                "fill-opacity": 0,
                "stroke-opacity": 1,
                "stroke": "#ff0000",
                "ID": "7-B2-H1",
                "REMARKS": "POLYGON-63"
            },
            "id": "polygon63ff.18"
        },
        {
            "type": "Feature",
            "geometry": {
                "type": "Polygon",
                "coordinates": [
                    [
                        [88.3165205119495, 22.5412729864595],
                        [88.3164936973797, 22.5412239496135],
                        [88.3163149411603, 22.5413109377652],
                        [88.3163434760294, 22.5413630486816],
                        [88.3165205119495, 22.5412729864595]
                    ]
                ]
            },
            "properties": {
    "floor": "ground",
                "fill-opacity": 0,
                "stroke-opacity": 1,
                "stroke": "#ff0000",
                "ID": "7-B3-H2",
                "REMARKS": "POLYGON-63"
            },
            "id": "polygon63ff.19"
        },
        {
            "type": "Feature",
            "geometry": {
                "type": "Polygon",
                "coordinates": [
                    [
                        [88.3164936973797, 22.5412239496135],
                        [88.3164631700347, 22.5411681230711],
                        [88.3162847392019, 22.5412557823786],
                        [88.3163149411603, 22.5413109377652],
                        [88.3164936973797, 22.5412239496135]
                    ]
                ]
            },
            "properties": {
    "floor": "ground",
                "fill-opacity": 0,
                "stroke-opacity": 1,
                "stroke": "#ff0000",
                "ID": "7-B4-H2",
                "REMARKS": "POLYGON-63"
            },
            "id": "polygon63ff.20"
        },
        {
            "type": "Feature",
            "geometry": {
                "type": "Polygon",
                "coordinates": [
                    [
                        [88.3164631700347, 22.5411681230711],
                        [88.3164350410886, 22.541116682574 ],
                        [88.3162564241316, 22.5412040728629],
                        [88.3162847392019, 22.5412557823786],
                        [88.3164631700347, 22.5411681230711]
                    ]
                ]
            },
            "properties": {
    "floor": "ground",
                "fill-opacity": 0,
                "stroke-opacity": 1,
                "stroke": "#ff0000",
                "ID": "7-B5-H2",
                "REMARKS": "POLYGON-63"
            },
            "id": "polygon63ff.21"
        },
        {
            "type": "Feature",
            "geometry": {
                "type": "Polygon",
                "coordinates": [
                    [
                        [88.3164350410886, 22.541116682574 ],
                        [88.3164044433989, 22.5410607273895],
                        [88.3162246094092, 22.5411459722164],
                        [88.3162564241316, 22.5412040728629],
                        [88.3164350410886, 22.541116682574 ]
                    ]
                ]
            },
            "properties": {
    "floor": "ground",
                "fill-opacity": 0,
                "stroke-opacity": 1,
                "stroke": "#ff0000",
                "ID": "7-B6-H2",
                "REMARKS": "POLYGON-63"
            },
            "id": "polygon63ff.22"
        },
        {
            "type": "Feature",
            "geometry": {
                "type": "Polygon",
                "coordinates": [
                    [
                        [88.3164044433989, 22.5410607273895],
                        [88.3163771650425, 22.5410108423989],
                        [88.3161975360216, 22.5410965302851],
                        [88.3162246094092, 22.5411459722164],
                        [88.3164044433989, 22.5410607273895]
                    ]
                ]
            },
            "properties": {
    "floor": "ground",
                "fill-opacity": 0,
                "stroke-opacity": 1,
                "stroke": "#ff0000",
                "ID": "7-B7-H2",
                "REMARKS": "POLYGON-63"
            },
            "id": "polygon63ff.23"
        },
        {
            "type": "Feature",
            "geometry": {
                "type": "Polygon",
                "coordinates": [
                    [
                        [88.3163771650425, 22.5410108423989],
                        [88.3163478042698, 22.5409571492127],
                        [88.3161696193012, 22.5410455482434],
                        [88.3161975360216, 22.5410965302851],
                        [88.3163771650425, 22.5410108423989]
                    ]
                ]
            },
            "properties": {
    "floor": "ground",
                "fill-opacity": 0,
                "stroke-opacity": 1,
                "stroke": "#ff0000",
                "ID": "7-B8-H2",
                "REMARKS": "POLYGON-63"
            },
            "id": "polygon63ff.24"
        },
        {
            "type": "Feature",
            "geometry": {
                "type": "Polygon",
                "coordinates": [
                    [
                        [88.316511504923 , 22.5408759359702],
                        [88.3164854741667, 22.5408294238804],
                        [88.3163205454846, 22.5409073000127],
                        [88.3163478042698, 22.5409571492127],
                        [88.316511504923 , 22.5408759359702]
                    ]
                ]
            },
            "properties": {
    "floor": "ground",
                "fill-opacity": 0,
                "stroke-opacity": 1,
                "stroke": "#ff0000",
                "ID": "7-B9-H1",
                "REMARKS": "POLYGON-63"
            },
            "id": "polygon63ff.25"
        },
        {
            "type": "Feature",
            "geometry": {
                "type": "Polygon",
                "coordinates": [
                    [
                        [88.3163205454846, 22.5409073000127],
                        [88.3162896688454, 22.5408508347023],
                        [88.3161107767344, 22.5409380888374],
                        [88.3161404756268, 22.5409923255152],
                        [88.3163205454846, 22.5409073000127]
                    ]
                ]
            },
            "properties": {
    "floor": "ground",
                "fill-opacity": 0,
                "stroke-opacity": 1,
                "stroke": "#ff0000",
                "ID": "7-B10-H2",
                "REMARKS": "POLYGON-63"
            },
            "id": "polygon63ff.26"
        },
        {
            "type": "Feature",
            "geometry": {
                "type": "Polygon",
                "coordinates": [
                    [
                        [88.3162896688454, 22.5408508347023],
                        [88.3162636861136, 22.5408033190707],
                        [88.3160846193275, 22.5408903196873],
                        [88.3161107767344, 22.5409380888374],
                        [88.3162896688454, 22.5408508347023]
                    ]
                ]
            },
            "properties": {
    "floor": "ground",
                "fill-opacity": 0,
                "stroke-opacity": 1,
                "stroke": "#ff0000",
                "ID": "7-B11-H2",
                "REMARKS": "POLYGON-63"
            },
            "id": "polygon63ff.27"
        },
        {
            "type": "Feature",
            "geometry": {
                "type": "Polygon",
                "coordinates": [
                    [
                        [88.3162636861136, 22.5408033190707],
                        [88.316237742405 , 22.5407558748024],
                        [88.3160614069287, 22.5408479287664],
                        [88.3160846193275, 22.5408903196873],
                        [88.3162636861136, 22.5408033190707]
                    ]
                ]
            },
            "properties": {
    "floor": "ground",
                "fill-opacity": 0,
                "stroke-opacity": 1,
                "stroke": "#ff0000",
                "ID": "7-B12-H2",
                "REMARKS": "POLYGON-63"
            },
            "id": "polygon63ff.28"
        },
        {
            "type": "Feature",
            "geometry": {
                "type": "Polygon",
                "coordinates": [
                    [
                        [88.316237742405 , 22.5407558748024],
                        [88.3162132224301, 22.5407110341713],
                        [88.3160396370084, 22.5408081721272],
                        [88.3160614069287, 22.5408479287664],
                        [88.316237742405 , 22.5407558748024]
                    ]
                ]
            },
            "properties": {
    "floor": "ground",
                "fill-opacity": 0,
                "stroke-opacity": 1,
                "stroke": "#ff0000",
                "ID": "7-B13-H2",
                "REMARKS": "POLYGON-63"
            },
            "id": "polygon63ff.29"
        },
        {
            "type": "Feature",
            "geometry": {
                "type": "Polygon",
                "coordinates": [
                    [
                        [88.3163466458468, 22.5405813636547],
                        [88.3163287528634, 22.5405493922422],
                        [88.3161697757395, 22.5406315815195],
                        [88.3161895136192, 22.5406676769472],
                        [88.3163466458468, 22.5405813636547]
                    ]
                ]
            },
            "properties": {
    "floor": "ground",
                "fill-opacity": 0,
                "stroke-opacity": 1,
                "stroke": "#ff0000",
                "ID": "7-B15-H1",
                "REMARKS": "POLYGON-63"
            },
            "id": "polygon63ff.30"
        }
    ]
}
