{
    "type": "FeatureCollection", 
    "features": [
        {
            "type": "Feature", 
            "geometry": {
                "type": "Polygon", 
                "coordinates": [
                    [
                        [88.313748737961 , 22.5342750911506], 
                        [88.3137632858269, 22.5343359779708], 
                        [88.3139084872201, 22.5342993133537], 
                        [88.313894679884 , 22.534240064546 ], 
                        [88.313748737961 , 22.5342750911506]  
                    ]
                ]
            }, 
            "properties": {
    "floor": "first",
                "fill-opacity": 0, 
                "stroke-opacity": 1, 
                "stroke": "#ff0000", 
                "ID": "24F-B20-H2", 
                "REMARKS": "POLYGON-50"
            }, 
            "id": "s24fpolygon50.1"
        }, 
        {
            "type": "Feature", 
            "geometry": {
                "type": "Polygon", 
                "coordinates": [
                    [
                        [88.3141333327135, 22.535264150256 ], 
                        [88.3141476290368, 22.5353254973617], 
                        [88.3143223754195, 22.5352838448841], 
                        [88.31430703312  , 22.5352193221831], 
                        [88.3141333327135, 22.535264150256 ]  
                    ]
                ]
            }, 
            "properties": {
    "floor": "first",
                "fill-opacity": 0, 
                "stroke-opacity": 1, 
                "stroke": "#ff0000", 
                "ID": "24F-B1-H1", 
                "REMARKS": "POLYGON-50"
            }, 
            "id": "s24fpolygon50.2"
        }, 
        {
            "type": "Feature", 
            "geometry": {
                "type": "Polygon", 
                "coordinates": [
                    [
                        [88.3141195332975, 22.5352049354341], 
                        [88.3141333327135, 22.535264150256 ], 
                        [88.31430703312  , 22.5352193221831], 
                        [88.3142914930422, 22.5351539677174], 
                        [88.3141195332975, 22.5352049354341]  
                    ]
                ]
            }, 
            "properties": {
    "floor": "first",
                "fill-opacity": 0, 
                "stroke-opacity": 1, 
                "stroke": "#ff0000", 
                "ID": "24F-B2-H1", 
                "REMARKS": "POLYGON-50"
            }, 
            "id": "s24fpolygon50.3"
        }, 
        {
            "type": "Feature", 
            "geometry": {
                "type": "Polygon", 
                "coordinates": [
                    [
                        [88.3141050770777, 22.5351429021947], 
                        [88.3141195332975, 22.5352049354341], 
                        [88.3142914930422, 22.5351539677174], 
                        [88.3142772681621, 22.5350941443718], 
                        [88.3141050770777, 22.5351429021947]  
                    ]
                ]
            }, 
            "properties": {
    "floor": "first",
                "fill-opacity": 0, 
                "stroke-opacity": 1, 
                "stroke": "#ff0000", 
                "ID": "24F-B3-H1", 
                "REMARKS": "POLYGON-50"
            }, 
            "id": "s24fpolygon50.4"
        }, 
        {
            "type": "Feature", 
            "geometry": {
                "type": "Polygon", 
                "coordinates": [
                    [
                        [88.3140926637074, 22.5350896350485], 
                        [88.3141050770777, 22.5351429021947], 
                        [88.3142772681621, 22.5350941443718], 
                        [88.3142648242402, 22.5350418109228], 
                        [88.3140926637074, 22.5350896350485]  
                    ]
                ]
            }, 
            "properties": {
    "floor": "first",
                "fill-opacity": 0, 
                "stroke-opacity": 1, 
                "stroke": "#ff0000", 
                "ID": "24F-B4-H1", 
                "REMARKS": "POLYGON-50"
            }, 
            "id": "s24fpolygon50.5"
        }, 
        {
            "type": "Feature", 
            "geometry": {
                "type": "Polygon", 
                "coordinates": [
                    [
                        [88.3140800153436, 22.5350353595194], 
                        [88.3140926637074, 22.5350896350485], 
                        [88.3142648242402, 22.5350418109228], 
                        [88.3142518072006, 22.5349870672026], 
                        [88.3140800153436, 22.5350353595194]  
                    ]
                ]
            }, 
            "properties": {
    "floor": "first",
                "fill-opacity": 0, 
                "stroke-opacity": 1, 
                "stroke": "#ff0000", 
                "ID": "24F-B5-H1", 
                "REMARKS": "POLYGON-50"
            }, 
            "id": "s24fpolygon50.6"
        }, 
        {
            "type": "Feature", 
            "geometry": {
                "type": "Polygon", 
                "coordinates": [
                    [
                        [88.3140679353377, 22.5349835228768], 
                        [88.3140800153436, 22.5350353595194], 
                        [88.3142518072006, 22.5349870672026], 
                        [88.3142397531194, 22.5349363732457], 
                        [88.3140679353377, 22.5349835228768]  
                    ]
                ]
            }, 
            "properties": {
    "floor": "first",
                "fill-opacity": 0, 
                "stroke-opacity": 1, 
                "stroke": "#ff0000", 
                "ID": "24F-B6-H1", 
                "REMARKS": "POLYGON-50"
            }, 
            "id": "s24fpolygon50.7"
        }, 
        {
            "type": "Feature", 
            "geometry": {
                "type": "Polygon", 
                "coordinates": [
                    [
                        [88.3140551707952, 22.5349287488119], 
                        [88.3140679353377, 22.5349835228768], 
                        [88.3142397531194, 22.5349363732457], 
                        [88.3142266157358, 22.5348811234136], 
                        [88.3140551707952, 22.5349287488119]  
                    ]
                ]
            }, 
            "properties": {
    "floor": "first",
                "fill-opacity": 0, 
                "stroke-opacity": 1, 
                "stroke": "#ff0000", 
                "ID": "24F-B7-H1", 
                "REMARKS": "POLYGON-50"
            }, 
            "id": "s24fpolygon50.8"
        }, 
        {
            "type": "Feature", 
            "geometry": {
                "type": "Polygon", 
                "coordinates": [
                    [
                        [88.3140436132505, 22.5348791541085], 
                        [88.3140551707952, 22.5349287488119], 
                        [88.3142266157358, 22.5348811234136], 
                        [88.3142148898902, 22.5348318098653], 
                        [88.3140436132505, 22.5348791541085]  
                    ]
                ]
            }, 
            "properties": {
    "floor": "first",
                "fill-opacity": 0, 
                "stroke-opacity": 1, 
                "stroke": "#ff0000", 
                "ID": "24F-B8-H1", 
                "REMARKS": "POLYGON-50"
            }, 
            "id": "s24fpolygon50.9"
        }, 
        {
            "type": "Feature", 
            "geometry": {
                "type": "Polygon", 
                "coordinates": [
                    [
                        [88.31388867673  , 22.5348607733918], 
                        [88.313902395335 , 22.5349181895271], 
                        [88.3140436132505, 22.5348791541085], 
                        [88.3140308420535, 22.5348243514885], 
                        [88.31388867673  , 22.5348607733918]  
                    ]
                ]
            }, 
            "properties": {
    "floor": "first",
                "fill-opacity": 0, 
                "stroke-opacity": 1, 
                "stroke": "#ff0000", 
                "ID": "24F-B9-H2", 
                "REMARKS": "POLYGON-50"
            }, 
            "id": "s24fpolygon50.10"
        }, 
        {
            "type": "Feature", 
            "geometry": {
                "type": "Polygon", 
                "coordinates": [
                    [
                        [88.3140183411805, 22.5347707088583], 
                        [88.3140308420535, 22.5348243514885], 
                        [88.3142026501889, 22.5347803352746], 
                        [88.3141895766225, 22.5347253538287], 
                        [88.3140183411805, 22.5347707088583]  
                    ]
                ]
            }, 
            "properties": {
    "floor": "first",
                "fill-opacity": 0, 
                "stroke-opacity": 1, 
                "stroke": "#ff0000", 
                "ID": "24F-B10-H1", 
                "REMARKS": "POLYGON-50"
            }, 
            "id": "s24fpolygon50.11"
        }, 
        {
            "type": "Feature", 
            "geometry": {
                "type": "Polygon", 
                "coordinates": [
                    [
                        [88.3138626545642, 22.5347518634699], 
                        [88.3138761557011, 22.5348083694415], 
                        [88.3140183411805, 22.5347707088583], 
                        [88.3140056787266, 22.5347163728669], 
                        [88.3138626545642, 22.5347518634699]  
                    ]
                ]
            }, 
            "properties": {
    "floor": "first",
                "fill-opacity": 0, 
                "stroke-opacity": 1, 
                "stroke": "#ff0000", 
                "ID": "24F-B11-H2", 
                "REMARKS": "POLYGON-50"
            }, 
            "id": "s24fpolygon50.12"
        }, 
        {
            "type": "Feature", 
            "geometry": {
                "type": "Polygon", 
                "coordinates": [
                    [
                        [88.3139937765523, 22.5346652993196], 
                        [88.3140056787266, 22.5347163728669], 
                        [88.3141773139424, 22.5346737825996], 
                        [88.3141652204629, 22.5346229229513], 
                        [88.3139937765523, 22.5346652993196]  
                    ]
                ]
            }, 
            "properties": {
    "floor": "first",
                "fill-opacity": 0, 
                "stroke-opacity": 1, 
                "stroke": "#ff0000", 
                "ID": "24F-B12-H1", 
                "REMARKS": "POLYGON-50"
            }, 
            "id": "s24fpolygon50.13"
        }, 
        {
            "type": "Feature", 
            "geometry": {
                "type": "Polygon", 
                "coordinates": [
                    [
                        [88.3138360992224, 22.53464072206  ], 
                        [88.3138504368728, 22.5347007290705], 
                        [88.3139937765523, 22.5346652993196], 
                        [88.3139801801095, 22.5346069554784], 
                        [88.3138360992224, 22.53464072206  ]  
                    ]
                ]
            }, 
            "properties": {
    "floor": "first",
                "fill-opacity": 0, 
                "stroke-opacity": 1, 
                "stroke": "#ff0000", 
                "ID": "24F-B13-H2", 
                "REMARKS": "POLYGON-50"
            }, 
            "id": "s24fpolygon50.14"
        }, 
        {
            "type": "Feature", 
            "geometry": {
                "type": "Polygon", 
                "coordinates": [
                    [
                        [88.3139667441917, 22.5345493004679], 
                        [88.3139801801095, 22.5346069554784], 
                        [88.3141518568211, 22.5345667215805], 
                        [88.314138047452 , 22.5345086456847], 
                        [88.3139667441917, 22.5345493004679]  
                    ]
                ]
            }, 
            "properties": {
    "floor": "first",
                "fill-opacity": 0, 
                "stroke-opacity": 1, 
                "stroke": "#ff0000", 
                "ID": "24F-B14-H1", 
                "REMARKS": "POLYGON-50"
            }, 
            "id": "s24fpolygon50.15"
        }, 
        {
            "type": "Feature", 
            "geometry": {
                "type": "Polygon", 
                "coordinates": [
                    [
                        [88.3139543416119, 22.534496079625 ], 
                        [88.3139667441917, 22.5345493004679], 
                        [88.314138047452 , 22.5345086456847], 
                        [88.3141250096249, 22.5344538145417], 
                        [88.3139543416119, 22.534496079625 ]  
                    ]
                ]
            }, 
            "properties": {
    "floor": "first",
                "fill-opacity": 0, 
                "stroke-opacity": 1, 
                "stroke": "#ff0000", 
                "ID": "24F-B15-H1", 
                "REMARKS": "POLYGON-50"
            }, 
            "id": "s24fpolygon50.16"
        }, 
        {
            "type": "Feature", 
            "geometry": {
                "type": "Polygon", 
                "coordinates": [
                    [
                        [88.3139433918005, 22.534449092772 ], 
                        [88.3139543416119, 22.534496079625 ], 
                        [88.3141250096249, 22.5344538145417], 
                        [88.3141127748775, 22.5344023607851], 
                        [88.3139433918005, 22.534449092772 ]  
                    ]
                ]
            }, 
            "properties": {
    "floor": "first",
                "fill-opacity": 0, 
                "stroke-opacity": 1, 
                "stroke": "#ff0000", 
                "ID": "24F-B16-H1", 
                "REMARKS": "POLYGON-50"
            }, 
            "id": "s24fpolygon50.17"
        }, 
        {
            "type": "Feature", 
            "geometry": {
                "type": "Polygon", 
                "coordinates": [
                    [
                        [88.3139301993687, 22.5343924825868], 
                        [88.3139433918005, 22.534449092772 ], 
                        [88.3141127748775, 22.5344023607851], 
                        [88.3140989600718, 22.534344262025 ], 
                        [88.3139301993687, 22.5343924825868]  
                    ]
                ]
            }, 
            "properties": {
    "floor": "first",
                "fill-opacity": 0, 
                "stroke-opacity": 1, 
                "stroke": "#ff0000", 
                "ID": "24F-B17-H1", 
                "REMARKS": "POLYGON-50"
            }, 
            "id": "s24fpolygon50.18"
        }, 
        {
            "type": "Feature", 
            "geometry": {
                "type": "Polygon", 
                "coordinates": [
                    [
                        [88.3137745367927, 22.5343830663577], 
                        [88.3137865909456, 22.5344335163032], 
                        [88.3139301993687, 22.5343924825868], 
                        [88.3139193233562, 22.5343458124132], 
                        [88.3137745367927, 22.5343830663577]  
                    ]
                ]
            }, 
            "properties": {
    "floor": "first",
                "fill-opacity": 0, 
                "stroke-opacity": 1, 
                "stroke": "#ff0000", 
                "ID": "24F-B18-H2", 
                "REMARKS": "POLYGON-50"
            }, 
            "id": "s24fpolygon50.19"
        }, 
        {
            "type": "Feature", 
            "geometry": {
                "type": "Polygon", 
                "coordinates": [
                    [
                        [88.3137632858269, 22.5343359779708], 
                        [88.3137745367927, 22.5343830663577], 
                        [88.3139193233562, 22.5343458124132], 
                        [88.3139084872201, 22.5342993133537], 
                        [88.3137632858269, 22.5343359779708]  
                    ]
                ]
            }, 
            "properties": {
    "floor": "first",
                "fill-opacity": 0, 
                "stroke-opacity": 1, 
                "stroke": "#ff0000", 
                "ID": "24F-B19-H2", 
                "REMARKS": "POLYGON-50"
            }, 
            "id": "s24fpolygon50.20"
        }, 
        {
            "type": "Feature", 
            "geometry": {
                "type": "Polygon", 
                "coordinates": [
                    [
                        [88.3139936688471, 22.5353001942821], 
                        [88.31400768469  , 22.53535885444  ], 
                        [88.3141476290368, 22.5353254973617], 
                        [88.3141333327135, 22.535264150256 ], 
                        [88.3139936688471, 22.5353001942821]  
                    ]
                ]
            }, 
            "properties": {
    "floor": "first",
                "fill-opacity": 0, 
                "stroke-opacity": 1, 
                "stroke": "#ff0000", 
                "ID": "24F-B1-H2", 
                "REMARKS": "POLYGON-50"
            }, 
            "id": "s24fpolygon50.21"
        }, 
        {
            "type": "Feature", 
            "geometry": {
                "type": "Polygon", 
                "coordinates": [
                    [
                        [88.3139807376209, 22.5352460735432], 
                        [88.3139936688471, 22.5353001942821], 
                        [88.3141333327135, 22.535264150256 ], 
                        [88.3141195332975, 22.5352049354341], 
                        [88.3139807376209, 22.5352460735432]  
                    ]
                ]
            }, 
            "properties": {
    "floor": "first",
                "fill-opacity": 0, 
                "stroke-opacity": 1, 
                "stroke": "#ff0000", 
                "ID": "24F-B2-H2", 
                "REMARKS": "POLYGON-50"
            }, 
            "id": "s24fpolygon50.22"
        }, 
        {
            "type": "Feature", 
            "geometry": {
                "type": "Polygon", 
                "coordinates": [
                    [
                        [88.3139655279941, 22.5351824170715], 
                        [88.3139807376209, 22.5352460735432], 
                        [88.3141195332975, 22.5352049354341], 
                        [88.3141050770777, 22.5351429021947], 
                        [88.3139655279941, 22.5351824170715]  
                    ]
                ]
            }, 
            "properties": {
    "floor": "first",
                "fill-opacity": 0, 
                "stroke-opacity": 1, 
                "stroke": "#ff0000", 
                "ID": "24F-B3-H2", 
                "REMARKS": "POLYGON-50"
            }, 
            "id": "s24fpolygon50.23"
        }, 
        {
            "type": "Feature", 
            "geometry": {
                "type": "Polygon", 
                "coordinates": [
                    [
                        [88.3139526522516, 22.5351285285473], 
                        [88.3139655279941, 22.5351824170715], 
                        [88.3141050770777, 22.5351429021947], 
                        [88.3140926637074, 22.5350896350485], 
                        [88.3139526522516, 22.5351285285473]  
                    ]
                ]
            }, 
            "properties": {
    "floor": "first",
                "fill-opacity": 0, 
                "stroke-opacity": 1, 
                "stroke": "#ff0000", 
                "ID": "24F-B4-H2", 
                "REMARKS": "POLYGON-50"
            }, 
            "id": "s24fpolygon50.24"
        }, 
        {
            "type": "Feature", 
            "geometry": {
                "type": "Polygon", 
                "coordinates": [
                    [
                        [88.3139398082931, 22.5350747730481], 
                        [88.3139526522516, 22.5351285285473], 
                        [88.3140926637074, 22.5350896350485], 
                        [88.3140800153436, 22.5350353595194], 
                        [88.3139398082931, 22.5350747730481]  
                    ]
                ]
            }, 
            "properties": {
    "floor": "first",
                "fill-opacity": 0, 
                "stroke-opacity": 1, 
                "stroke": "#ff0000", 
                "ID": "24F-B5-H2", 
                "REMARKS": "POLYGON-50"
            }, 
            "id": "s24fpolygon50.25"
        }, 
        {
            "type": "Feature", 
            "geometry": {
                "type": "Polygon", 
                "coordinates": [
                    [
                        [88.3139272311904, 22.5350221344138], 
                        [88.3139398082931, 22.5350747730481], 
                        [88.3140800153436, 22.5350353595194], 
                        [88.3140679353377, 22.5349835228768], 
                        [88.3139272311904, 22.5350221344138]  
                    ]
                ]
            }, 
            "properties": {
    "floor": "first",
                "fill-opacity": 0, 
                "stroke-opacity": 1, 
                "stroke": "#ff0000", 
                "ID": "24F-B6-H2", 
                "REMARKS": "POLYGON-50"
            }, 
            "id": "s24fpolygon50.26"
        }, 
        {
            "type": "Feature", 
            "geometry": {
                "type": "Polygon", 
                "coordinates": [
                    [
                        [88.3139142702548, 22.5349678893331], 
                        [88.3139272311904, 22.5350221344138], 
                        [88.3140679353377, 22.5349835228768], 
                        [88.3140551707952, 22.5349287488119], 
                        [88.3139142702548, 22.5349678893331]  
                    ]
                ]
            }, 
            "properties": {
    "floor": "first",
                "fill-opacity": 0, 
                "stroke-opacity": 1, 
                "stroke": "#ff0000", 
                "ID": "24F-B7-H2", 
                "REMARKS": "POLYGON-50"
            }, 
            "id": "s24fpolygon50.27"
        }, 
        {
            "type": "Feature", 
            "geometry": {
                "type": "Polygon", 
                "coordinates": [
                    [
                        [88.313902395335 , 22.5349181895271], 
                        [88.3139142702548, 22.5349678893331], 
                        [88.3140551707952, 22.5349287488119], 
                        [88.3140436132505, 22.5348791541085], 
                        [88.313902395335 , 22.5349181895271]  
                    ]
                ]
            }, 
            "properties": {
    "floor": "first",
                "fill-opacity": 0, 
                "stroke-opacity": 1, 
                "stroke": "#ff0000", 
                "ID": "24F-B8-H2", 
                "REMARKS": "POLYGON-50"
            }, 
            "id": "s24fpolygon50.28"
        }, 
        {
            "type": "Feature", 
            "geometry": {
                "type": "Polygon", 
                "coordinates": [
                    [
                        [88.3140308420535, 22.5348243514885], 
                        [88.3140436132505, 22.5348791541085], 
                        [88.3142148898902, 22.5348318098653], 
                        [88.3142026501889, 22.5347803352746], 
                        [88.3140308420535, 22.5348243514885]  
                    ]
                ]
            }, 
            "properties": {
    "floor": "first",
                "fill-opacity": 0, 
                "stroke-opacity": 1, 
                "stroke": "#ff0000", 
                "ID": "24F-B9-H1", 
                "REMARKS": "POLYGON-50"
            }, 
            "id": "s24fpolygon50.29"
        }, 
        {
            "type": "Feature", 
            "geometry": {
                "type": "Polygon", 
                "coordinates": [
                    [
                        [88.3138761557011, 22.5348083694415], 
                        [88.31388867673  , 22.5348607733918], 
                        [88.3140308420535, 22.5348243514885], 
                        [88.3140183411805, 22.5347707088583], 
                        [88.3138761557011, 22.5348083694415]  
                    ]
                ]
            }, 
            "properties": {
    "floor": "first",
                "fill-opacity": 0, 
                "stroke-opacity": 1, 
                "stroke": "#ff0000", 
                "ID": "24F-B10-H2", 
                "REMARKS": "POLYGON-50"
            }, 
            "id": "s24fpolygon50.30"
        }, 
        {
            "type": "Feature", 
            "geometry": {
                "type": "Polygon", 
                "coordinates": [
                    [
                        [88.3140056787266, 22.5347163728669], 
                        [88.3140183411805, 22.5347707088583], 
                        [88.3141895766225, 22.5347253538287], 
                        [88.3141773139424, 22.5346737825996], 
                        [88.3140056787266, 22.5347163728669]  
                    ]
                ]
            }, 
            "properties": {
    "floor": "first",
                "fill-opacity": 0, 
                "stroke-opacity": 1, 
                "stroke": "#ff0000", 
                "ID": "24F-B11-H1", 
                "REMARKS": "POLYGON-50"
            }, 
            "id": "s24fpolygon50.31"
        }, 
        {
            "type": "Feature", 
            "geometry": {
                "type": "Polygon", 
                "coordinates": [
                    [
                        [88.3138504368728, 22.5347007290705], 
                        [88.3138626545642, 22.5347518634699], 
                        [88.3140056787266, 22.5347163728669], 
                        [88.3139937765523, 22.5346652993196], 
                        [88.3138504368728, 22.5347007290705]  
                    ]
                ]
            }, 
            "properties": {
    "floor": "first",
                "fill-opacity": 0, 
                "stroke-opacity": 1, 
                "stroke": "#ff0000", 
                "ID": "24F-B12-H2", 
                "REMARKS": "POLYGON-50"
            }, 
            "id": "s24fpolygon50.32"
        }, 
        {
            "type": "Feature", 
            "geometry": {
                "type": "Polygon", 
                "coordinates": [
                    [
                        [88.3139801801095, 22.5346069554784], 
                        [88.3139937765523, 22.5346652993196], 
                        [88.3141652204629, 22.5346229229513], 
                        [88.3141518568211, 22.5345667215805], 
                        [88.3139801801095, 22.5346069554784]  
                    ]
                ]
            }, 
            "properties": {
    "floor": "first",
                "fill-opacity": 0, 
                "stroke-opacity": 1, 
                "stroke": "#ff0000", 
                "ID": "24F-B13-H1", 
                "REMARKS": "POLYGON-50"
            }, 
            "id": "s24fpolygon50.33"
        }, 
        {
            "type": "Feature", 
            "geometry": {
                "type": "Polygon", 
                "coordinates": [
                    [
                        [88.3138224384631, 22.5345835480245], 
                        [88.3138360992224, 22.53464072206  ], 
                        [88.3139801801095, 22.5346069554784], 
                        [88.3139667441917, 22.5345493004679], 
                        [88.3138224384631, 22.5345835480245]  
                    ]
                ]
            }, 
            "properties": {
    "floor": "first",
                "fill-opacity": 0, 
                "stroke-opacity": 1, 
                "stroke": "#ff0000", 
                "ID": "24F-B14-H2", 
                "REMARKS": "POLYGON-50"
            }, 
            "id": "s24fpolygon50.34"
        }, 
        {
            "type": "Feature", 
            "geometry": {
                "type": "Polygon", 
                "coordinates": [
                    [
                        [88.3138100756772, 22.5345318063651], 
                        [88.3138224384631, 22.5345835480245], 
                        [88.3139667441917, 22.5345493004679], 
                        [88.3139543416119, 22.534496079625 ], 
                        [88.3138100756772, 22.5345318063651]  
                    ]
                ]
            }, 
            "properties": {
    "floor": "first",
                "fill-opacity": 0, 
                "stroke-opacity": 1, 
                "stroke": "#ff0000", 
                "ID": "24F-B15-H2", 
                "REMARKS": "POLYGON-50"
            }, 
            "id": "s24fpolygon50.35"
        }, 
        {
            "type": "Feature", 
            "geometry": {
                "type": "Polygon", 
                "coordinates": [
                    [
                        [88.3137997796553, 22.5344887146812], 
                        [88.3138100756772, 22.5345318063651], 
                        [88.3139543416119, 22.534496079625 ], 
                        [88.3139433918005, 22.534449092772 ], 
                        [88.3137997796553, 22.5344887146812]  
                    ]
                ]
            }, 
            "properties": {
    "floor": "first",
                "fill-opacity": 0, 
                "stroke-opacity": 1, 
                "stroke": "#ff0000", 
                "ID": "24F-B16-H2", 
                "REMARKS": "POLYGON-50"
            }, 
            "id": "s24fpolygon50.36"
        }, 
        {
            "type": "Feature", 
            "geometry": {
                "type": "Polygon", 
                "coordinates": [
                    [
                        [88.3137865909456, 22.5344335163032], 
                        [88.3137997796553, 22.5344887146812], 
                        [88.3139433918005, 22.534449092772 ], 
                        [88.3139301993687, 22.5343924825868], 
                        [88.3137865909456, 22.5344335163032]  
                    ]
                ]
            }, 
            "properties": {
    "floor": "first",
                "fill-opacity": 0, 
                "stroke-opacity": 1, 
                "stroke": "#ff0000", 
                "ID": "24F-B17-H2", 
                "REMARKS": "POLYGON-50"
            }, 
            "id": "s24fpolygon50.37"
        }, 
        {
            "type": "Feature", 
            "geometry": {
                "type": "Polygon", 
                "coordinates": [
                    [
                        [88.3139193233562, 22.5343458124132], 
                        [88.3139301993687, 22.5343924825868], 
                        [88.3140989600718, 22.534344262025 ], 
                        [88.3140889506311, 22.5343021668917], 
                        [88.3139193233562, 22.5343458124132]  
                    ]
                ]
            }, 
            "properties": {
    "floor": "first",
                "fill-opacity": 0, 
                "stroke-opacity": 1, 
                "stroke": "#ff0000", 
                "ID": "24F-B18-H1", 
                "REMARKS": "POLYGON-50"
            }, 
            "id": "s24fpolygon50.38"
        }, 
        {
            "type": "Feature", 
            "geometry": {
                "type": "Polygon", 
                "coordinates": [
                    [
                        [88.3139084872201, 22.5342993133537], 
                        [88.3139193233562, 22.5343458124132], 
                        [88.3140889506311, 22.5343021668917], 
                        [88.3140780889085, 22.5342564874495], 
                        [88.3139084872201, 22.5342993133537]  
                    ]
                ]
            }, 
            "properties": {
    "floor": "first",
                "fill-opacity": 0, 
                "stroke-opacity": 1, 
                "stroke": "#ff0000", 
                "ID": "24F-B19-H1", 
                "REMARKS": "POLYGON-50"
            }, 
            "id": "s24fpolygon50.39"
        }, 
        {
            "type": "Feature", 
            "geometry": {
                "type": "Polygon", 
                "coordinates": [
                    [
                        [88.313894679884 , 22.534240064546 ], 
                        [88.3139084872201, 22.5342993133537], 
                        [88.3140780889085, 22.5342564874495], 
                        [88.3140644928863, 22.5341993087934], 
                        [88.313894679884 , 22.534240064546 ]  
                    ]
                ]
            }, 
            "properties": {
    "floor": "first",
                "fill-opacity": 0, 
                "stroke-opacity": 1, 
                "stroke": "#ff0000", 
                "ID": "24F-B20-H1", 
                "REMARKS": "POLYGON-50"
            }, 
            "id": "s24fpolygon50.40"
        }
    ]
}
