{"type":"FeatureCollection", "features": [
{"type":"Feature","geometry":{"type":"Polygon","coordinates":[[[88.3180388713346,22.5434671060959],[88.3180241979675,22.5434180140798],[88.3181967175656,22.5433774258407],[88.3182072475921,22.5434191203166],[88.3180388713346,22.5434671060959]]]},"properties": {
    "floor": "ground","fill-opacity":0,"stroke-opacity":1,"stroke":"#ff0000","ID":"2-23","REMARKS":"POLYGON ID-2"}},
{"type":"Feature","geometry":{"type":"Polygon","coordinates":[[[88.3180682181028,22.5435652901219],[88.3180535447131,22.54351619811],[88.318219798646,22.5434688171734],[88.3182323497098,22.5435185140286],[88.3180682181028,22.5435652901219]]]},"properties": {
    "floor": "ground","fill-opacity":0,"stroke-opacity":1,"stroke":"#ff0000","ID":"2-21","REMARKS":"POLYGON ID-2"}},
{"type":"Feature","geometry":{"type":"Polygon","coordinates":[[[88.3180535447131,22.54351619811],[88.3180388713346,22.5434671060959],[88.3182072475921,22.5434191203166],[88.318219798646,22.5434688171734],[88.3180535447131,22.54351619811]]]},"properties": {
    "floor": "ground","fill-opacity":0,"stroke-opacity":1,"stroke":"#ff0000","ID":"2-22","REMARKS":"POLYGON ID-2"}},
{"type":"Feature","geometry":{"type":"Polygon","coordinates":[[[88.318097564916,22.5436634741393],[88.3180828915037,22.5436143821317],[88.3182449007836,22.543568210882],[88.3182574518672,22.5436179077337],[88.318097564916,22.5436634741393]]]},"properties": {
    "floor": "ground","fill-opacity":0,"stroke-opacity":1,"stroke":"#ff0000","ID":"2-19","REMARKS":"POLYGON ID-2"}},
{"type":"Feature","geometry":{"type":"Polygon","coordinates":[[[88.3180828915037,22.5436143821317],[88.3180682181028,22.5435652901219],[88.3182323497098,22.5435185140286],[88.3182449007836,22.543568210882],[88.3180828915037,22.5436143821317]]]},"properties": {
    "floor": "ground","fill-opacity":0,"stroke-opacity":1,"stroke":"#ff0000","ID":"2-20","REMARKS":"POLYGON ID-2"}},
{"type":"Feature","geometry":{"type":"Polygon","coordinates":[[[88.3181269117743,22.5437616581483],[88.3181122383395,22.5437125661449],[88.3182700029608,22.5436676045838],[88.3182825540644,22.5437173014321],[88.3181269117743,22.5437616581483]]]},"properties": {
    "floor": "ground","fill-opacity":0,"stroke-opacity":1,"stroke":"#ff0000","ID":"2-17","REMARKS":"POLYGON ID-2"}},
{"type":"Feature","geometry":{"type":"Polygon","coordinates":[[[88.3181122383395,22.5437125661449],[88.318097564916,22.5436634741393],[88.3182574518672,22.5436179077337],[88.3182700029608,22.5436676045838],[88.3181122383395,22.5437125661449]]]},"properties": {
    "floor": "ground","fill-opacity":0,"stroke-opacity":1,"stroke":"#ff0000","ID":"2-18","REMARKS":"POLYGON ID-2"}},
{"type":"Feature","geometry":{"type":"Polygon","coordinates":[[[88.3181562586777,22.5438598421487],[88.3181415852203,22.5438107501495],[88.3182951051778,22.5437669982787],[88.3183076563012,22.5438166951236],[88.3181562586777,22.5438598421487]]]},"properties": {
    "floor": "ground","fill-opacity":0,"stroke-opacity":1,"stroke":"#ff0000","ID":"2-15","REMARKS":"POLYGON ID-2"}},
{"type":"Feature","geometry":{"type":"Polygon","coordinates":[[[88.3181415852203,22.5438107501495],[88.3181269117743,22.5437616581483],[88.3182825540644,22.5437173014321],[88.3182951051778,22.5437669982787],[88.3181415852203,22.5438107501495]]]},"properties": {
    "floor": "ground","fill-opacity":0,"stroke-opacity":1,"stroke":"#ff0000","ID":"2-16","REMARKS":"POLYGON ID-2"}},
{"type":"Feature","geometry":{"type":"Polygon","coordinates":[[[88.3181856056261,22.5439580261406],[88.3181709321463,22.5439089341457],[88.3183204402228,22.543866325624],[88.3183392345841,22.5439142431982],[88.3181856056261,22.5439580261406]]]},"properties": {
    "floor": "ground","fill-opacity":0,"stroke-opacity":1,"stroke":"#ff0000","ID":"2-13","REMARKS":"POLYGON ID-2"}},
{"type":"Feature","geometry":{"type":"Polygon","coordinates":[[[88.3181709321463,22.5439089341457],[88.3181562586777,22.5438598421487],[88.3183076563012,22.5438166951236],[88.3183197394451,22.5438645389402],[88.3183204402228,22.543866325624],[88.3181709321463,22.5439089341457]]]},"properties": {
    "floor": "ground","fill-opacity":0,"stroke-opacity":1,"stroke":"#ff0000","ID":"2-14","REMARKS":"POLYGON ID-2"}},
{"type":"Feature","geometry":{"type":"Polygon","coordinates":[[[88.3182149526197,22.544056210124],[88.3182002791173,22.5440071181334],[88.3183580289593,22.5439621607693],[88.3183768233482,22.5440100783373],[88.3182149526197,22.544056210124]]]},"properties": {
    "floor": "ground","fill-opacity":0,"stroke-opacity":1,"stroke":"#ff0000","ID":"2-11","REMARKS":"POLYGON ID-2"}},
{"type":"Feature","geometry":{"type":"Polygon","coordinates":[[[88.3182002791173,22.5440071181334],[88.3181856056261,22.5439580261406],[88.3183392345841,22.5439142431982],[88.3183580289593,22.5439621607693],[88.3182002791173,22.5440071181334]]]},"properties": {
    "floor": "ground","fill-opacity":0,"stroke-opacity":1,"stroke":"#ff0000","ID":"2-12","REMARKS":"POLYGON ID-2"}},
{"type":"Feature","geometry":{"type":"Polygon","coordinates":[[[88.3182442996583,22.5441543940989],[88.3182296261334,22.5441053021125],[88.3183956177509,22.5440579959023],[88.3184144121674,22.5441059134641],[88.3182442996583,22.5441543940989]]]},"properties": {
    "floor": "ground","fill-opacity":0,"stroke-opacity":1,"stroke":"#ff0000","ID":"2-9","REMARKS":"POLYGON ID-2"}},
{"type":"Feature","geometry":{"type":"Polygon","coordinates":[[[88.3182296261334,22.5441053021125],[88.3182149526197,22.544056210124],[88.3183768233482,22.5440100783373],[88.3183956177509,22.5440579959023],[88.3182296261334,22.5441053021125]]]},"properties": {
    "floor": "ground","fill-opacity":0,"stroke-opacity":1,"stroke":"#ff0000","ID":"2-10","REMARKS":"POLYGON ID-2"}},
{"type":"Feature","geometry":{"type":"Polygon","coordinates":[[[88.318273646742,22.5442525780653],[88.3182589731946,22.5442034860832],[88.3184332065976,22.5441538310228],[88.3184520010417,22.5442017485785],[88.318273646742,22.5442525780653]]]},"properties": {
    "floor": "ground","fill-opacity":0,"stroke-opacity":1,"stroke":"#ff0000","ID":"2-7","REMARKS":"POLYGON ID-2"}},
{"type":"Feature","geometry":{"type":"Polygon","coordinates":[[[88.3182589731946,22.5442034860832],[88.3182442996583,22.5441543940989],[88.3184144121674,22.5441059134641],[88.3184332065976,22.5441538310228],[88.3182589731946,22.5442034860832]]]},"properties": {
    "floor": "ground","fill-opacity":0,"stroke-opacity":1,"stroke":"#ff0000","ID":"2-8","REMARKS":"POLYGON ID-2"}},
{"type":"Feature","geometry":{"type":"Polygon","coordinates":[[[88.3183029938709,22.5443507620232],[88.3182883203008,22.5443016700453],[88.3184707954995,22.544249666131],[88.318489589971,22.5442975836805],[88.3183029938709,22.5443507620232]]]},"properties": {
    "floor": "ground","fill-opacity":0,"stroke-opacity":1,"stroke":"#ff0000","ID":"2-5","REMARKS":"POLYGON ID-2"}},
{"type":"Feature","geometry":{"type":"Polygon","coordinates":[[[88.3182883203008,22.5443016700453],[88.318273646742,22.5442525780653],[88.3184520010417,22.5442017485785],[88.3184707954995,22.544249666131],[88.3182883203008,22.5443016700453]]]},"properties": {
    "floor": "ground","fill-opacity":0,"stroke-opacity":1,"stroke":"#ff0000","ID":"2-6","REMARKS":"POLYGON ID-2"}},
{"type":"Feature","geometry":{"type":"Polygon","coordinates":[[[88.3185083844564,22.5443455012268],[88.3184505612353,22.5443619803956],[88.318385608924,22.5443804912707],[88.3183176674522,22.544399853999],[88.3183029938709,22.5443507620232],[88.318489589971,22.5442975836805],[88.3185083844564,22.5443455012268]]]},"properties": {
    "floor": "ground","fill-opacity":0,"stroke-opacity":1,"stroke":"#ff0000","ID":"2-4","REMARKS":"POLYGON ID-2"}},
{"type":"Feature","geometry":{"type":"Polygon","coordinates":[[[88.3184950252208,22.5444902442624],[88.3184233134827,22.5445074644949],[88.3184233134733,22.544507464487],[88.318385608924,22.5443804912707],[88.3184505612353,22.5443619803956],[88.3184950253506,22.5444902437223],[88.3184950252208,22.5444902442624]]]},"properties": {
    "floor": "ground","fill-opacity":0,"stroke-opacity":1,"stroke":"#ff0000","ID":"2-2","REMARKS":"POLYGON ID-2"}},
{"type":"Feature","geometry":{"type":"Polygon","coordinates":[[[88.3184233134827,22.5445074644949],[88.3184218477099,22.5445078164725],[88.3183493437272,22.5445252274148],[88.3183176674522,22.544399853999],[88.318385608924,22.5443804912707],[88.3184233134733,22.544507464487],[88.3184233134827,22.5445074644949]]]},"properties": {
    "floor": "ground","fill-opacity":0,"stroke-opacity":1,"stroke":"#ff0000","ID":"2-1","REMARKS":"POLYGON ID-2"}},
{"type":"Feature","geometry":{"type":"Polygon","coordinates":[[[88.3184505612353,22.5443619803956],[88.3185083844564,22.5443455012268],[88.3185789392164,22.5444700758425],[88.3185789481896,22.5444700916858],[88.3185127200256,22.5444859951806],[88.3184950252208,22.5444902442624],[88.3184950253506,22.5444902437223],[88.3184505612353,22.5443619803956]]]},"properties": {
    "floor": "ground","fill-opacity":0,"stroke-opacity":1,"stroke":"#ff0000","ID":"2-3","REMARKS":"POLYGON ID-2"}}
]}