{
    "type": "FeatureCollection", 
    "features": [
        {
            "type": "Feature", 
            "geometry": {
                "type": "Polygon", 
                "coordinates": [
                    [
                        [88.3128616246766, 22.5385848570907], 
                        [88.3128616246766, 22.538534101827 ], 
                        [88.3126585024271, 22.5385422587038], 
                        [88.3126578888031, 22.5385955336783], 
                        [88.3128616246766, 22.5385848570907]  
                    ]
                ]
            }, 
            "properties": {
    "floor": "ground",
                "fill-opacity": 0, 
                "stroke-opacity": 1, 
                "stroke": "#ff0000", 
                "ID": "12-B15-H2", 
                "REMARKS": "POLYGON-44"
            }, 
            "id": "p44.1"
        }, 
        {
            "type": "Feature", 
            "geometry": {
                "type": "Polygon", 
                "coordinates": [
                    [
                        [88.3128616246766, 22.5393593985294], 
                        [88.3128616246766, 22.5393081431917], 
                        [88.3126490351664, 22.5393081431917], 
                        [88.3126471057071, 22.5393580414523], 
                        [88.3128616246766, 22.5393593985294]  
                    ]
                ]
            }, 
            "properties": {
    "floor": "ground",
                "fill-opacity": 0, 
                "stroke-opacity": 1, 
                "stroke": "#ff0000", 
                "ID": "12-B1-H2", 
                "REMARKS": "POLYGON-44"
            }, 
            "id": "p44.2"
        }, 
        {
            "type": "Feature", 
            "geometry": {
                "type": "Polygon", 
                "coordinates": [
                    [
                        [88.3128616246766, 22.5393081431917], 
                        [88.3128616246766, 22.539258657856 ], 
                        [88.3126502509033, 22.539258657856 ], 
                        [88.3126499548871, 22.5392843580473], 
                        [88.3126490351664, 22.5393081431917], 
                        [88.3128616246766, 22.5393081431917]  
                    ]
                ]
            }, 
            "properties": {
    "floor": "ground",
                "fill-opacity": 0, 
                "stroke-opacity": 1, 
                "stroke": "#ff0000", 
                "ID": "12-B2-H2", 
                "REMARKS": "POLYGON-44"
            }, 
            "id": "p44.3"
        }, 
        {
            "type": "Feature", 
            "geometry": {
                "type": "Polygon", 
                "coordinates": [
                    [
                        [88.3128616246766, 22.539258657856 ], 
                        [88.3128616246766, 22.5392060580391], 
                        [88.3126508881057, 22.5392033358016], 
                        [88.3126502509033, 22.539258657856 ], 
                        [88.3128616246766, 22.539258657856 ]  
                    ]
                ]
            }, 
            "properties": {
    "floor": "ground",
                "fill-opacity": 0, 
                "stroke-opacity": 1, 
                "stroke": "#ff0000", 
                "ID": "12-B3-H2", 
                "REMARKS": "POLYGON-44"
            }, 
            "id": "p44.4"
        }, 
        {
            "type": "Feature", 
            "geometry": {
                "type": "Polygon", 
                "coordinates": [
                    [
                        [88.3128616246766, 22.5391473157857], 
                        [88.3128616246766, 22.5392060580391], 
                        [88.3130610088553, 22.5392086336294], 
                        [88.3130601343075, 22.5391446195057], 
                        [88.3128616246766, 22.5391473157857]  
                    ]
                ]
            }, 
            "properties": {
    "floor": "ground",
                "fill-opacity": 0, 
                "stroke-opacity": 1, 
                "stroke": "#ff0000", 
                "ID": "12-B4-H1", 
                "REMARKS": "POLYGON-44"
            }, 
            "id": "p44.5"
        }, 
        {
            "type": "Feature", 
            "geometry": {
                "type": "Polygon", 
                "coordinates": [
                    [
                        [88.3128616246766, 22.5391473157857], 
                        [88.3128616246766, 22.5390855486885], 
                        [88.3126521802005, 22.5390911558405], 
                        [88.3126515004743, 22.5391501698219], 
                        [88.3128616246766, 22.5391473157857]  
                    ]
                ]
            }, 
            "properties": {
    "floor": "ground",
                "fill-opacity": 0, 
                "stroke-opacity": 1, 
                "stroke": "#ff0000", 
                "ID": "12-B5-H2", 
                "REMARKS": "POLYGON-44"
            }, 
            "id": "p44.6"
        }, 
        {
            "type": "Feature", 
            "geometry": {
                "type": "Polygon", 
                "coordinates": [
                    [
                        [88.3128616246766, 22.5390855486885], 
                        [88.3128616246766, 22.539023602269 ], 
                        [88.3126529582861, 22.539023602269 ], 
                        [88.3126521802005, 22.5390911558405], 
                        [88.3128616246766, 22.5390855486885]  
                    ]
                ]
            }, 
            "properties": {
    "floor": "ground",
                "fill-opacity": 0, 
                "stroke-opacity": 1, 
                "stroke": "#ff0000", 
                "ID": "12-B6-H2", 
                "REMARKS": "POLYGON-44"
            }, 
            "id": "p44.7"
        }, 
        {
            "type": "Feature", 
            "geometry": {
                "type": "Polygon", 
                "coordinates": [
                    [
                        [88.3128616246766, 22.539023602269], 
                        [88.3128616246766, 22.538961745469], 
                        [88.3126536707561, 22.538961745469], 
                        [88.3126529582861, 22.539023602269], 
                        [88.3128616246766, 22.539023602269]  
                    ]
                ]
            }, 
            "properties": {
    "floor": "ground",
                "fill-opacity": 0, 
                "stroke-opacity": 1, 
                "stroke": "#ff0000", 
                "ID": "12-B7-H2", 
                "REMARKS": "POLYGON-44"
            }, 
            "id": "p44.8"
        }, 
        {
            "type": "Feature", 
            "geometry": {
                "type": "Polygon", 
                "coordinates": [
                    [
                        [88.3128616246766, 22.538961745469 ], 
                        [88.3128616246766, 22.5388969054745], 
                        [88.3126543863148, 22.5388996205014], 
                        [88.3126536707561, 22.538961745469 ], 
                        [88.3128616246766, 22.538961745469 ]  
                    ]
                ]
            }, 
            "properties": {
    "floor": "ground",
                "fill-opacity": 0, 
                "stroke-opacity": 1, 
                "stroke": "#ff0000", 
                "ID": "12-B8-H2", 
                "REMARKS": "POLYGON-44"
            }, 
            "id": "p44.9"
        }, 
        {
            "type": "Feature", 
            "geometry": {
                "type": "Polygon", 
                "coordinates": [
                    [
                        [88.3128616246766, 22.5388969054745], 
                        [88.3128616246766, 22.5388303561158], 
                        [88.3126551680739, 22.538831747995 ], 
                        [88.3126543863148, 22.5388996205014], 
                        [88.3128616246766, 22.5388969054745]  
                    ]
                ]
            }, 
            "properties": {
    "floor": "ground",
                "fill-opacity": 0, 
                "stroke-opacity": 1, 
                "stroke": "#ff0000", 
                "ID": "12-B9-H2", 
                "REMARKS": "POLYGON-44"
            }, 
            "id": "p44.10"
        }, 
        {
            "type": "Feature", 
            "geometry": {
                "type": "Polygon", 
                "coordinates": [
                    [
                        [88.3128616246766, 22.5388303561158], 
                        [88.3128616246766, 22.5387823605924], 
                        [88.3126557369207, 22.5387823605924], 
                        [88.3126551680739, 22.538831747995 ], 
                        [88.3128616246766, 22.5388303561158]  
                    ]
                ]
            }, 
            "properties": {
    "floor": "ground",
                "fill-opacity": 0, 
                "stroke-opacity": 1, 
                "stroke": "#ff0000", 
                "ID": "12-B10-H2", 
                "REMARKS": "POLYGON-44"
            }, 
            "id": "p44.11"
        }, 
        {
            "type": "Feature", 
            "geometry": {
                "type": "Polygon", 
                "coordinates": [
                    [
                        [88.3128616246766, 22.5387823605924], 
                        [88.3128616246766, 22.5387328750682], 
                        [88.3126563068976, 22.5387328750682], 
                        [88.3126557369207, 22.5387823605924], 
                        [88.3128616246766, 22.5387823605924]  
                    ]
                ]
            }, 
            "properties": {
    "floor": "ground",
                "fill-opacity": 0, 
                "stroke-opacity": 1, 
                "stroke": "#ff0000", 
                "ID": "12-B11-H2", 
                "REMARKS": "POLYGON-44"
            }, 
            "id": "p44.12"
        }, 
        {
            "type": "Feature", 
            "geometry": {
                "type": "Polygon", 
                "coordinates": [
                    [
                        [88.3128616246766, 22.5386771086676], 
                        [88.3128616246766, 22.5387328750682], 
                        [88.3130545091393, 22.5387328750682], 
                        [88.3130536727063, 22.538671650834 ], 
                        [88.3128616246766, 22.5386771086676]  
                    ]
                ]
            }, 
            "properties": {
    "floor": "ground",
                "fill-opacity": 0, 
                "stroke-opacity": 1, 
                "stroke": "#ff0000", 
                "ID": "12-B12-H1", 
                "REMARKS": "POLYGON-44"
            }, 
            "id": "p44.13"
        }, 
        {
            "type": "Feature", 
            "geometry": {
                "type": "Polygon", 
                "coordinates": [
                    [
                        [88.3128616246766, 22.5386771086676], 
                        [88.3128616246766, 22.5386296597661], 
                        [88.3126574164511, 22.5386365433818], 
                        [88.3126568821991, 22.5386829272661], 
                        [88.3128616246766, 22.5386771086676]  
                    ]
                ]
            }, 
            "properties": {
    "floor": "ground",
                "fill-opacity": 0, 
                "stroke-opacity": 1, 
                "stroke": "#ff0000", 
                "ID": "12-B13-H2", 
                "REMARKS": "POLYGON-44"
            }, 
            "id": "p44.14"
        }, 
        {
            "type": "Feature", 
            "geometry": {
                "type": "Polygon", 
                "coordinates": [
                    [
                        [88.3128616246766, 22.5385848570907], 
                        [88.3128616246766, 22.5386296597661], 
                        [88.3130530108952, 22.538623208365 ], 
                        [88.313052350401 , 22.5385748622877], 
                        [88.3128616246766, 22.5385848570907]  
                    ]
                ]
            }, 
            "properties": {
    "floor": "ground",
                "fill-opacity": 0, 
                "stroke-opacity": 1, 
                "stroke": "#ff0000", 
                "ID": "12-B14-H1", 
                "REMARKS": "POLYGON-44"
            }, 
            "id": "p44.15"
        }, 
        {
            "type": "Feature", 
            "geometry": {
                "type": "Polygon", 
                "coordinates": [
                    [
                        [88.3128616246766, 22.5393081431917], 
                        [88.3128616246766, 22.5393593985294], 
                        [88.3130630859861, 22.5393606730018], 
                        [88.3130623683346, 22.5393081431917], 
                        [88.3128616246766, 22.5393081431917]  
                    ]
                ]
            }, 
            "properties": {
    "floor": "ground",
                "fill-opacity": 0, 
                "stroke-opacity": 1, 
                "stroke": "#ff0000", 
                "ID": "12-B1-H1", 
                "REMARKS": "POLYGON-44"
            }, 
            "id": "p44.16"
        }, 
        {
            "type": "Feature", 
            "geometry": {
                "type": "Polygon", 
                "coordinates": [
                    [
                        [88.3128616246766, 22.539258657856 ], 
                        [88.3128616246766, 22.5393081431917], 
                        [88.3130623683346, 22.5393081431917], 
                        [88.3130616922761, 22.539258657856 ], 
                        [88.3128616246766, 22.539258657856 ]  
                    ]
                ]
            }, 
            "properties": {
    "floor": "ground",
                "fill-opacity": 0, 
                "stroke-opacity": 1, 
                "stroke": "#ff0000", 
                "ID": "12-B2-H1", 
                "REMARKS": "POLYGON-44"
            }, 
            "id": "p44.17"
        }, 
        {
            "type": "Feature", 
            "geometry": {
                "type": "Polygon", 
                "coordinates": [
                    [
                        [88.3128616246766, 22.5392060580391], 
                        [88.3128616246766, 22.539258657856 ], 
                        [88.3130616922761, 22.539258657856 ], 
                        [88.3130610088553, 22.5392086336294], 
                        [88.3128616246766, 22.5392060580391]  
                    ]
                ]
            }, 
            "properties": {
    "floor": "ground",
                "fill-opacity": 0, 
                "stroke-opacity": 1, 
                "stroke": "#ff0000", 
                "ID": "12-B3-H1", 
                "REMARKS": "POLYGON-44"
            }, 
            "id": "p44.18"
        }, 
        {
            "type": "Feature", 
            "geometry": {
                "type": "Polygon", 
                "coordinates": [
                    [
                        [88.3128616246766, 22.5392060580391], 
                        [88.3128616246766, 22.5391473157857], 
                        [88.3126515004743, 22.5391501698219], 
                        [88.3126508881057, 22.5392033358016], 
                        [88.3128616246766, 22.5392060580391]  
                    ]
                ]
            }, 
            "properties": {
    "floor": "ground",
                "fill-opacity": 0, 
                "stroke-opacity": 1, 
                "stroke": "#ff0000", 
                "ID": "12-B4-H2", 
                "REMARKS": "POLYGON-44"
            }, 
            "id": "p44.19"
        }, 
        {
            "type": "Feature", 
            "geometry": {
                "type": "Polygon", 
                "coordinates": [
                    [
                        [88.3128616246766, 22.5390855486885], 
                        [88.3128616246766, 22.5391473157857], 
                        [88.3130601343075, 22.5391446195057], 
                        [88.3130592550113, 22.5390802578194], 
                        [88.3128616246766, 22.5390855486885]  
                    ]
                ]
            }, 
            "properties": {
    "floor": "ground",
                "fill-opacity": 0, 
                "stroke-opacity": 1, 
                "stroke": "#ff0000", 
                "ID": "12-B5-H1", 
                "REMARKS": "POLYGON-44"
            }, 
            "id": "p44.20"
        }, 
        {
            "type": "Feature", 
            "geometry": {
                "type": "Polygon", 
                "coordinates": [
                    [
                        [88.3128616246766, 22.539023602269 ], 
                        [88.3128616246766, 22.5390855486885], 
                        [88.3130592550113, 22.5390802578194], 
                        [88.3130584809948, 22.539023602269 ], 
                        [88.3128616246766, 22.539023602269 ]  
                    ]
                ]
            }, 
            "properties": {
    "floor": "ground",
                "fill-opacity": 0, 
                "stroke-opacity": 1, 
                "stroke": "#ff0000", 
                "ID": "12-B6-H1", 
                "REMARKS": "POLYGON-44"
            }, 
            "id": "p44.21"
        }, 
        {
            "type": "Feature", 
            "geometry": {
                "type": "Polygon", 
                "coordinates": [
                    [
                        [88.3128616246766, 22.538961745469], 
                        [88.3128616246766, 22.539023602269], 
                        [88.3130584809948, 22.539023602269], 
                        [88.3130576359198, 22.538961745469], 
                        [88.3128616246766, 22.538961745469]  
                    ]
                ]
            }, 
            "properties": {
    "floor": "ground",
                "fill-opacity": 0, 
                "stroke-opacity": 1, 
                "stroke": "#ff0000", 
                "ID": "12-B7-H1", 
                "REMARKS": "POLYGON-44"
            }, 
            "id": "p44.22"
        }, 
        {
            "type": "Feature", 
            "geometry": {
                "type": "Polygon", 
                "coordinates": [
                    [
                        [88.3128616246766, 22.5388969054745], 
                        [88.3128616246766, 22.538961745469 ], 
                        [88.3130576359198, 22.538961745469 ], 
                        [88.3130567151712, 22.5388943495966], 
                        [88.3128616246766, 22.5388969054745]  
                    ]
                ]
            }, 
            "properties": {
    "floor": "ground",
                "fill-opacity": 0, 
                "stroke-opacity": 1, 
                "stroke": "#ff0000", 
                "ID": "12-B8-H1", 
                "REMARKS": "POLYGON-44"
            }, 
            "id": "p44.23"
        }, 
        {
            "type": "Feature", 
            "geometry": {
                "type": "Polygon", 
                "coordinates": [
                    [
                        [88.3128616246766, 22.5388303561158], 
                        [88.3128616246766, 22.5388969054745], 
                        [88.3130567151712, 22.5388943495966], 
                        [88.3130558230189, 22.5388290468789], 
                        [88.3128616246766, 22.5388303561158]  
                    ]
                ]
            }, 
            "properties": {
    "floor": "ground",
                "fill-opacity": 0, 
                "stroke-opacity": 1, 
                "stroke": "#ff0000", 
                "ID": "12-B9-H1", 
                "REMARKS": "POLYGON-44"
            }, 
            "id": "p44.24"
        }, 
        {
            "type": "Feature", 
            "geometry": {
                "type": "Polygon", 
                "coordinates": [
                    [
                        [88.3128616246766, 22.5387823605924], 
                        [88.3128616246766, 22.5388303561158], 
                        [88.3130558230189, 22.5388290468789], 
                        [88.3130551852004, 22.5387823605924], 
                        [88.3128616246766, 22.5387823605924]  
                    ]
                ]
            }, 
            "properties": {
    "floor": "ground",
                "fill-opacity": 0, 
                "stroke-opacity": 1, 
                "stroke": "#ff0000", 
                "ID": "12-B10-H1", 
                "REMARKS": "POLYGON-44"
            }, 
            "id": "p44.25"
        }, 
        {
            "type": "Feature", 
            "geometry": {
                "type": "Polygon", 
                "coordinates": [
                    [
                        [88.3128616246766, 22.5387328750682], 
                        [88.3128616246766, 22.5387823605924], 
                        [88.3130551852004, 22.5387823605924], 
                        [88.3130545091393, 22.5387328750682], 
                        [88.3128616246766, 22.5387328750682]  
                    ]
                ]
            }, 
            "properties": {
    "floor": "ground",
                "fill-opacity": 0, 
                "stroke-opacity": 1, 
                "stroke": "#ff0000", 
                "ID": "12-B11-H1", 
                "REMARKS": "POLYGON-44"
            }, 
            "id": "p44.26"
        }, 
        {
            "type": "Feature", 
            "geometry": {
                "type": "Polygon", 
                "coordinates": [
                    [
                        [88.3128616246766, 22.5387328750682], 
                        [88.3128616246766, 22.5386771086676], 
                        [88.3126568821991, 22.5386829272661], 
                        [88.3126563068976, 22.5387328750682], 
                        [88.3128616246766, 22.5387328750682]  
                    ]
                ]
            }, 
            "properties": {
    "floor": "ground",
                "fill-opacity": 0, 
                "stroke-opacity": 1, 
                "stroke": "#ff0000", 
                "ID": "12-B12-H2", 
                "REMARKS": "POLYGON-44"
            }, 
            "id": "p44.27"
        }, 
        {
            "type": "Feature", 
            "geometry": {
                "type": "Polygon", 
                "coordinates": [
                    [
                        [88.3128616246766, 22.5386296597661], 
                        [88.3128616246766, 22.5386771086676], 
                        [88.3130536727063, 22.538671650834 ], 
                        [88.3130530108952, 22.538623208365 ], 
                        [88.3128616246766, 22.5386296597661]  
                    ]
                ]
            }, 
            "properties": {
    "floor": "ground",
                "fill-opacity": 0, 
                "stroke-opacity": 1, 
                "stroke": "#ff0000", 
                "ID": "12-B13-H1", 
                "REMARKS": "POLYGON-13"
            }, 
            "id": "p44.28"
        }, 
        {
            "type": "Feature", 
            "geometry": {
                "type": "Polygon", 
                "coordinates": [
                    [
                        [88.3128616246766, 22.5386296597661], 
                        [88.3128616246766, 22.5385848570907], 
                        [88.3126578888031, 22.5385955336783], 
                        [88.3126574164511, 22.5386365433818], 
                        [88.3128616246766, 22.5386296597661]  
                    ]
                ]
            }, 
            "properties": {
    "floor": "ground",
                "fill-opacity": 0, 
                "stroke-opacity": 1, 
                "stroke": "#ff0000", 
                "ID": "12-B13-H2", 
                "REMARKS": "POLYGON-44"
            }, 
            "id": "p44.29"
        }, 
        {
            "type": "Feature", 
            "geometry": {
                "type": "Polygon", 
                "coordinates": [
                    [
                        [88.3128616246766, 22.538534101827 ], 
                        [88.3128616246766, 22.5385848570907], 
                        [88.313052350401 , 22.5385748622877], 
                        [88.3130516892661, 22.5385264693128], 
                        [88.3128616246766, 22.538534101827 ]  
                    ]
                ]
            }, 
            "properties": {
    "floor": "ground",
                "fill-opacity": 0, 
                "stroke-opacity": 1, 
                "stroke": "#ff0000", 
                "ID": "12-B15-H1", 
                "REMARKS": "POLYGON-44"
            }, 
            "id": "p44.30"
        }
    ]
}
