{"type":"FeatureCollection", "features": [
{"type":"Feature","geometry":{"type":"Polygon","coordinates":[[[88.3173258711719,22.5424464240244],[88.3173600970126,22.5425091712251],[88.3172501537847,22.5425593671973],[88.3172159279788,22.5424966199718],[88.3173258711719,22.5424464240244]]]},"properties": {
    "floor": "ground","fill-opacity":0,"stroke-opacity":1,"stroke":"#ff0000","ID":"4-41","REMARKS":"POLYGON ID-4"}},
{"type":"Feature","geometry":{"type":"Polygon","coordinates":[[[88.3169892892286,22.5426000943981],[88.3169539315256,22.5425378775093],[88.317071758964,22.542484068588],[88.317105984703,22.5425468158476],[88.3169892892286,22.5426000943981]]]},"properties": {
    "floor": "ground","fill-opacity":0,"stroke-opacity":1,"stroke":"#ff0000","ID":"4-14","REMARKS":"POLYGON ID-4"}},
{"type":"Feature","geometry":{"type":"Polygon","coordinates":[[[88.317024653088,22.5426623220521],[88.3169892892286,22.5426000943981],[88.317105984703,22.5425468158476],[88.3171402104741,22.5426095630979],[88.317024653088,22.5426623220521]]]},"properties": {
    "floor": "ground","fill-opacity":0,"stroke-opacity":1,"stroke":"#ff0000","ID":"4-13","REMARKS":"POLYGON ID-4"}},
{"type":"Feature","geometry":{"type":"Polygon","coordinates":[[[88.3173943228854,22.5425719184166],[88.3172843796227,22.5426221144136],[88.3172501537847,22.5425593671973],[88.3173600970126,22.5425091712251],[88.3173943228854,22.5425719184166]]]},"properties": {
    "floor": "ground","fill-opacity":0,"stroke-opacity":1,"stroke":"#ff0000","ID":"4-40","REMARKS":"POLYGON ID-4"}},
{"type":"Feature","geometry":{"type":"Polygon","coordinates":[[[88.3174627747273,22.5426974127718],[88.3173528313951,22.5427476088185],[88.3173186054928,22.5426848616207],[88.3174285487903,22.5426346655988],[88.3174627747273,22.5426974127718]]]},"properties": {
    "floor": "ground","fill-opacity":0,"stroke-opacity":1,"stroke":"#ff0000","ID":"4-38","REMARKS":"POLYGON ID-4"}},
{"type":"Feature","geometry":{"type":"Polygon","coordinates":[[[88.3174285487903,22.5426346655988],[88.3173186054928,22.5426848616207],[88.3172843796227,22.5426221144136],[88.3173943228854,22.5425719184166],[88.3174285487903,22.5426346655988]]]},"properties": {
    "floor": "ground","fill-opacity":0,"stroke-opacity":1,"stroke":"#ff0000","ID":"4-39","REMARKS":"POLYGON ID-4"}},
{"type":"Feature","geometry":{"type":"Polygon","coordinates":[[[88.3175312266978,22.5428229070901],[88.317421283296,22.5428731031863],[88.3173870573295,22.542810356007],[88.3174970006965,22.5427601599356],[88.3175312266978,22.5428229070901]]]},"properties": {
    "floor": "ground","fill-opacity":0,"stroke-opacity":1,"stroke":"#ff0000","ID":"4-36","REMARKS":"POLYGON ID-4"}},
{"type":"Feature","geometry":{"type":"Polygon","coordinates":[[[88.3174970006965,22.5427601599356],[88.3173870573295,22.542810356007],[88.3173528313951,22.5427476088185],[88.3174627747273,22.5426974127718],[88.3174970006965,22.5427601599356]]]},"properties": {
    "floor": "ground","fill-opacity":0,"stroke-opacity":1,"stroke":"#ff0000","ID":"4-37","REMARKS":"POLYGON ID-4"}},
{"type":"Feature","geometry":{"type":"Polygon","coordinates":[[[88.3175996787967,22.5429484013714],[88.3174897353253,22.5429985975173],[88.3174555069707,22.542935846096],[88.317565451188,22.5428856514062],[88.3175996787967,22.5429484013714]]]},"properties": {
    "floor": "ground","fill-opacity":0,"stroke-opacity":1,"stroke":"#ff0000","ID":"4-34","REMARKS":"POLYGON ID-4"}},
{"type":"Feature","geometry":{"type":"Polygon","coordinates":[[[88.317565451188,22.5428856514062],[88.3174555069707,22.542935846096],[88.317421283296,22.5428731031863],[88.3175312266978,22.5428229070901],[88.317565451188,22.5428856514062]]]},"properties": {
    "floor": "ground","fill-opacity":0,"stroke-opacity":1,"stroke":"#ff0000","ID":"4-35","REMARKS":"POLYGON ID-4"}},
{"type":"Feature","geometry":{"type":"Polygon","coordinates":[[[88.3176681310241,22.5430738956158],[88.3175581874832,22.5431240918113],[88.3175239613882,22.5430613446689],[88.3176339048944,22.5430111484982],[88.3176681310241,22.5430738956158]]]},"properties": {
    "floor": "ground","fill-opacity":0,"stroke-opacity":1,"stroke":"#ff0000","ID":"4-32","REMARKS":"POLYGON ID-4"}},
{"type":"Feature","geometry":{"type":"Polygon","coordinates":[[[88.3176339048944,22.5430111484982],[88.3175239613882,22.5430613446689],[88.3174897353253,22.5429985975173],[88.3175996787967,22.5429484013714],[88.3176339048944,22.5430111484982]]]},"properties": {
    "floor": "ground","fill-opacity":0,"stroke-opacity":1,"stroke":"#ff0000","ID":"4-33","REMARKS":"POLYGON ID-4"}},
{"type":"Feature","geometry":{"type":"Polygon","coordinates":[[[88.31773658338,22.5431993898232],[88.3176266397695,22.5432495860683],[88.3175924136103,22.5431868389444],[88.317702357186,22.5431366427241],[88.31773658338,22.5431993898232]]]},"properties": {
    "floor": "ground","fill-opacity":0,"stroke-opacity":1,"stroke":"#ff0000","ID":"4-30","REMARKS":"POLYGON ID-4"}},
{"type":"Feature","geometry":{"type":"Polygon","coordinates":[[[88.317702357186,22.5431366427241],[88.3175924136103,22.5431868389444],[88.3175581874832,22.5431240918113],[88.3176681310241,22.5430738956158],[88.317702357186,22.5431366427241]]]},"properties": {
    "floor": "ground","fill-opacity":0,"stroke-opacity":1,"stroke":"#ff0000","ID":"4-31","REMARKS":"POLYGON ID-4"}},
{"type":"Feature","geometry":{"type":"Polygon","coordinates":[[[88.3177807532261,22.5432803665822],[88.3176658377655,22.5433214480212],[88.3176266397695,22.5432495860683],[88.31773658338,22.5431993898232],[88.3177807532261,22.5432803665822]]]},"properties": {
    "floor": "ground","fill-opacity":0,"stroke-opacity":1,"stroke":"#ff0000","ID":"4-29","REMARKS":"POLYGON ID-4"}},
{"type":"Feature","geometry":{"type":"Polygon","coordinates":[[[88.3172843796227,22.5426221144136],[88.3171744362773,22.542672310339],[88.3171402104741,22.5426095630979],[88.3172501537847,22.5425593671973],[88.3172843796227,22.5426221144136]]]},"properties": {
    "floor": "ground","fill-opacity":0,"stroke-opacity":1,"stroke":"#ff0000","ID":"4-26","REMARKS":"POLYGON ID-4"}},
{"type":"Feature","geometry":{"type":"Polygon","coordinates":[[[88.3173528313951,22.5427476088185],[88.3172428879801,22.5427978047934],[88.3172086621127,22.5427350575708],[88.3173186054928,22.5426848616207],[88.3173528313951,22.5427476088185]]]},"properties": {
    "floor": "ground","fill-opacity":0,"stroke-opacity":1,"stroke":"#ff0000","ID":"4-24","REMARKS":"POLYGON ID-4"}},
{"type":"Feature","geometry":{"type":"Polygon","coordinates":[[[88.3173186054928,22.5426848616207],[88.3172086621127,22.5427350575708],[88.3171744362773,22.542672310339],[88.3172843796227,22.5426221144136],[88.3173186054928,22.5426848616207]]]},"properties": {
    "floor": "ground","fill-opacity":0,"stroke-opacity":1,"stroke":"#ff0000","ID":"4-25","REMARKS":"POLYGON ID-4"}},
{"type":"Feature","geometry":{"type":"Polygon","coordinates":[[[88.317421283296,22.5428731031863],[88.3173113398115,22.5429232992109],[88.3172771138797,22.5428605520068],[88.3173870573295,22.542810356007],[88.317421283296,22.5428731031863]]]},"properties": {
    "floor": "ground","fill-opacity":0,"stroke-opacity":1,"stroke":"#ff0000","ID":"4-22","REMARKS":"POLYGON ID-4"}},
{"type":"Feature","geometry":{"type":"Polygon","coordinates":[[[88.3173870573295,22.542810356007],[88.3172771138797,22.5428605520068],[88.3172428879801,22.5427978047934],[88.3173528313951,22.5427476088185],[88.3173870573295,22.542810356007]]]},"properties": {
    "floor": "ground","fill-opacity":0,"stroke-opacity":1,"stroke":"#ff0000","ID":"4-23","REMARKS":"POLYGON ID-4"}},
{"type":"Feature","geometry":{"type":"Polygon","coordinates":[[[88.3174897353253,22.5429985975173],[88.3173797917712,22.5430487935914],[88.3173455626708,22.5429860407142],[88.3174555069707,22.542935846096],[88.3174897353253,22.5429985975173]]]},"properties": {
    "floor": "ground","fill-opacity":0,"stroke-opacity":1,"stroke":"#ff0000","ID":"4-20","REMARKS":"POLYGON ID-4"}},
{"type":"Feature","geometry":{"type":"Polygon","coordinates":[[[88.3174555069707,22.542935846096],[88.3173455626708,22.5429860407142],[88.3173113398115,22.5429232992109],[88.317421283296,22.5428731031863],[88.3174555069707,22.542935846096]]]},"properties": {
    "floor": "ground","fill-opacity":0,"stroke-opacity":1,"stroke":"#ff0000","ID":"4-21","REMARKS":"POLYGON ID-4"}},
{"type":"Feature","geometry":{"type":"Polygon","coordinates":[[[88.3175581874832,22.5431240918113],[88.3174482438595,22.543174287935],[88.3174140177993,22.5431115407678],[88.3175239613882,22.5430613446689],[88.3175581874832,22.5431240918113]]]},"properties": {
    "floor": "ground","fill-opacity":0,"stroke-opacity":1,"stroke":"#ff0000","ID":"4-18","REMARKS":"POLYGON ID-4"}},
{"type":"Feature","geometry":{"type":"Polygon","coordinates":[[[88.3175239613882,22.5430613446689],[88.3174140177993,22.5431115407678],[88.3173797917712,22.5430487935914],[88.3174897353253,22.5429985975173],[88.3175239613882,22.5430613446689]]]},"properties": {
    "floor": "ground","fill-opacity":0,"stroke-opacity":1,"stroke":"#ff0000","ID":"4-19","REMARKS":"POLYGON ID-4"}},
{"type":"Feature","geometry":{"type":"Polygon","coordinates":[[[88.3176266397695,22.5432495860683],[88.3175166960763,22.5432997822416],[88.3174824699519,22.5432370350929],[88.3175924136103,22.5431868389444],[88.3176266397695,22.5432495860683]]]},"properties": {
    "floor": "ground","fill-opacity":0,"stroke-opacity":1,"stroke":"#ff0000","ID":"4-16","REMARKS":"POLYGON ID-4"}},
{"type":"Feature","geometry":{"type":"Polygon","coordinates":[[[88.3175924136103,22.5431868389444],[88.3174824699519,22.5432370350929],[88.3174482438595,22.543174287935],[88.3175581874832,22.5431240918113],[88.3175924136103,22.5431868389444]]]},"properties": {
    "floor": "ground","fill-opacity":0,"stroke-opacity":1,"stroke":"#ff0000","ID":"4-17","REMARKS":"POLYGON ID-4"}},
{"type":"Feature","geometry":{"type":"Polygon","coordinates":[[[88.3176658377655,22.5433214480212],[88.3175509222329,22.5433625293811],[88.3175166960763,22.5432997822416],[88.3176266397695,22.5432495860683],[88.3176658377655,22.5433214480212]]]},"properties": {
    "floor": "ground","fill-opacity":0,"stroke-opacity":1,"stroke":"#ff0000","ID":"4-15","REMARKS":"POLYGON ID-4"}},
{"type":"Feature","geometry":{"type":"Polygon","coordinates":[[[88.3172159279788,22.5424966199718],[88.3172501537847,22.5425593671973],[88.3171402104741,22.5426095630979],[88.317105984703,22.5425468158476],[88.3172159279788,22.5424966199718]]]},"properties": {
    "floor": "ground","fill-opacity":0,"stroke-opacity":1,"stroke":"#ff0000","ID":"4-27","REMARKS":"POLYGON ID-4"}},
{"type":"Feature","geometry":{"type":"Polygon","coordinates":[[[88.3175509457253,22.5423436630653],[88.3175843462743,22.5424067870472],[88.3174700401578,22.5424589751812],[88.3174358142823,22.5423962280053],[88.3175509457253,22.5423436630653]]]},"properties": {
    "floor": "ground","fill-opacity":0,"stroke-opacity":1,"stroke":"#ff0000","ID":"4-69","REMARKS":"POLYGON ID-4"}},
{"type":"Feature","geometry":{"type":"Polygon","coordinates":[[[88.3174700401578,22.5424589751812],[88.3175843462743,22.5424067870472],[88.317617746855,22.5424699110202],[88.3175042660654,22.5425217223479],[88.3174700401578,22.5424589751812]]]},"properties": {
    "floor": "ground","fill-opacity":0,"stroke-opacity":1,"stroke":"#ff0000","ID":"4-68","REMARKS":"POLYGON ID-4"}},
{"type":"Feature","geometry":{"type":"Polygon","coordinates":[[[88.3175384920051,22.5425844695053],[88.3176511474672,22.5425330349843],[88.317684548111,22.5425961589396],[88.3175727179769,22.5426472166535],[88.3175384920051,22.5425844695053]]]},"properties": {
    "floor": "ground","fill-opacity":0,"stroke-opacity":1,"stroke":"#ff0000","ID":"4-66","REMARKS":"POLYGON ID-4"}},
{"type":"Feature","geometry":{"type":"Polygon","coordinates":[[[88.3175042660654,22.5425217223479],[88.317617746855,22.5424699110202],[88.3176511474672,22.5425330349843],[88.3175384920051,22.5425844695053],[88.3175042660654,22.5425217223479]]]},"properties": {
    "floor": "ground","fill-opacity":0,"stroke-opacity":1,"stroke":"#ff0000","ID":"4-67","REMARKS":"POLYGON ID-4"}},
{"type":"Feature","geometry":{"type":"Polygon","coordinates":[[[88.3176069439808,22.5427099637925],[88.3177179487865,22.542659282886],[88.3177513494935,22.5427224068235],[88.3176411700169,22.5427727109222],[88.3176069439808,22.5427099637925]]]},"properties": {
    "floor": "ground","fill-opacity":0,"stroke-opacity":1,"stroke":"#ff0000","ID":"4-64","REMARKS":"POLYGON ID-4"}},
{"type":"Feature","geometry":{"type":"Polygon","coordinates":[[[88.3175727179769,22.5426472166535],[88.317684548111,22.5425961589396],[88.3177179487865,22.542659282886],[88.3176069439808,22.5427099637925],[88.3175727179769,22.5426472166535]]]},"properties": {
    "floor": "ground","fill-opacity":0,"stroke-opacity":1,"stroke":"#ff0000","ID":"4-65","REMARKS":"POLYGON ID-4"}},
{"type":"Feature","geometry":{"type":"Polygon","coordinates":[[[88.3176753953225,22.5428354566447],[88.3177847502457,22.5427855307779],[88.3178181510023,22.542848654672],[88.3177096221854,22.5428982051539],[88.3176753953225,22.5428354566447]]]},"properties": {
    "floor": "ground","fill-opacity":0,"stroke-opacity":1,"stroke":"#ff0000","ID":"4-62","REMARKS":"POLYGON ID-4"}},
{"type":"Feature","geometry":{"type":"Polygon","coordinates":[[[88.3176411700169,22.5427727109222],[88.3177513494935,22.5427224068235],[88.3177847502457,22.5427855307779],[88.3176753953225,22.5428354566447],[88.3176411700169,22.5427727109222]]]},"properties": {
    "floor": "ground","fill-opacity":0,"stroke-opacity":1,"stroke":"#ff0000","ID":"4-63","REMARKS":"POLYGON ID-4"}},
{"type":"Feature","geometry":{"type":"Polygon","coordinates":[[[88.3177438483178,22.5429609522559],[88.3178515518041,22.5429117785829],[88.3178849526375,22.5429749024849],[88.3177780744823,22.5430236993487],[88.3177438483178,22.5429609522559]]]},"properties": {
    "floor": "ground","fill-opacity":0,"stroke-opacity":1,"stroke":"#ff0000","ID":"4-60","REMARKS":"POLYGON ID-4"}},
{"type":"Feature","geometry":{"type":"Polygon","coordinates":[[[88.3177096221854,22.5428982051539],[88.3178181510023,22.542848654672],[88.3178515518041,22.5429117785829],[88.3177438483178,22.5429609522559],[88.3177096221854,22.5428982051539]]]},"properties": {
    "floor": "ground","fill-opacity":0,"stroke-opacity":1,"stroke":"#ff0000","ID":"4-61","REMARKS":"POLYGON ID-4"}},
{"type":"Feature","geometry":{"type":"Polygon","coordinates":[[[88.317812300679,22.5430864464322],[88.3179183535025,22.5430380263781],[88.317951754399,22.5431011502624],[88.3178465269078,22.5431491935065],[88.317812300679,22.5430864464322]]]},"properties": {
    "floor": "ground","fill-opacity":0,"stroke-opacity":1,"stroke":"#ff0000","ID":"4-58","REMARKS":"POLYGON ID-4"}},
{"type":"Feature","geometry":{"type":"Polygon","coordinates":[[[88.3177780744823,22.5430236993487],[88.3178849526375,22.5429749024849],[88.3179183535025,22.5430380263781],[88.317812300679,22.5430864464322],[88.3177780744823,22.5430236993487]]]},"properties": {
    "floor": "ground","fill-opacity":0,"stroke-opacity":1,"stroke":"#ff0000","ID":"4-59","REMARKS":"POLYGON ID-4"}},
{"type":"Feature","geometry":{"type":"Polygon","coordinates":[[[88.3178465269078,22.5431491935065],[88.317951754399,22.5431011502624],[88.3180042976087,22.5432004507959],[88.3178956686149,22.5432392850642],[88.3178465269078,22.5431491935065]]]},"properties": {
    "floor": "ground","fill-opacity":0,"stroke-opacity":1,"stroke":"#ff0000","ID":"4-57","REMARKS":"POLYGON ID-4"}},
{"type":"Feature","geometry":{"type":"Polygon","coordinates":[[[88.3174358142823,22.5423962280053],[88.3174700401578,22.5424589751812],[88.3173600970126,22.5425091712251],[88.3173258711719,22.5424464240244],[88.3174358142823,22.5423962280053]]]},"properties": {
    "floor": "ground","fill-opacity":0,"stroke-opacity":1,"stroke":"#ff0000","ID":"4-55","REMARKS":"POLYGON ID-4"}},
{"type":"Feature","geometry":{"type":"Polygon","coordinates":[[[88.3175042660654,22.5425217223479],[88.3173943228854,22.5425719184166],[88.3173600970126,22.5425091712251],[88.3174700401578,22.5424589751812],[88.3175042660654,22.5425217223479]]]},"properties": {
    "floor": "ground","fill-opacity":0,"stroke-opacity":1,"stroke":"#ff0000","ID":"4-54","REMARKS":"POLYGON ID-4"}},
{"type":"Feature","geometry":{"type":"Polygon","coordinates":[[[88.3175727179769,22.5426472166535],[88.3174627747273,22.5426974127718],[88.3174285487903,22.5426346655988],[88.3175384920051,22.5425844695053],[88.3175727179769,22.5426472166535]]]},"properties": {
    "floor": "ground","fill-opacity":0,"stroke-opacity":1,"stroke":"#ff0000","ID":"4-52","REMARKS":"POLYGON ID-4"}},
{"type":"Feature","geometry":{"type":"Polygon","coordinates":[[[88.3175384920051,22.5425844695053],[88.3174285487903,22.5426346655988],[88.3173943228854,22.5425719184166],[88.3175042660654,22.5425217223479],[88.3175384920051,22.5425844695053]]]},"properties": {
    "floor": "ground","fill-opacity":0,"stroke-opacity":1,"stroke":"#ff0000","ID":"4-53","REMARKS":"POLYGON ID-4"}},
{"type":"Feature","geometry":{"type":"Polygon","coordinates":[[[88.3176411700169,22.5427727109222],[88.3175312266978,22.5428229070901],[88.3174970006965,22.5427601599356],[88.3176069439808,22.5427099637925],[88.3176411700169,22.5427727109222]]]},"properties": {
    "floor": "ground","fill-opacity":0,"stroke-opacity":1,"stroke":"#ff0000","ID":"4-50","REMARKS":"POLYGON ID-4"}},
{"type":"Feature","geometry":{"type":"Polygon","coordinates":[[[88.3176069439808,22.5427099637925],[88.3174970006965,22.5427601599356],[88.3174627747273,22.5426974127718],[88.3175727179769,22.5426472166535],[88.3176069439808,22.5427099637925]]]},"properties": {
    "floor": "ground","fill-opacity":0,"stroke-opacity":1,"stroke":"#ff0000","ID":"4-51","REMARKS":"POLYGON ID-4"}},
{"type":"Feature","geometry":{"type":"Polygon","coordinates":[[[88.3177096221854,22.5428982051539],[88.3175996787967,22.5429484013714],[88.317565451188,22.5428856514062],[88.3176753953225,22.5428354566447],[88.3177096221854,22.5428982051539]]]},"properties": {
    "floor": "ground","fill-opacity":0,"stroke-opacity":1,"stroke":"#ff0000","ID":"4-48","REMARKS":"POLYGON ID-4"}},
{"type":"Feature","geometry":{"type":"Polygon","coordinates":[[[88.3176753953225,22.5428354566447],[88.317565451188,22.5428856514062],[88.3175312266978,22.5428229070901],[88.3176411700169,22.5427727109222],[88.3176753953225,22.5428354566447]]]},"properties": {
    "floor": "ground","fill-opacity":0,"stroke-opacity":1,"stroke":"#ff0000","ID":"4-49","REMARKS":"POLYGON ID-4"}},
{"type":"Feature","geometry":{"type":"Polygon","coordinates":[[[88.3177780744823,22.5430236993487],[88.3176681310241,22.5430738956158],[88.3176339048944,22.5430111484982],[88.3177438483178,22.5429609522559],[88.3177780744823,22.5430236993487]]]},"properties": {
    "floor": "ground","fill-opacity":0,"stroke-opacity":1,"stroke":"#ff0000","ID":"4-46","REMARKS":"POLYGON ID-4"}},
{"type":"Feature","geometry":{"type":"Polygon","coordinates":[[[88.3177438483178,22.5429609522559],[88.3176339048944,22.5430111484982],[88.3175996787967,22.5429484013714],[88.3177096221854,22.5428982051539],[88.3177438483178,22.5429609522559]]]},"properties": {
    "floor": "ground","fill-opacity":0,"stroke-opacity":1,"stroke":"#ff0000","ID":"4-47","REMARKS":"POLYGON ID-4"}},
{"type":"Feature","geometry":{"type":"Polygon","coordinates":[[[88.3178465269078,22.5431491935065],[88.31773658338,22.5431993898232],[88.317702357186,22.5431366427241],[88.317812300679,22.5430864464322],[88.3178465269078,22.5431491935065]]]},"properties": {
    "floor": "ground","fill-opacity":0,"stroke-opacity":1,"stroke":"#ff0000","ID":"4-44","REMARKS":"POLYGON ID-4"}},
{"type":"Feature","geometry":{"type":"Polygon","coordinates":[[[88.317812300679,22.5430864464322],[88.317702357186,22.5431366427241],[88.3176681310241,22.5430738956158],[88.3177780744823,22.5430236993487],[88.317812300679,22.5430864464322]]]},"properties": {
    "floor": "ground","fill-opacity":0,"stroke-opacity":1,"stroke":"#ff0000","ID":"4-45","REMARKS":"POLYGON ID-4"}},
{"type":"Feature","geometry":{"type":"Polygon","coordinates":[[[88.3178956686149,22.5432392850642],[88.3177807532261,22.5432803665822],[88.31773658338,22.5431993898232],[88.3178465269078,22.5431491935065],[88.3178956686149,22.5432392850642]]]},"properties": {
    "floor": "ground","fill-opacity":0,"stroke-opacity":1,"stroke":"#ff0000","ID":"4-43","REMARKS":"POLYGON ID-4"}},
{"type":"Feature","geometry":{"type":"Polygon","coordinates":[[[88.3174136577079,22.543346825603],[88.3175148647916,22.5433006183367],[88.3175166960763,22.5432997822416],[88.3175509222329,22.5433625293811],[88.3175488345848,22.5433632756972],[88.3174442535024,22.5434006624831],[88.3174136577079,22.543346825603]]]},"properties": {
    "floor": "ground","fill-opacity":0,"stroke-opacity":1,"stroke":"#ff0000","ID":"4-1","REMARKS":"POLYGON ID-4"}},
{"type":"Feature","geometry":{"type":"Polygon","coordinates":[[[88.3173782934874,22.5432845980562],[88.3174808051481,22.543237795179],[88.3174824699519,22.5432370350929],[88.3175166960763,22.5432997822416],[88.3175148647916,22.5433006183367],[88.3174136577079,22.543346825603],[88.3173782934874,22.5432845980562]]]},"properties": {
    "floor": "ground","fill-opacity":0,"stroke-opacity":1,"stroke":"#ff0000","ID":"4-2","REMARKS":"POLYGON ID-4"}},
{"type":"Feature","geometry":{"type":"Polygon","coordinates":[[[88.3173429292997,22.5432223704997],[88.3174467455366,22.5431749720122],[88.3174482438595,22.543174287935],[88.3174824699519,22.5432370350929],[88.3174808051481,22.543237795179],[88.3173782934874,22.5432845980562],[88.3173429292997,22.5432223704997]]]},"properties": {
    "floor": "ground","fill-opacity":0,"stroke-opacity":1,"stroke":"#ff0000","ID":"4-3","REMARKS":"POLYGON ID-4"}},
{"type":"Feature","geometry":{"type":"Polygon","coordinates":[[[88.3172159279788,22.5424966199718],[88.3171816966754,22.5424338625995],[88.3172916343042,22.5423836565393],[88.3173258711719,22.5424464240244],[88.3172159279788,22.5424966199718]]]},"properties": {
    "floor": "ground","fill-opacity":0,"stroke-opacity":1,"stroke":"#ff0000","ID":"4-42","REMARKS":"POLYGON ID-4"}},
{"type":"Feature","geometry":{"type":"Polygon","coordinates":[[[88.317105984703,22.5425468158476],[88.317071758964,22.542484068588],[88.3171816966754,22.5424338625995],[88.3172159279788,22.5424966199718],[88.317105984703,22.5425468158476]]]},"properties": {
    "floor": "ground","fill-opacity":0,"stroke-opacity":1,"stroke":"#ff0000","ID":"4-28","REMARKS":"POLYGON ID-4"}},
{"type":"Feature","geometry":{"type":"Polygon","coordinates":[[[88.3174358142823,22.5423962280053],[88.3174015718502,22.5423334504075],[88.3175175233277,22.5422804977229],[88.3175509457253,22.5423436630653],[88.3174358142823,22.5423962280053]]]},"properties": {
    "floor": "ground","fill-opacity":0,"stroke-opacity":1,"stroke":"#ff0000","ID":"4-70","REMARKS":"POLYGON ID-4"}},
{"type":"Feature","geometry":{"type":"Polygon","coordinates":[[[88.3173258711719,22.5424464240244],[88.3172916343042,22.5423836565393],[88.3174015718502,22.5423334504075],[88.3174358142823,22.5423962280053],[88.3173258711719,22.5424464240244]]]},"properties": {
    "floor": "ground","fill-opacity":0,"stroke-opacity":1,"stroke":"#ff0000","ID":"4-56","REMARKS":"POLYGON ID-4"}},
{"type":"Feature","geometry":{"type":"Polygon","coordinates":[[[88.3171744362773,22.542672310339],[88.3171742697974,22.5426723863473],[88.3170600169802,22.5427245496965],[88.317024653088,22.5426623220521],[88.3171402104741,22.5426095630979],[88.3171744362773,22.542672310339]]]},"properties": {
    "floor": "ground","fill-opacity":0,"stroke-opacity":1,"stroke":"#ff0000","ID":"4-12","REMARKS":"POLYGON ID-4"}},
{"type":"Feature","geometry":{"type":"Polygon","coordinates":[[[88.3170600169802,22.5427245496965],[88.3171742697974,22.5426723863473],[88.3171744362773,22.542672310339],[88.3172086621127,22.5427350575708],[88.3172083291528,22.5427352095874],[88.3170953809052,22.542786777331],[88.3170600169802,22.5427245496965]]]},"properties": {
    "floor": "ground","fill-opacity":0,"stroke-opacity":1,"stroke":"#ff0000","ID":"4-11","REMARKS":"POLYGON ID-4"}},
{"type":"Feature","geometry":{"type":"Polygon","coordinates":[[[88.3171661088538,22.5429112325709],[88.3172764479595,22.5428608560403],[88.3172771138797,22.5428605520068],[88.3173113398115,22.5429232992109],[88.3173105074109,22.542923679253],[88.3172014728773,22.5429734601762],[88.3171661088538,22.5429112325709]]]},"properties": {
    "floor": "ground","fill-opacity":0,"stroke-opacity":1,"stroke":"#ff0000","ID":"4-8","REMARKS":"POLYGON ID-4"}},
{"type":"Feature","geometry":{"type":"Polygon","coordinates":[[[88.3171307448631,22.5428490049559],[88.3172423885401,22.5427980328185],[88.3172428879801,22.5427978047934],[88.3172771138797,22.5428605520068],[88.3172764479595,22.5428608560403],[88.3171661088538,22.5429112325709],[88.3171307448631,22.5428490049559]]]},"properties": {
    "floor": "ground","fill-opacity":0,"stroke-opacity":1,"stroke":"#ff0000","ID":"4-9","REMARKS":"POLYGON ID-4"}},
{"type":"Feature","geometry":{"type":"Polygon","coordinates":[[[88.3172428879801,22.5427978047934],[88.3172423885401,22.5427980328185],[88.3171307448631,22.5428490049559],[88.3170953809052,22.542786777331],[88.3172083291528,22.5427352095874],[88.3172086621127,22.5427350575708],[88.3172428879801,22.5427978047934]]]},"properties": {
    "floor": "ground","fill-opacity":0,"stroke-opacity":1,"stroke":"#ff0000","ID":"4-10","REMARKS":"POLYGON ID-4"}},
{"type":"Feature","geometry":{"type":"Polygon","coordinates":[[[88.3172014728773,22.5429734601762],[88.3173105074109,22.542923679253],[88.3173113398115,22.5429232992109],[88.3173455626708,22.5429860407142],[88.3173445637978,22.542986496745],[88.3172368329282,22.5430356807236],[88.3172014728773,22.5429734601762]]]},"properties": {
    "floor": "ground","fill-opacity":0,"stroke-opacity":1,"stroke":"#ff0000","ID":"4-7","REMARKS":"POLYGON ID-4"}},
{"type":"Feature","geometry":{"type":"Polygon","coordinates":[[[88.3172368329282,22.5430356807236],[88.3173445637978,22.542986496745],[88.3173455626708,22.5429860407142],[88.3173797917712,22.5430487935914],[88.3173786264097,22.5430493256509],[88.3172722010228,22.5430979153575],[88.3172368329282,22.5430356807236]]]},"properties": {
    "floor": "ground","fill-opacity":0,"stroke-opacity":1,"stroke":"#ff0000","ID":"4-6","REMARKS":"POLYGON ID-4"}},
{"type":"Feature","geometry":{"type":"Polygon","coordinates":[[[88.3172722010228,22.5430979153575],[88.3173786264097,22.5430493256509],[88.3173797917712,22.5430487935914],[88.3174140177993,22.5431115407678],[88.3174126859572,22.5431121488361],[88.3173075651448,22.5431601429335],[88.3172722010228,22.5430979153575]]]},"properties": {
    "floor": "ground","fill-opacity":0,"stroke-opacity":1,"stroke":"#ff0000","ID":"4-5","REMARKS":"POLYGON ID-4"}},
{"type":"Feature","geometry":{"type":"Polygon","coordinates":[[[88.3173075651448,22.5431601429335],[88.3174126859572,22.5431121488361],[88.3174140177993,22.5431115407678],[88.3174482438595,22.543174287935],[88.3174467455366,22.5431749720122],[88.3173429292997,22.5432223704997],[88.3173075651448,22.5431601429335]]]},"properties": {
    "floor": "ground","fill-opacity":0,"stroke-opacity":1,"stroke":"#ff0000","ID":"4-4","REMARKS":"POLYGON ID-4"}}
]}