{
    "type": "FeatureCollection",
    "features": [
        {
            "type": "Feature",
            "geometry": {
                "type": "Polygon",
                "coordinates": [
                    [
                        [88.3166252360298, 22.5395668566829],
                        [88.3165710972785, 22.5394722301122],
                        [88.3164572439159, 22.5395315927956],
                        [88.3165111873973, 22.5396253772594],
                        [88.3166252360298, 22.5395668566829]
                    ]
                ]
            },
            "properties": {
    "floor": "ground",
                "fill-opacity": 0,
                "stroke-opacity": 1,
                "stroke": "#ff0000",
                "ID": "NTW-B5-H2",
                "REMARKS": "POLYGON-69"
            },
            "id": "p69.1"
        },
        {
            "type": "Feature",
            "geometry": {
                "type": "Polygon",
                "coordinates": [
                    [
                        [88.3168257417003, 22.5399173110902],
                        [88.3167717424294, 22.5398229283106],
                        [88.3166627036057, 22.5398789754556],
                        [88.3166784665203, 22.5399049166614],
                        [88.3167116166202, 22.5399743171173],
                        [88.3168257417003, 22.5399173110902]
                    ]
                ]
            },
            "properties": {
    "floor": "ground",
                "fill-opacity": 0,
                "stroke-opacity": 1,
                "stroke": "#ff0000",
                "ID": "NTW-B1-H2",
                "REMARKS": "POLYGON-69"
            },
            "id": "p69.2"
        },
        {
            "type": "Feature",
            "geometry": {
                "type": "Polygon",
                "coordinates": [
                    [
                        [88.3167717424294, 22.5398229283106],
                        [88.3167215289213, 22.5397351624875],
                        [88.3166098862644, 22.5397920533635],
                        [88.3166627036057, 22.5398789754556],
                        [88.3167717424294, 22.5398229283106]
                    ]
                ]
            },
            "properties": {
    "floor": "ground",
                "fill-opacity": 0,
                "stroke-opacity": 1,
                "stroke": "#ff0000",
                "ID": "NTW-B2-H2",
                "REMARKS": "POLYGON-69"
            },
            "id": "p69.3"
        },
        {
            "type": "Feature",
            "geometry": {
                "type": "Polygon",
                "coordinates": [
                    [
                        [88.3167215289213, 22.5397351624875],
                        [88.3166711337012, 22.5396470790586],
                        [88.3165582289435, 22.5397070403301],
                        [88.3166098862644, 22.5397920533635],
                        [88.3167215289213, 22.5397351624875]
                    ]
                ]
            },
            "properties": {
    "floor": "ground",
                "fill-opacity": 0,
                "stroke-opacity": 1,
                "stroke": "#ff0000",
                "ID": "NTW-B3-H2",
                "REMARKS": "POLYGON-69"
            },
            "id": "p69.4"
        },
        {
            "type": "Feature",
            "geometry": {
                "type": "Polygon",
                "coordinates": [
                    [
                        [88.3166711337012, 22.5396470790586],
                        [88.3166252360298, 22.5395668566829],
                        [88.3165111873973, 22.5396253772594],
                        [88.3165569161542, 22.5397048798579],
                        [88.3165582289435, 22.5397070403301],
                        [88.3166711337012, 22.5396470790586]
                    ]
                ]
            },
            "properties": {
    "floor": "ground",
                "fill-opacity": 0,
                "stroke-opacity": 1,
                "stroke": "#ff0000",
                "ID": "NTW-B4-H2",
                "REMARKS": "POLYGON-69"
            },
            "id": "p69.5"
        },
        {
            "type": "Feature",
            "geometry": {
                "type": "Polygon",
                "coordinates": [
                    [
                        [88.3165710972785, 22.5394722301122],
                        [88.3165246456317, 22.539391039469 ],
                        [88.3164243157547, 22.5394354420727],
                        [88.3164442058146, 22.5395089251572],
                        [88.3164572439159, 22.5395315927956],
                        [88.3165710972785, 22.5394722301122]
                    ]
                ]
            },
            "properties": {
    "floor": "ground",
                "fill-opacity": 0,
                "stroke-opacity": 1,
                "stroke": "#ff0000",
                "ID": "NTW-B6-H2",
                "REMARKS": "POLYGON-69"
            },
            "id": "p69.6"
        },
        {
            "type": "Feature",
            "geometry": {
                "type": "Polygon",
                "coordinates": [
                    [
                        [88.3165710972785, 22.5394722301122],
                        [88.3166252360298, 22.5395668566829],
                        [88.3167312261812, 22.5395124710701],
                        [88.3166778223381, 22.5394165840972],
                        [88.3165710972785, 22.5394722301122]
                    ]
                ]
            },
            "properties": {
    "floor": "ground",
                "fill-opacity": 0,
                "stroke-opacity": 1,
                "stroke": "#ff0000",
                "ID": "NTW-B5-H1",
                "REMARKS": "POLYGON-69"
            },
            "id": "p69.7"
        },
        {
            "type": "Feature",
            "geometry": {
                "type": "Polygon",
                "coordinates": [
                    [
                        [88.3167717424294, 22.5398229283106],
                        [88.3168257417003, 22.5399173110902],
                        [88.3169281972726, 22.5398661340384],
                        [88.3168746686877, 22.5397700230909],
                        [88.3167717424294, 22.5398229283106]
                    ]
                ]
            },
            "properties": {
    "floor": "ground",
                "fill-opacity": 0,
                "stroke-opacity": 1,
                "stroke": "#ff0000",
                "ID": "NTW-B1-H1",
                "REMARKS": "POLYGON-69"
            },
            "id": "p69.8"
        },
        {
            "type": "Feature",
            "geometry": {
                "type": "Polygon",
                "coordinates": [
                    [
                        [88.3167215289213, 22.5397351624875],
                        [88.3167717424294, 22.5398229283106],
                        [88.3168746686877, 22.5397700230909],
                        [88.3168256911103, 22.539682083509 ],
                        [88.3167215289213, 22.5397351624875]
                    ]
                ]
            },
            "properties": {
    "floor": "ground",
                "fill-opacity": 0,
                "stroke-opacity": 1,
                "stroke": "#ff0000",
                "ID": "NTW-B2-H1",
                "REMARKS": "POLYGON-69"
            },
            "id": "p69.9"
        },
        {
            "type": "Feature",
            "geometry": {
                "type": "Polygon",
                "coordinates": [
                    [
                        [88.3166711337012, 22.5396470790586],
                        [88.3167215289213, 22.5397351624875],
                        [88.3168256911103, 22.539682083509 ],
                        [88.3167753656216, 22.5395917237431],
                        [88.3166711337012, 22.5396470790586]
                    ]
                ]
            },
            "properties": {
    "floor": "ground",
                "fill-opacity": 0,
                "stroke-opacity": 1,
                "stroke": "#ff0000",
                "ID": "NTW-B3-H1",
                "REMARKS": "POLYGON-69"
            },
            "id": "p69.10"
        },
        {
            "type": "Feature",
            "geometry": {
                "type": "Polygon",
                "coordinates": [
                    [
                        [88.3166252360298, 22.5395668566829],
                        [88.3166711337012, 22.5396470790586],
                        [88.3167753656216, 22.5395917237431],
                        [88.3167312261812, 22.5395124710701],
                        [88.3166252360298, 22.5395668566829]
                    ]
                ]
            },
            "properties": {
    "floor": "ground",
                "fill-opacity": 0,
                "stroke-opacity": 1,
                "stroke": "#ff0000",
                "ID": "NTW-B4-H1",
                "REMARKS": "POLYGON-69"
            },
            "id": "p69.11"
        },
        {
            "type": "Feature",
            "geometry": {
                "type": "Polygon",
                "coordinates": [
                    [
                        [88.3165246456317, 22.539391039469 ],
                        [88.3165710972785, 22.5394722301122],
                        [88.3166778223381, 22.5394165840972],
                        [88.3166519464404, 22.5393701237426],
                        [88.3166364763938, 22.5393415469634],
                        [88.3165246456317, 22.539391039469 ]
                    ]
                ]
            },
            "properties": {
    "floor": "ground",
                "fill-opacity": 0,
                "stroke-opacity": 1,
                "stroke": "#ff0000",
                "ID": "NTW-B6-H1",
                "REMARKS": "POLYGON-69"
            },
            "id": "p69.12"
        }
    ]
}
