{"type":"FeatureCollection", "features": [
{"type":"Feature","geometry":{"type":"Polygon","coordinates":[[[88.3182548561688,22.5427020413909],[88.3182561761445,22.5427648344786],[88.3181313237575,22.5428140565157],[88.3181068112462,22.5427604069037],[88.3182433384375,22.5427065821698],[88.3182548561688,22.5427020413909]]]},"properties": {
    "floor": "ground","fill-opacity":0,"stroke-opacity":1,"stroke":"#ff0000","ID":"5-17","REMARKS":"POLYGON ID-5"}},
{"type":"Feature","geometry":{"type":"Polygon","coordinates":[[[88.3182293740017,22.5430286549137],[88.318250025523,22.5430738539207],[88.3182483123534,22.5431008804472],[88.3181173504855,22.5431361104826],[88.3180928464944,22.5430824796491],[88.3182293740017,22.5430286549137]]]},"properties": {
    "floor": "ground","fill-opacity":0,"stroke-opacity":1,"stroke":"#ff0000","ID":"5-1","REMARKS":"POLYGON ID-5"}},
{"type":"Feature","geometry":{"type":"Polygon","coordinates":[[[88.3181803488398,22.5429213557246],[88.3182048614108,22.5429750053217],[88.3180683339445,22.5430288300345],[88.3180438214145,22.542975180415],[88.3181803488398,22.5429213557246]]]},"properties": {
    "floor": "ground","fill-opacity":0,"stroke-opacity":1,"stroke":"#ff0000","ID":"5-3","REMARKS":"POLYGON ID-5"}},
{"type":"Feature","geometry":{"type":"Polygon","coordinates":[[[88.3182048614108,22.5429750053217],[88.3182293740017,22.5430286549137],[88.3180928464944,22.5430824796491],[88.3180683339445,22.5430288300345],[88.3182048614108,22.5429750053217]]]},"properties": {
    "floor": "ground","fill-opacity":0,"stroke-opacity":1,"stroke":"#ff0000","ID":"5-2","REMARKS":"POLYGON ID-5"}},
{"type":"Feature","geometry":{"type":"Polygon","coordinates":[[[88.3181068112462,22.5427604069037],[88.3181313237575,22.5428140565157],[88.3179947964141,22.5428678811609],[88.3179702839438,22.5428142315264],[88.3181068112462,22.5427604069037]]]},"properties": {
    "floor": "ground","fill-opacity":0,"stroke-opacity":1,"stroke":"#ff0000","ID":"5-6","REMARKS":"POLYGON ID-5"}},
{"type":"Feature","geometry":{"type":"Polygon","coordinates":[[[88.3181558362887,22.5428677061227],[88.3181639296121,22.5428854196487],[88.3181803488398,22.5429213557246],[88.3180438214145,22.542975180415],[88.3180193089043,22.5429215307904],[88.3181558362887,22.5428677061227]]]},"properties": {
    "floor": "ground","fill-opacity":0,"stroke-opacity":1,"stroke":"#ff0000","ID":"5-4","REMARKS":"POLYGON ID-5"}},
{"type":"Feature","geometry":{"type":"Polygon","coordinates":[[[88.318257999658,22.5428515813497],[88.3182595226142,22.5429240301272],[88.318250025523,22.5430738539207],[88.3182293740017,22.5430286549137],[88.3182048614108,22.5429750053217],[88.3181803488398,22.5429213557246],[88.3181639296121,22.5428854196487],[88.318257999658,22.5428515813497]]]},"properties": {
    "floor": "ground","fill-opacity":0,"stroke-opacity":1,"stroke":"#ff0000","ID":"5-15","REMARKS":"POLYGON ID-5"}},
{"type":"Feature","geometry":{"type":"Polygon","coordinates":[[[88.3181313237575,22.5428140565157],[88.3181558362887,22.5428677061227],[88.3180193089043,22.5429215307904],[88.3179947964141,22.5428678811609],[88.3181313237575,22.5428140565157]]]},"properties": {
    "floor": "ground","fill-opacity":0,"stroke-opacity":1,"stroke":"#ff0000","ID":"5-5","REMARKS":"POLYGON ID-5"}},
{"type":"Feature","geometry":{"type":"Polygon","coordinates":[[[88.3179352242242,22.5423848594801],[88.317910317495,22.5423303466632],[88.3180464499801,22.5422756589453],[88.3180717511287,22.5423310349039],[88.3179352242242,22.5423848594801]]]},"properties": {
    "floor": "ground","fill-opacity":0,"stroke-opacity":1,"stroke":"#ff0000","ID":"5-25","REMARKS":"POLYGON ID-5"}},
{"type":"Feature","geometry":{"type":"Polygon","coordinates":[[[88.3177986972086,22.5424386839451],[88.3177741848974,22.5423850342707],[88.317910317495,22.5423303466632],[88.3179352242242,22.5423848594801],[88.3177986972086,22.5424386839451]]]},"properties": {
    "floor": "ground","fill-opacity":0,"stroke-opacity":1,"stroke":"#ff0000","ID":"5-14","REMARKS":"POLYGON ID-5"}},
{"type":"Feature","geometry":{"type":"Polygon","coordinates":[[[88.3181639296121,22.5428854196487],[88.3181558362887,22.5428677061227],[88.3181313237575,22.5428140565157],[88.3182561761445,22.5427648344786],[88.318257999658,22.5428515813497],[88.3181639296121,22.5428854196487]]]},"properties": {
    "floor": "ground","fill-opacity":0,"stroke-opacity":1,"stroke":"#ff0000","ID":"5-16","REMARKS":"POLYGON ID-5"}},
{"type":"Feature","geometry":{"type":"Polygon","coordinates":[[[88.3180717511287,22.5423310349039],[88.3180464499801,22.5422756589453],[88.3181825823527,22.542220971117],[88.3181984218323,22.5422810959128],[88.3180717511287,22.5423310349039]]]},"properties": {
    "floor": "ground","fill-opacity":0,"stroke-opacity":1,"stroke":"#ff0000","ID":"5-30","REMARKS":"POLYGON ID-5"}},
{"type":"Feature","geometry":{"type":"Polygon","coordinates":[[[88.3180087614,22.5425458084058],[88.3179842489882,22.5424921587689],[88.3181207759746,22.5424383341477],[88.3181384763361,22.5424770743626],[88.3181452884274,22.5424919837621],[88.3180087614,22.5425458084058]]]},"properties": {
    "floor": "ground","fill-opacity":0,"stroke-opacity":1,"stroke":"#ff0000","ID":"5-22","REMARKS":"POLYGON ID-5"}},
{"type":"Feature","geometry":{"type":"Polygon","coordinates":[[[88.3181384763361,22.5424770743626],[88.3181207759746,22.5424383341477],[88.3181030097934,22.5423994498498],[88.318218601089,22.5423576939037],[88.3182295935125,22.5423994197586],[88.3182356492622,22.5424451242805],[88.3181384763361,22.5424770743626]]]},"properties": {
    "floor": "ground","fill-opacity":0,"stroke-opacity":1,"stroke":"#ff0000","ID":"5-28","REMARKS":"POLYGON ID-5"}},
{"type":"Feature","geometry":{"type":"Polygon","coordinates":[[[88.3178722342614,22.5425996329385],[88.3178477218906,22.542545983279],[88.3179842489882,22.5424921587689],[88.3180087614,22.5425458084058],[88.3178722342614,22.5425996329385]]]},"properties": {
    "floor": "ground","fill-opacity":0,"stroke-opacity":1,"stroke":"#ff0000","ID":"5-11","REMARKS":"POLYGON ID-5"}},
{"type":"Feature","geometry":{"type":"Polygon","coordinates":[[[88.3179597365963,22.542438509127],[88.3179352242242,22.5423848594801],[88.3180717511287,22.5423310349039],[88.3180962635417,22.5423846845283],[88.3179597365963,22.542438509127]]]},"properties": {
    "floor": "ground","fill-opacity":0,"stroke-opacity":1,"stroke":"#ff0000","ID":"5-24","REMARKS":"POLYGON ID-5"}},
{"type":"Feature","geometry":{"type":"Polygon","coordinates":[[[88.3178232095396,22.5424923336145],[88.3177986972086,22.5424386839451],[88.3179352242242,22.5423848594801],[88.3179597365963,22.542438509127],[88.3178232095396,22.5424923336145]]]},"properties": {
    "floor": "ground","fill-opacity":0,"stroke-opacity":1,"stroke":"#ff0000","ID":"5-13","REMARKS":"POLYGON ID-5"}},
{"type":"Feature","geometry":{"type":"Polygon","coordinates":[[[88.3179842489882,22.5424921587689],[88.3179597365963,22.542438509127],[88.3180962635417,22.5423846845283],[88.3181030097934,22.5423994498498],[88.3181207759746,22.5424383341477],[88.3179842489882,22.5424921587689]]]},"properties": {
    "floor": "ground","fill-opacity":0,"stroke-opacity":1,"stroke":"#ff0000","ID":"5-23","REMARKS":"POLYGON ID-5"}},
{"type":"Feature","geometry":{"type":"Polygon","coordinates":[[[88.3178477218906,22.542545983279],[88.3178232095396,22.5424923336145],[88.3179597365963,22.542438509127],[88.3179842489882,22.5424921587689],[88.3178477218906,22.542545983279]]]},"properties": {
    "floor": "ground","fill-opacity":0,"stroke-opacity":1,"stroke":"#ff0000","ID":"5-12","REMARKS":"POLYGON ID-5"}},
{"type":"Feature","geometry":{"type":"Polygon","coordinates":[[[88.3180577862833,22.5426531076647],[88.3180332738317,22.5425994580378],[88.3181698009001,22.5425456333715],[88.3181745600545,22.542556049564],[88.3181943133927,22.5425992829759],[88.3180577862833,22.5426531076647]]]},"properties": {
    "floor": "ground","fill-opacity":0,"stroke-opacity":1,"stroke":"#ff0000","ID":"5-20","REMARKS":"POLYGON ID-5"}},
{"type":"Feature","geometry":{"type":"Polygon","coordinates":[[[88.3179212590628,22.5427069322424],[88.3178967466522,22.5426532825929],[88.3180332738317,22.5425994580378],[88.3180577862833,22.5426531076647],[88.3179212590628,22.5427069322424]]]},"properties": {
    "floor": "ground","fill-opacity":0,"stroke-opacity":1,"stroke":"#ff0000","ID":"5-9","REMARKS":"POLYGON ID-5"}},
{"type":"Feature","geometry":{"type":"Polygon","coordinates":[[[88.3180332738317,22.5425994580378],[88.3180087614,22.5425458084058],[88.3181452884274,22.5424919837621],[88.3181698009001,22.5425456333715],[88.3180332738317,22.5425994580378]]]},"properties": {
    "floor": "ground","fill-opacity":0,"stroke-opacity":1,"stroke":"#ff0000","ID":"5-21","REMARKS":"POLYGON ID-5"}},
{"type":"Feature","geometry":{"type":"Polygon","coordinates":[[[88.3178967466522,22.5426532825929],[88.3178722342614,22.5425996329385],[88.3180087614,22.5425458084058],[88.3180332738317,22.5425994580378],[88.3178967466522,22.5426532825929]]]},"properties": {
    "floor": "ground","fill-opacity":0,"stroke-opacity":1,"stroke":"#ff0000","ID":"5-10","REMARKS":"POLYGON ID-5"}},
{"type":"Feature","geometry":{"type":"Polygon","coordinates":[[[88.3182188259051,22.5426529325753],[88.3182433384375,22.5427065821698],[88.3181068112462,22.5427604069037],[88.3180822987548,22.5427067572867],[88.3182188259051,22.5426529325753]]]},"properties": {
    "floor": "ground","fill-opacity":0,"stroke-opacity":1,"stroke":"#ff0000","ID":"5-18","REMARKS":"POLYGON ID-5"}},
{"type":"Feature","geometry":{"type":"Polygon","coordinates":[[[88.3180822987548,22.5427067572867],[88.3181068112462,22.5427604069037],[88.3179702839438,22.5428142315264],[88.3179457714934,22.5427605818869],[88.3180822987548,22.5427067572867]]]},"properties": {
    "floor": "ground","fill-opacity":0,"stroke-opacity":1,"stroke":"#ff0000","ID":"5-7","REMARKS":"POLYGON ID-5"}},
{"type":"Feature","geometry":{"type":"Polygon","coordinates":[[[88.3180822987548,22.5427067572867],[88.3180577862833,22.5426531076647],[88.3181943133927,22.5425992829759],[88.3182188259051,22.5426529325753],[88.3180822987548,22.5427067572867]]]},"properties": {
    "floor": "ground","fill-opacity":0,"stroke-opacity":1,"stroke":"#ff0000","ID":"5-19","REMARKS":"POLYGON ID-5"}},
{"type":"Feature","geometry":{"type":"Polygon","coordinates":[[[88.3179457714934,22.5427605818869],[88.3179212590628,22.5427069322424],[88.3180577862833,22.5426531076647],[88.3180822987548,22.5427067572867],[88.3179457714934,22.5427605818869]]]},"properties": {
    "floor": "ground","fill-opacity":0,"stroke-opacity":1,"stroke":"#ff0000","ID":"5-8","REMARKS":"POLYGON ID-5"}},
{"type":"Feature","geometry":{"type":"Polygon","coordinates":[[[88.3181030097934,22.5423994498498],[88.3180962635417,22.5423846845283],[88.3180717511287,22.5423310349039],[88.3181984218323,22.5422810959128],[88.318218601089,22.5423576939037],[88.3181030097934,22.5423994498498]]]},"properties": {
    "floor": "ground","fill-opacity":0,"stroke-opacity":1,"stroke":"#ff0000","ID":"5-29","REMARKS":"POLYGON ID-5"}},
{"type":"Feature","geometry":{"type":"Polygon","coordinates":[[[88.318247467921,22.5425343230643],[88.3182520589371,22.5425689727327],[88.3182548561688,22.5427020413909],[88.3182433384375,22.5427065821698],[88.3182188259051,22.5426529325753],[88.3181943133927,22.5425992829759],[88.3181745600545,22.542556049564],[88.318247467921,22.5425343230643]]]},"properties": {
    "floor": "ground","fill-opacity":0,"stroke-opacity":1,"stroke":"#ff0000","ID":"5-26","REMARKS":"POLYGON ID-5"}},
{"type":"Feature","geometry":{"type":"Polygon","coordinates":[[[88.3181745600545,22.542556049564],[88.3181698009001,22.5425456333715],[88.3181452884274,22.5424919837621],[88.3181384763361,22.5424770743626],[88.3182356492622,22.5424451242805],[88.318247467921,22.5425343230643],[88.3181745600545,22.542556049564]]]},"properties": {
    "floor": "ground","fill-opacity":0,"stroke-opacity":1,"stroke":"#ff0000","ID":"5-27","REMARKS":"POLYGON ID-5"}}
]}