{"type":"FeatureCollection", "features": [
{"type":"Feature","geometry":{"type":"Polygon","coordinates":[[[88.316376182181,22.5406341052417],[88.3163458828717,22.5405797945946],[88.3164813329381,22.5405189819557],[88.3165117282528,22.5405732494889],[88.316376182181,22.5406341052417]]]},"properties": {
    "floor": "ground","fill-opacity":0,"stroke-opacity":1,"stroke":"#ff0000","ID":"12-13","REMARKS":"POLYGON ID-12"}},
{"type":"Feature","geometry":{"type":"Polygon","coordinates":[[[88.3163458828717,22.5405797945946],[88.3163183538885,22.5405304496335],[88.3164509376481,22.5404647144152],[88.3164813329381,22.5405189819557],[88.3163458828717,22.5405797945946]]]},"properties": {
    "floor": "ground","fill-opacity":0,"stroke-opacity":1,"stroke":"#ff0000","ID":"12-14","REMARKS":"POLYGON ID-12"}},
{"type":"Feature","geometry":{"type":"Polygon","coordinates":[[[88.3164367808732,22.5407427265141],[88.3164064815148,22.5406884158815],[88.3165421235921,22.540627517015],[88.3165725189561,22.5406817845338],[88.3164367808732,22.5407427265141]]]},"properties": {
    "floor": "ground","fill-opacity":0,"stroke-opacity":1,"stroke":"#ff0000","ID":"12-11","REMARKS":"POLYGON ID-12"}},
{"type":"Feature","geometry":{"type":"Polygon","coordinates":[[[88.3164064815148,22.5406884158815],[88.316376182181,22.5406341052417],[88.3165117282528,22.5405732494889],[88.3165421235921,22.540627517015],[88.3164064815148,22.5406884158815]]]},"properties": {
    "floor": "ground","fill-opacity":0,"stroke-opacity":1,"stroke":"#ff0000","ID":"12-12","REMARKS":"POLYGON ID-12"}},
{"type":"Feature","geometry":{"type":"Polygon","coordinates":[[[88.3164973796637,22.5408513477578],[88.3164670802561,22.5407970371396],[88.3166029143446,22.5407360520453],[88.3166333097578,22.5407903195496],[88.3164973796637,22.5408513477578]]]},"properties": {
    "floor": "ground","fill-opacity":0,"stroke-opacity":1,"stroke":"#ff0000","ID":"12-9","REMARKS":"POLYGON ID-12"}},
{"type":"Feature","geometry":{"type":"Polygon","coordinates":[[[88.3164670802561,22.5407970371396],[88.3164367808732,22.5407427265141],[88.3165725189561,22.5406817845338],[88.3166029143446,22.5407360520453],[88.3164670802561,22.5407970371396]]]},"properties": {
    "floor": "ground","fill-opacity":0,"stroke-opacity":1,"stroke":"#ff0000","ID":"12-10","REMARKS":"POLYGON ID-12"}},
{"type":"Feature","geometry":{"type":"Polygon","coordinates":[[[88.3165579785525,22.5409599689727],[88.3165276790958,22.5409056583689],[88.3166637051956,22.5408445870467],[88.3166941006581,22.5408988545366],[88.3165579785525,22.5409599689727]]]},"properties": {
    "floor": "ground","fill-opacity":0,"stroke-opacity":1,"stroke":"#ff0000","ID":"12-7","REMARKS":"POLYGON ID-12"}},
{"type":"Feature","geometry":{"type":"Polygon","coordinates":[[[88.3165276790958,22.5409056583689],[88.3164973796637,22.5408513477578],[88.3166333097578,22.5407903195496],[88.3166637051956,22.5408445870467],[88.3165276790958,22.5409056583689]]]},"properties": {
    "floor": "ground","fill-opacity":0,"stroke-opacity":1,"stroke":"#ff0000","ID":"12-8","REMARKS":"POLYGON ID-12"}},
{"type":"Feature","geometry":{"type":"Polygon","coordinates":[[[88.3166205157434,22.541072064306],[88.3165882780337,22.5410142795694],[88.3167244961452,22.5409531220192],[88.3167548916569,22.5410073894946],[88.316721327479,22.5410235338235],[88.3166205157434,22.541072064306]]]},"properties": {
    "floor": "ground","fill-opacity":0,"stroke-opacity":1,"stroke":"#ff0000","ID":"12-5","REMARKS":"POLYGON ID-12"}},
{"type":"Feature","geometry":{"type":"Polygon","coordinates":[[[88.3165882780337,22.5410142795694],[88.3165579785525,22.5409599689727],[88.3166941006581,22.5408988545366],[88.3167244961452,22.5409531220192],[88.3165882780337,22.5410142795694]]]},"properties": {
    "floor": "ground","fill-opacity":0,"stroke-opacity":1,"stroke":"#ff0000","ID":"12-6","REMARKS":"POLYGON ID-12"}},
{"type":"Feature","geometry":{"type":"Polygon","coordinates":[[[88.3166864688739,22.5411902823333],[88.3166624271931,22.5411471887272],[88.3167634995803,22.5411014121319],[88.3168020293488,22.5410839616282],[88.3168270331493,22.5411342466584],[88.3166864688739,22.5411902823333]]]},"properties": {
    "floor": "ground","fill-opacity":0,"stroke-opacity":1,"stroke":"#ff0000","ID":"12-3","REMARKS":"POLYGON ID-12"}},
{"type":"Feature","geometry":{"type":"Polygon","coordinates":[[[88.3166624271931,22.5411471887272],[88.3166205157434,22.541072064306],[88.316721327479,22.5410235338235],[88.3167634995803,22.5411014121319],[88.3166624271931,22.5411471887272]]]},"properties": {
    "floor": "ground","fill-opacity":0,"stroke-opacity":1,"stroke":"#ff0000","ID":"12-4","REMARKS":"POLYGON ID-12"}},
{"type":"Feature","geometry":{"type":"Polygon","coordinates":[[[88.3168508780759,22.5411822010425],[88.3168738497466,22.5412283991899],[88.3167406918732,22.5412874744448],[88.316715363333,22.5412420742783],[88.3168508780759,22.5411822010425]]]},"properties": {
    "floor": "ground","fill-opacity":0,"stroke-opacity":1,"stroke":"#ff0000","ID":"12-1","REMARKS":"POLYGON ID-12"}},
{"type":"Feature","geometry":{"type":"Polygon","coordinates":[[[88.316715363333,22.5412420742783],[88.3166864688739,22.5411902823333],[88.3168270331493,22.5411342466584],[88.3168508780759,22.5411822010425],[88.316715363333,22.5412420742783]]]},"properties": {
    "floor": "ground","fill-opacity":0,"stroke-opacity":1,"stroke":"#ff0000","ID":"12-2","REMARKS":"POLYGON ID-12"}}
]}