{
    "type": "FeatureCollection",
    "features": [
        {
            "type": "Feature",
            "geometry": {
                "type": "Polygon",
                "coordinates": [
                    [
                        [88.3151093765774, 22.5358226297999],
                        [88.3150901154351, 22.5357357380826],
                        [88.3149732490072, 22.5357633927946],
                        [88.3149937298013, 22.5358475535333],
                        [88.3151093765774, 22.5358226297999]
                    ]
                ]
            },
            "properties": {
    "floor": "ground",
                "fill-opacity": 0,
                "stroke-opacity": 1,
                "stroke": "#ff0000",
                "ID": "23PF-B11-H2",
                "REMARKS": "POLYGON-49"
            },
            "id": "p49.1"
        },
        {
            "type": "Feature",
            "geometry": {
                "type": "Polygon",
                "coordinates": [
                    [
                        [88.3152653931906, 22.5365264588477],
                        [88.3152479395777, 22.536447721337 ],
                        [88.3151312725243, 22.5364755298223],
                        [88.3151429873807, 22.5365422547967],
                        [88.3151429873807, 22.5365554128118],
                        [88.3152653931906, 22.5365264588477]
                    ]
                ]
            },
            "properties": {
    "floor": "ground",
                "fill-opacity": 0,
                "stroke-opacity": 1,
                "stroke": "#ff0000",
                "ID": "23PF-B1-H2",
                "REMARKS": "POLYGON-49"
            },
            "id": "p49.2"
        },
        {
            "type": "Feature",
            "geometry": {
                "type": "Polygon",
                "coordinates": [
                    [
                        [88.3152479395777, 22.536447721337 ],
                        [88.3152319318397, 22.5363755065213],
                        [88.3151181063129, 22.5364005382833],
                        [88.3151312725243, 22.5364755298223],
                        [88.3152479395777, 22.536447721337 ]
                    ]
                ]
            },
            "properties": {
    "floor": "ground",
                "fill-opacity": 0,
                "stroke-opacity": 1,
                "stroke": "#ff0000",
                "ID": "23PF-B2-H2",
                "REMARKS": "POLYGON-49"
            },
            "id": "p49.3"
        },
        {
            "type": "Feature",
            "geometry": {
                "type": "Polygon",
                "coordinates": [
                    [
                        [88.3153260299457, 22.536354813084 ],
                        [88.3153115237162, 22.5362816797187],
                        [88.3152157725684, 22.5363026081013],
                        [88.3152319318397, 22.5363755065213],
                        [88.3153260299457, 22.536354813084 ]
                    ]
                ]
            },
            "properties": {
    "floor": "ground",
                "fill-opacity": 0,
                "stroke-opacity": 1,
                "stroke": "#ff0000",
                "ID": "23PF-B3-H1",
                "REMARKS": "POLYGON-49"
            },
            "id": "p49.4"
        },
        {
            "type": "Feature",
            "geometry": {
                "type": "Polygon",
                "coordinates": [
                    [
                        [88.3153115237162, 22.5362816797187],
                        [88.3153088878914, 22.5362683911697],
                        [88.3152943179593, 22.5362062498992],
                        [88.3151985182905, 22.5362247698396],
                        [88.3152157725684, 22.5363026081013],
                        [88.3153115237162, 22.5362816797187]
                    ]
                ]
            },
            "properties": {
    "floor": "ground",
                "fill-opacity": 0,
                "stroke-opacity": 1,
                "stroke": "#ff0000",
                "ID": "23PF-B4-H1",
                "REMARKS": "POLYGON-49"
            },
            "id": "p49.5"
        },
        {
            "type": "Feature",
            "geometry": {
                "type": "Polygon",
                "coordinates": [
                    [
                        [88.3152943179593, 22.5362062498992],
                        [88.3152797930666, 22.5361443007234],
                        [88.3151851751823, 22.5361645758198],
                        [88.3151985182905, 22.5362247698396],
                        [88.3152943179593, 22.5362062498992]
                    ]
                ]
            },
            "properties": {
    "floor": "ground",
                "fill-opacity": 0,
                "stroke-opacity": 1,
                "stroke": "#ff0000",
                "ID": "23PF-B5-H1",
                "REMARKS": "POLYGON-49"
            },
            "id": "p49.6"
        },
        {
            "type": "Feature",
            "geometry": {
                "type": "Polygon",
                "coordinates": [
                    [
                        [88.3152797930666, 22.5361443007234],
                        [88.3152649229272, 22.5360808790581],
                        [88.3151712263174, 22.5361016490835],
                        [88.3151851751823, 22.5361645758198],
                        [88.3152797930666, 22.5361443007234]
                    ]
                ]
            },
            "properties": {
    "floor": "ground",
                "fill-opacity": 0,
                "stroke-opacity": 1,
                "stroke": "#ff0000",
                "ID": "23PF-B6-H1",
                "REMARKS": "POLYGON-49"
            },
            "id": "p49.7"
        },
        {
            "type": "Feature",
            "geometry": {
                "type": "Polygon",
                "coordinates": [
                    [
                        [88.3152649229272, 22.5360808790581],
                        [88.3152497435815, 22.5360161386173],
                        [88.3151568366125, 22.5360367336101],
                        [88.3151712263174, 22.5361016490835],
                        [88.3152649229272, 22.5360808790581]
                    ]
                ]
            },
            "properties": {
    "floor": "ground",
                "fill-opacity": 0,
                "stroke-opacity": 1,
                "stroke": "#ff0000",
                "ID": "23PF-B7-H1",
                "REMARKS": "POLYGON-49"
            },
            "id": "p49.8"
        },
        {
            "type": "Feature",
            "geometry": {
                "type": "Polygon",
                "coordinates": [
                    [
                        [88.3152497435815, 22.5360161386173],
                        [88.3152354973865, 22.5359553780973],
                        [88.3152315022551, 22.5359401887613],
                        [88.3151397919214, 22.5359598408452],
                        [88.3151568366125, 22.5360367336101],
                        [88.3152497435815, 22.5360161386173]
                    ]
                ]
            },
            "properties": {
    "floor": "ground",
                "fill-opacity": 0,
                "stroke-opacity": 1,
                "stroke": "#ff0000",
                "ID": "23PF-B8-H1",
                "REMARKS": "POLYGON-49"
            },
            "id": "p49.9"
        },
        {
            "type": "Feature",
            "geometry": {
                "type": "Polygon",
                "coordinates": [
                    [
                        [88.3152315022551, 22.5359401887613],
                        [88.3152146188895, 22.535875998854 ],
                        [88.3151256865888, 22.5358962082451],
                        [88.3151397919214, 22.5359598408452],
                        [88.3152315022551, 22.5359401887613]
                    ]
                ]
            },
            "properties": {
    "floor": "ground",
                "fill-opacity": 0,
                "stroke-opacity": 1,
                "stroke": "#ff0000",
                "ID": "23PF-B9-H1",
                "REMARKS": "POLYGON-49"
            },
            "id": "p49.10"
        },
        {
            "type": "Feature",
            "geometry": {
                "type": "Polygon",
                "coordinates": [
                    [
                        [88.3151256865888, 22.5358962082451],
                        [88.3151093765774, 22.5358226297999],
                        [88.3149937298013, 22.5358475535333],
                        [88.3150118645306, 22.5359220737009],
                        [88.3151256865888, 22.5358962082451]
                    ]
                ]
            },
            "properties": {
    "floor": "ground",
                "fill-opacity": 0,
                "stroke-opacity": 1,
                "stroke": "#ff0000",
                "ID": "23PF-B10-H2",
                "REMARKS": "POLYGON-49"
            },
            "id": "p49.11"
        },
        {
            "type": "Feature",
            "geometry": {
                "type": "Polygon",
                "coordinates": [
                    [
                        [88.3150901154351, 22.5357357380826],
                        [88.3150705896028, 22.5356476522842],
                        [88.3149520923212, 22.5356764546465],
                        [88.3149732490072, 22.5357633927946],
                        [88.3150901154351, 22.5357357380826]
                    ]
                ]
            },
            "properties": {
    "floor": "ground",
                "fill-opacity": 0,
                "stroke-opacity": 1,
                "stroke": "#ff0000",
                "ID": "23PF-B12-H2",
                "REMARKS": "POLYGON-49"
            },
            "id": "p49.12"
        },
        {
            "type": "Feature",
            "geometry": {
                "type": "Polygon",
                "coordinates": [
                    [
                        [88.315355833101 , 22.536505066122 ],
                        [88.3153401012744, 22.536425753891 ],
                        [88.3152479395777, 22.536447721337 ],
                        [88.3152653931906, 22.5365264588477],
                        [88.315355833101 , 22.536505066122 ]
                    ]
                ]
            },
            "properties": {
    "floor": "ground",
                "fill-opacity": 0,
                "stroke-opacity": 1,
                "stroke": "#ff0000",
                "ID": "23PF-B1-H1",
                "REMARKS": "POLYGON-49"
            },
            "id": "p49.13"
        },
        {
            "type": "Feature",
            "geometry": {
                "type": "Polygon",
                "coordinates": [
                    [
                        [88.3153401012744, 22.536425753891 ],
                        [88.3153260299457, 22.536354813084 ],
                        [88.3152319318397, 22.5363755065213],
                        [88.3152479395777, 22.536447721337 ],
                        [88.3153401012744, 22.536425753891 ]
                    ]
                ]
            },
            "properties": {
    "floor": "ground",
                "fill-opacity": 0,
                "stroke-opacity": 1,
                "stroke": "#ff0000",
                "ID": "23PF-B2-H1",
                "REMARKS": "POLYGON-49"
            },
            "id": "p49.14"
        },
        {
            "type": "Feature",
            "geometry": {
                "type": "Polygon",
                "coordinates": [
                    [
                        [88.3152319318397, 22.5363755065213],
                        [88.3152157725684, 22.5363026081013],
                        [88.3151051575518, 22.5363267852881],
                        [88.3151181063129, 22.5364005382833],
                        [88.3152319318397, 22.5363755065213]
                    ]
                ]
            },
            "properties": {
    "floor": "ground",
                "fill-opacity": 0,
                "stroke-opacity": 1,
                "stroke": "#ff0000",
                "ID": "23PF-B3-H2",
                "REMARKS": "POLYGON-49"
            },
            "id": "p49.15"
        },
        {
            "type": "Feature",
            "geometry": {
                "type": "Polygon",
                "coordinates": [
                    [
                        [88.3152157725684, 22.5363026081013],
                        [88.3151985182905, 22.5362247698396],
                        [88.3150906034819, 22.5362456318723],
                        [88.3150917021408, 22.5362501465382],
                        [88.3151051575518, 22.5363267852881],
                        [88.3152157725684, 22.5363026081013]
                    ]
                ]
            },
            "properties": {
    "floor": "ground",
                "fill-opacity": 0,
                "stroke-opacity": 1,
                "stroke": "#ff0000",
                "ID": "23PF-B4-H2",
                "REMARKS": "POLYGON-49"
            },
            "id": "p49.16"
        },
        {
            "type": "Feature",
            "geometry": {
                "type": "Polygon",
                "coordinates": [
                    [
                        [88.3151985182905, 22.5362247698396],
                        [88.3151851751823, 22.5361645758198],
                        [88.3150765430331, 22.5361878539487],
                        [88.3150906034819, 22.5362456318723],
                        [88.3151985182905, 22.5362247698396]
                    ]
                ]
            },
            "properties": {
    "floor": "ground",
                "fill-opacity": 0,
                "stroke-opacity": 1,
                "stroke": "#ff0000",
                "ID": "23PF-B5-H2",
                "REMARKS": "POLYGON-49"
            },
            "id": "p49.17"
        },
        {
            "type": "Feature",
            "geometry": {
                "type": "Polygon",
                "coordinates": [
                    [
                        [88.3151851751823, 22.5361645758198],
                        [88.3151712263174, 22.5361016490835],
                        [88.3150614847899, 22.5361259758369],
                        [88.3150765430331, 22.5361878539487],
                        [88.3151851751823, 22.5361645758198]
                    ]
                ]
            },
            "properties": {
    "floor": "ground",
                "fill-opacity": 0,
                "stroke-opacity": 1,
                "stroke": "#ff0000",
                "ID": "23PF-B6-H2",
                "REMARKS": "POLYGON-49"
            },
            "id": "p49.18"
        },
        {
            "type": "Feature",
            "geometry": {
                "type": "Polygon",
                "coordinates": [
                    [
                        [88.3151712263174, 22.5361016490835],
                        [88.3151568366125, 22.5360367336101],
                        [88.3150457594483, 22.5360613564496],
                        [88.3150614847899, 22.5361259758369],
                        [88.3151712263174, 22.5361016490835]
                    ]
                ]
            },
            "properties": {
    "floor": "ground",
                "fill-opacity": 0,
                "stroke-opacity": 1,
                "stroke": "#ff0000",
                "ID": "23PF-B7-H2",
                "REMARKS": "POLYGON-49"
            },
            "id": "p49.19"
        },
        {
            "type": "Feature",
            "geometry": {
                "type": "Polygon",
                "coordinates": [
                    [
                        [88.3151568366125, 22.5360367336101],
                        [88.3151397919214, 22.5359598408452],
                        [88.315026940148 , 22.5359840232075],
                        [88.3150457594483, 22.5360613564496],
                        [88.3151568366125, 22.5360367336101]
                    ]
                ]
            },
            "properties": {
    "floor": "ground",
                "fill-opacity": 0,
                "stroke-opacity": 1,
                "stroke": "#ff0000",
                "ID": "23PF-B8-H2",
                "REMARKS": "POLYGON-49"
            },
            "id": "p49.20"
        },
        {
            "type": "Feature",
            "geometry": {
                "type": "Polygon",
                "coordinates": [
                    [
                        [88.3151397919214, 22.5359598408452],
                        [88.3151256865888, 22.5358962082451],
                        [88.3150118645306, 22.5359220737009],
                        [88.315026940148 , 22.5359840232075],
                        [88.3151397919214, 22.5359598408452]
                    ]
                ]
            },
            "properties": {
    "floor": "ground",
                "fill-opacity": 0,
                "stroke-opacity": 1,
                "stroke": "#ff0000",
                "ID": "23PF-B9-H2",
                "REMARKS": "POLYGON-49"
            },
            "id": "p49.21"
        },
        {
            "type": "Feature",
            "geometry": {
                "type": "Polygon",
                "coordinates": [
                    [
                        [88.3152146188895, 22.535875998854 ],
                        [88.3151956889871, 22.5358040280926],
                        [88.3151093765774, 22.5358226297999],
                        [88.3151256865888, 22.5358962082451],
                        [88.3152146188895, 22.535875998854 ]
                    ]
                ]
            },
            "properties": {
    "floor": "ground",
                "fill-opacity": 0,
                "stroke-opacity": 1,
                "stroke": "#ff0000",
                "ID": "23PF-B10-H1",
                "REMARKS": "POLYGON-49"
            },
            "id": "p49.22"
        },
        {
            "type": "Feature",
            "geometry": {
                "type": "Polygon",
                "coordinates": [
                    [
                        [88.3151725937303, 22.5357162208137],
                        [88.3151495130307, 22.5356284688808],
                        [88.3150705896028, 22.5356476522842],
                        [88.3150901154351, 22.5357357380826],
                        [88.3151725937303, 22.5357162208137]
                    ]
                ]
            },
            "properties": {
    "floor": "ground",
                "fill-opacity": 0,
                "stroke-opacity": 1,
                "stroke": "#ff0000",
                "ID": "23PF-B12-H1",
                "REMARKS": "POLYGON-49"
            },
            "id": "p49.23"
        },
        {
            "type": "Feature",
            "geometry": {
                "type": "Polygon",
                "coordinates": [
                    [
                        [88.3151956889871, 22.5358040280926],
                        [88.3151725937303, 22.5357162208137],
                        [88.3150901154351, 22.5357357380826],
                        [88.3151093765774, 22.5358226297999],
                        [88.3151956889871, 22.5358040280926]
                    ]
                ]
            },
            "properties": {
    "floor": "ground",
                "fill-opacity": 0,
                "stroke-opacity": 1,
                "stroke": "#ff0000",
                "ID": "23PF-B11-H1",
                "REMARKS": "POLYGON-49"
            },
            "id": "p49.24"
        }
    ]
}
