{
    "type": "FeatureCollection", 
    "features": [
        {
            "type": "Feature", 
            "geometry": {
                "type": "Polygon", 
                "coordinates": [
                    [
                        [88.3134383528453, 22.5304034449772], 
                        [88.3134171289037, 22.5305022191787], 
                        [88.3136370705552, 22.5305314734623], 
                        [88.3136525846394, 22.5304336557905], 
                        [88.3134383528453, 22.5304034449772]  
                    ]
                ]
            }, 
            "properties": {
    "floor": "ground",
                "fill-opacity": 0, 
                "stroke-opacity": 1, 
                "stroke": "#ff0000", 
                "ID": "27N-B3-H1", 
                "REMARKS": "POLYGON-56"
            }, 
            "id": "p56.1"
        }, 
        {
            "type": "Feature", 
            "geometry": {
                "type": "Polygon", 
                "coordinates": [
                    [
                        [88.3133925313593, 22.5306166938061], 
                        [88.313368719472 , 22.53072751206  ], 
                        [88.3135816367447, 22.5307578699274], 
                        [88.3136015810047, 22.530755238214 ], 
                        [88.3136186574378, 22.5306475697947], 
                        [88.3133925313593, 22.5306166938061]  
                    ]
                ]
            }, 
            "properties": {
    "floor": "ground",
                "fill-opacity": 0, 
                "stroke-opacity": 1, 
                "stroke": "#ff0000", 
                "ID": "27N-B1-H1", 
                "REMARKS": "POLYGON-56"
            }, 
            "id": "p56.2"
        }, 
        {
            "type": "Feature", 
            "geometry": {
                "type": "Polygon", 
                "coordinates": [
                    [
                        [88.3134171289037, 22.5305022191787], 
                        [88.3133925313593, 22.5306166938061], 
                        [88.3136186574378, 22.5306475697947], 
                        [88.3136370705552, 22.5305314734623], 
                        [88.3134171289037, 22.5305022191787]  
                    ]
                ]
            }, 
            "properties": {
    "floor": "ground",
                "fill-opacity": 0, 
                "stroke-opacity": 1, 
                "stroke": "#ff0000", 
                "ID": "27N-B2-H1", 
                "REMARKS": "POLYGON-56"
            }, 
            "id": "p56.3"
        }, 
        {
            "type": "Feature", 
            "geometry": {
                "type": "Polygon", 
                "coordinates": [
                    [
                        [88.3134383528453, 22.5304034449772], 
                        [88.3134591951224, 22.5303064470063], 
                        [88.3132580055423, 22.5302719876869], 
                        [88.3132336831143, 22.5303745825992], 
                        [88.3134383528453, 22.5304034449772]  
                    ]
                ]
            }, 
            "properties": {
    "floor": "ground",
                "fill-opacity": 0, 
                "stroke-opacity": 1, 
                "stroke": "#ff0000", 
                "ID": "27N-B4-H2", 
                "REMARKS": "POLYGON-56"
            }, 
            "id": "p56.4"
        }, 
        {
            "type": "Feature", 
            "geometry": {
                "type": "Polygon", 
                "coordinates": [
                    [
                        [88.313368719472 , 22.53072751206  ], 
                        [88.3133925313593, 22.5306166938061], 
                        [88.313183065752 , 22.5305880926923], 
                        [88.3131571642348, 22.5306973483924], 
                        [88.313368719472 , 22.53072751206  ]  
                    ]
                ]
            }, 
            "properties": {
    "floor": "ground",
                "fill-opacity": 0, 
                "stroke-opacity": 1, 
                "stroke": "#ff0000", 
                "ID": "27N-B1-H2", 
                "REMARKS": "POLYGON-56"
            }, 
            "id": "p56.5"
        }, 
        {
            "type": "Feature", 
            "geometry": {
                "type": "Polygon", 
                "coordinates": [
                    [
                        [88.3133925313593, 22.5306166938061], 
                        [88.3134171289037, 22.5305022191787], 
                        [88.3132099567241, 22.5304746633535], 
                        [88.313183065752 , 22.5305880926923], 
                        [88.3133925313593, 22.5306166938061]  
                    ]
                ]
            }, 
            "properties": {
    "floor": "ground",
                "fill-opacity": 0, 
                "stroke-opacity": 1, 
                "stroke": "#ff0000", 
                "ID": "27N-B2-H2", 
                "REMARKS": "POLYGON-56"
            }, 
            "id": "p56.6"
        }, 
        {
            "type": "Feature", 
            "geometry": {
                "type": "Polygon", 
                "coordinates": [
                    [
                        [88.3134591951224, 22.5303064470063], 
                        [88.3134383528453, 22.5304034449772], 
                        [88.3136525846394, 22.5304336557905], 
                        [88.3136671121445, 22.5303420585874], 
                        [88.3134591951224, 22.5303064470063]  
                    ]
                ]
            }, 
            "properties": {
    "floor": "ground",
                "fill-opacity": 0, 
                "stroke-opacity": 1, 
                "stroke": "#ff0000", 
                "ID": "27N-B4-H1", 
                "REMARKS": "POLYGON-56"
            }, 
            "id": "p56.7"
        }, 
        {
            "type": "Feature", 
            "geometry": {
                "type": "Polygon", 
                "coordinates": [
                    [
                        [88.3134171289037, 22.5305022191787], 
                        [88.3134383528453, 22.5304034449772], 
                        [88.3132336831143, 22.5303745825992], 
                        [88.3132099567241, 22.5304746633535], 
                        [88.3134171289037, 22.5305022191787]  
                    ]
                ]
            }, 
            "properties": {
    "floor": "ground",
                "fill-opacity": 0, 
                "stroke-opacity": 1, 
                "stroke": "#ff0000", 
                "ID": "27N-B3-H2", 
                "REMARKS": "POLYGON-56"
            }, 
            "id": "p56.8"
        }
    ]
}
