{
    "type": "FeatureCollection",
    "features": [
        {

            "type": "Feature",
            "geometry": {
                "type": "Polygon",
                "coordinates": [
                    [
                        [88.3149528818567, 22.5370015655122],
                        [88.3149539689348, 22.537051210582 ],
                        [88.3150395276321, 22.5370482837398],
                        [88.3150389923109, 22.5369975213908],
                        [88.3149528818567, 22.5370015655122]
                    ]
                ]
            },
            "properties": {
    "floor": "ground",
                "fill-opacity": 0,
                "stroke-opacity": 1,
                "stroke": "#ff0000",
                "ID": "22GT-B19-H1",
                "REMARKS": "POLYGON-46"
            },
            "id": "p46.1"
        },
        {
            "type": "Feature",
            "geometry": {
                "type": "Polygon",
                "coordinates": [
                    [
                        [88.3149694167934, 22.5377566888408],
                        [88.3149705126021, 22.5378067326193],
                        [88.3150475398509, 22.5378080501088],
                        [88.3150469982137, 22.5377566888408],
                        [88.3149694167934, 22.5377566888408]
                    ]
                ]
            },
            "properties": {
    "floor": "ground",
                "fill-opacity": 0,
                "stroke-opacity": 1,
                "stroke": "#ff0000",
                "ID": "22GT-B1-H1",
                "REMARKS": "POLYGON-46"
            },
            "id": "p46.2"
        },
        {
            "type": "Feature",
            "geometry": {
                "type": "Polygon",
                "coordinates": [
                    [
                        [88.3149686324881, 22.5377208709088],
                        [88.3149694167934, 22.5377566888408],
                        [88.3150469982137, 22.5377566888408],
                        [88.3150466045022, 22.5377193547596],
                        [88.3149686324881, 22.5377208709088]
                    ]
                ]
            },
            "properties": {
    "floor": "ground",
                "fill-opacity": 0,
                "stroke-opacity": 1,
                "stroke": "#ff0000",
                "ID": "22GT-B2-H1",
                "REMARKS": "POLYGON-46"
            },
            "id": "p46.3"
        },
        {
            "type": "Feature",
            "geometry": {
                "type": "Polygon",
                "coordinates": [
                    [
                        [88.3149678684755, 22.5376859797103],
                        [88.3149686324881, 22.5377208709088],
                        [88.3150466045022, 22.5377193547596],
                        [88.3150462439636, 22.5376851663422],
                        [88.3149678684755, 22.5376859797103]
                    ]
                ]
            },
            "properties": {
    "floor": "ground",
                "fill-opacity": 0,
                "stroke-opacity": 1,
                "stroke": "#ff0000",
                "ID": "22GT-B3-H1",
                "REMARKS": "POLYGON-46"
            },
            "id": "p46.4"
        },
        {
            "type": "Feature",
            "geometry": {
                "type": "Polygon",
                "coordinates": [
                    [
                        [88.3149669284098, 22.5376430484591],
                        [88.3149678684755, 22.5376859797103],
                        [88.3150462439636, 22.5376851663422],
                        [88.3150457998038, 22.5376430484591],
                        [88.3149669284098, 22.5376430484591]
                    ]
                ]
            },
            "properties": {
    "floor": "ground",
                "fill-opacity": 0,
                "stroke-opacity": 1,
                "stroke": "#ff0000",
                "ID": "22GT-B4-H1",
                "REMARKS": "POLYGON-46"
            },
            "id": "p46.5"
        },
        {
            "type": "Feature",
            "geometry": {
                "type": "Polygon",
                "coordinates": [
                    [
                        [88.3149660203189, 22.5376015774427],
                        [88.3149669284098, 22.5376430484591],
                        [88.3150457998038, 22.5376430484591],
                        [88.3150453476066, 22.537600168425 ],
                        [88.3149660203189, 22.5376015774427]
                    ]
                ]
            },
            "properties": {
    "floor": "ground",
                "fill-opacity": 0,
                "stroke-opacity": 1,
                "stroke": "#ff0000",
                "ID": "22GT-B5-H1",
                "REMARKS": "POLYGON-46"
            },
            "id": "p46.6"
        },
        {
            "type": "Feature",
            "geometry": {
                "type": "Polygon",
                "coordinates": [
                    [
                        [88.3149651874672, 22.5375635424804],
                        [88.3149660203189, 22.5376015774427],
                        [88.3150453476066, 22.537600168425 ],
                        [88.3150449268436, 22.5375602691668],
                        [88.3149651874672, 22.5375635424804]
                    ]
                ]
            },
            "properties": {
    "floor": "ground",
                "fill-opacity": 0,
                "stroke-opacity": 1,
                "stroke": "#ff0000",
                "ID": "22GT-B6-H1",
                "REMARKS": "POLYGON-46"
            },
            "id": "p46.7"
        },
        {
            "type": "Feature",
            "geometry": {
                "type": "Polygon",
                "coordinates": [
                    [
                        [88.3149644323094, 22.5375290556647],
                        [88.3149651874672, 22.5375635424804],
                        [88.3150449268436, 22.5375602691668],
                        [88.3150445561653, 22.537525119245 ],
                        [88.3149644323094, 22.5375290556647]
                    ]
                ]
            },
            "properties": {
    "floor": "ground",
                "fill-opacity": 0,
                "stroke-opacity": 1,
                "stroke": "#ff0000",
                "ID": "22GT-B7-H1",
                "REMARKS": "POLYGON-46"
            },
            "id": "p46.8"
        },
        {
            "type": "Feature",
            "geometry": {
                "type": "Polygon",
                "coordinates": [
                    [
                        [88.3149644323094, 22.5375290556647],
                        [88.3149635908538, 22.5374906277721],
                        [88.3148855577164, 22.5374914111815],
                        [88.3148868088946, 22.5375328692398],
                        [88.3149644323094, 22.5375290556647]
                    ]
                ]
            },
            "properties": {
    "floor": "ground",
                "fill-opacity": 0,
                "stroke-opacity": 1,
                "stroke": "#ff0000",
                "ID": "22GT-B8-H2",
                "REMARKS": "POLYGON-46"
            },
            "id": "p46.9"
        },
        {
            "type": "Feature",
            "geometry": {
                "type": "Polygon",
                "coordinates": [
                    [
                        [88.3149627176676, 22.5374507508   ],
                        [88.3149635908538, 22.5374906277721],
                        [88.3150441838983, 22.5374898186627],
                        [88.3150437634146, 22.5374499458945],
                        [88.3149627176676, 22.5374507508   ]
                    ]
                ]
            },
            "properties": {
    "floor": "ground",
                "fill-opacity": 0,
                "stroke-opacity": 1,
                "stroke": "#ff0000",
                "ID": "22GT-B9-H1",
                "REMARKS": "POLYGON-46"
            },
            "id": "p46.10"
        },
        {
            "type": "Feature",
            "geometry": {
                "type": "Polygon",
                "coordinates": [
                    [
                        [88.3149618787497, 22.5374124387997],
                        [88.3149627176676, 22.5374507508   ],
                        [88.3150437634146, 22.5374499458945],
                        [88.3150433361418, 22.5374094293418],
                        [88.3149618787497, 22.5374124387997]
                    ]
                ]
            },
            "properties": {
    "floor": "ground",
                "fill-opacity": 0,
                "stroke-opacity": 1,
                "stroke": "#ff0000",
                "ID": "22GT-B10-H1",
                "REMARKS": "POLYGON-46"
            },
            "id": "p46.11"
        },
        {
            "type": "Feature",
            "geometry": {
                "type": "Polygon",
                "coordinates": [
                    [
                        [88.3149609836651, 22.5373715617621],
                        [88.3149618787497, 22.5374124387997],
                        [88.3150433361418, 22.5374094293418],
                        [88.3150428809651, 22.5373662667674],
                        [88.3149609836651, 22.5373715617621]
                    ]
                ]
            },
            "properties": {
    "floor": "ground",
                "fill-opacity": 0,
                "stroke-opacity": 1,
                "stroke": "#ff0000",
                "ID": "22GT-B11-H1",
                "REMARKS": "POLYGON-46"
            },
            "id": "p46.12"
        },
        {
            "type": "Feature",
            "geometry": {
                "type": "Polygon",
                "coordinates": [
                    [
                        [88.3149598243134, 22.5373186160761],
                        [88.3149609836651, 22.5373715617621],
                        [88.3150428809651, 22.5373662667674],
                        [88.3150423315791, 22.5373141707148],
                        [88.3149598243134, 22.5373186160761]
                    ]
                ]
            },
            "properties": {
    "floor": "ground",
                "fill-opacity": 0,
                "stroke-opacity": 1,
                "stroke": "#ff0000",
                "ID": "22GT-B12-H1",
                "REMARKS": "POLYGON-46"
            },
            "id": "p46.13"
        },
        {
            "type": "Feature",
            "geometry": {
                "type": "Polygon",
                "coordinates": [
                    [
                        [88.3149589100555, 22.5372768634227],
                        [88.3149598243134, 22.5373186160761],
                        [88.3150423315791, 22.5373141707148],
                        [88.3150418871812, 22.5372720302573],
                        [88.3149589100555, 22.5372768634227]
                    ]
                ]
            },
            "properties": {
    "floor": "ground",
                "fill-opacity": 0,
                "stroke-opacity": 1,
                "stroke": "#ff0000",
                "ID": "22GT-B13-H1",
                "REMARKS": "POLYGON-46"
            },
            "id": "p46.14"
        },
        {
            "type": "Feature",
            "geometry": {
                "type": "Polygon",
                "coordinates": [
                    [
                        [88.3149577931832, 22.5372258577054],
                        [88.3149589100555, 22.5372768634227],
                        [88.3150418871812, 22.5372720302573],
                        [88.3150413574235, 22.5372217954687],
                        [88.3149577931832, 22.5372258577054]
                    ]
                ]
            },
            "properties": {
    "floor": "ground",
                "fill-opacity": 0,
                "stroke-opacity": 1,
                "stroke": "#ff0000",
                "ID": "22GT-B14-H1",
                "REMARKS": "POLYGON-46"
            },
            "id": "p46.15"
        },
        {
            "type": "Feature",
            "geometry": {
                "type": "Polygon",
                "coordinates": [
                    [
                        [88.3149568485999, 22.537182720144 ],
                        [88.3149577931832, 22.5372258577054],
                        [88.3150413574235, 22.5372217954687],
                        [88.315040911233 , 22.5371794850251],
                        [88.3149568485999, 22.537182720144 ]
                    ]
                ]
            },
            "properties": {
    "floor": "ground",
                "fill-opacity": 0,
                "stroke-opacity": 1,
                "stroke": "#ff0000",
                "ID": "22GT-B15-H1",
                "REMARKS": "POLYGON-46"
            },
            "id": "p46.16"
        },
        {
            "type": "Feature",
            "geometry": {
                "type": "Polygon",
                "coordinates": [
                    [
                        [88.3149558463297, 22.5371369481125],
                        [88.3149568485999, 22.537182720144 ],
                        [88.315040911233 , 22.5371794850251],
                        [88.3150404463369, 22.5371354008013],
                        [88.3149558463297, 22.5371369481125]
                    ]
                ]
            },
            "properties": {
    "floor": "ground",
                "fill-opacity": 0,
                "stroke-opacity": 1,
                "stroke": "#ff0000",
                "ID": "22GT-B16-H1",
                "REMARKS": "POLYGON-46"
            },
            "id": "p46.17"
        },
        {
            "type": "Feature",
            "geometry": {
                "type": "Polygon",
                "coordinates": [
                    [
                        [88.3149549499982, 22.537096014132 ],
                        [88.3149558463297, 22.5371369481125],
                        [88.3150404463369, 22.5371354008013],
                        [88.3150400063713, 22.5370936806443],
                        [88.3149549499982, 22.537096014132 ]
                    ]
                ]
            },
            "properties": {
    "floor": "ground",
                "fill-opacity": 0,
                "stroke-opacity": 1,
                "stroke": "#ff0000",
                "ID": "22GT-B17-H1",
                "REMARKS": "POLYGON-46"
            },
            "id": "p46.18"
        },
        {
            "type": "Feature",
            "geometry": {
                "type": "Polygon",
                "coordinates": [
                    [
                        [88.3149539689348, 22.537051210582 ],
                        [88.3149549499982, 22.537096014132 ],
                        [88.3150400063713, 22.5370936806443],
                        [88.3150395276321, 22.5370482837398],
                        [88.3149539689348, 22.537051210582 ]
                    ]
                ]
            },
            "properties": {
    "floor": "ground",
                "fill-opacity": 0,
                "stroke-opacity": 1,
                "stroke": "#ff0000",
                "ID": "22GT-B18-H1",
                "REMARKS": "POLYGON-46"
            },
            "id": "p46.19"
        },
        {
            "type": "Feature",
            "geometry": {
                "type": "Polygon",
                "coordinates": [
                    [
                        [88.3149705126021, 22.5378067326193],
                        [88.3149694167934, 22.5377566888408],
                        [88.31489356363  , 22.5377566888408],
                        [88.3148936841313, 22.5377606816783],
                        [88.3148936841313, 22.5378054185297],
                        [88.3149705126021, 22.5378067326193]
                    ]
                ]
            },
            "properties": {
    "floor": "ground",
                "fill-opacity": 0,
                "stroke-opacity": 1,
                "stroke": "#ff0000",
                "ID": "22GT-B1-H2",
                "REMARKS": "POLYGON-46"
            },
            "id": "p46.20"
        },
        {
            "type": "Feature",
            "geometry": {
                "type": "Polygon",
                "coordinates": [
                    [
                        [88.3149694167934, 22.5377566888408],
                        [88.3149686324881, 22.5377208709088],
                        [88.3148925273281, 22.5377223507575],
                        [88.31489356363  , 22.5377566888408],
                        [88.3149694167934, 22.5377566888408]
                    ]
                ]
            },
            "properties": {
    "floor": "ground",
                "fill-opacity": 0,
                "stroke-opacity": 1,
                "stroke": "#ff0000",
                "ID": "22GT-B2-H2",
                "REMARKS": "POLYGON-46"
            },
            "id": "p46.21"
        },
        {
            "type": "Feature",
            "geometry": {
                "type": "Polygon",
                "coordinates": [
                    [
                        [88.3149686324881, 22.5377208709088],
                        [88.3149678684755, 22.5376859797103],
                        [88.3148914536056, 22.5376867727315],
                        [88.3148925273281, 22.5377223507575],
                        [88.3149686324881, 22.5377208709088]
                    ]
                ]
            },
            "properties": {
    "floor": "ground",
                "fill-opacity": 0,
                "stroke-opacity": 1,
                "stroke": "#ff0000",
                "ID": "22GT-B3-H2",
                "REMARKS": "POLYGON-46"
            },
            "id": "p46.22"
        },
        {
            "type": "Feature",
            "geometry": {
                "type": "Polygon",
                "coordinates": [
                    [
                        [88.3149678684755, 22.5376859797103],
                        [88.3149669284098, 22.5376430484591],
                        [88.3148901340344, 22.5376430484591],
                        [88.3148914536056, 22.5376867727315],
                        [88.3149678684755, 22.5376859797103]
                    ]
                ]
            },
            "properties": {
    "floor": "ground",
                "fill-opacity": 0,
                "stroke-opacity": 1,
                "stroke": "#ff0000",
                "ID": "22GT-B4-H2",
                "REMARKS": "POLYGON-46"
            },
            "id": "p46.23"
        },
        {
            "type": "Feature",
            "geometry": {
                "type": "Polygon",
                "coordinates": [
                    [
                        [88.3149669284098, 22.5376430484591],
                        [88.3149660203189, 22.5376015774427],
                        [88.3148889237926, 22.5376029468374],
                        [88.3148901340344, 22.5376430484591],
                        [88.3149669284098, 22.5376430484591]
                    ]
                ]
            },
            "properties": {
    "floor": "ground",
                "fill-opacity": 0,
                "stroke-opacity": 1,
                "stroke": "#ff0000",
                "ID": "22GT-B5-H2",
                "REMARKS": "POLYGON-46"
            },
            "id": "p46.24"
        },
        {
            "type": "Feature",
            "geometry": {
                "type": "Polygon",
                "coordinates": [
                    [
                        [88.3149660203189, 22.5376015774427],
                        [88.3149651874672, 22.5375635424804],
                        [88.3148878304289, 22.5375667179986],
                        [88.3148889237926, 22.5376029468374],
                        [88.3149660203189, 22.5376015774427]
                    ]
                ]
            },
            "properties": {
    "floor": "ground",
                "fill-opacity": 0,
                "stroke-opacity": 1,
                "stroke": "#ff0000",
                "ID": "22GT-B6-H2",
                "REMARKS": "POLYGON-46"
            },
            "id": "p46.25"
        },
        {
            "type": "Feature",
            "geometry": {
                "type": "Polygon",
                "coordinates": [
                    [
                        [88.3149651874672, 22.5375635424804],
                        [88.3149644323094, 22.5375290556647],
                        [88.3148868088946, 22.5375328692398],
                        [88.3148878304289, 22.5375667179986],
                        [88.3149651874672, 22.5375635424804]
                    ]
                ]
            },
            "properties": {
    "floor": "ground",
                "fill-opacity": 0,
                "stroke-opacity": 1,
                "stroke": "#ff0000",
                "ID": "22GT-B7-H2",
                "REMARKS": "POLYGON-46"
            },
            "id": "p46.26"
        },
        {
            "type": "Feature",
            "geometry": {
                "type": "Polygon",
                "coordinates": [
                    [
                        [88.3149635908538, 22.5374906277721],
                        [88.3149644323094, 22.5375290556647],
                        [88.3150445561653, 22.537525119245 ],
                        [88.3150441838983, 22.5374898186627],
                        [88.3149635908538, 22.5374906277721]
                    ]
                ]
            },
            "properties": {
    "floor": "ground",
                "fill-opacity": 0,
                "stroke-opacity": 1,
                "stroke": "#ff0000",
                "ID": "22GT-B8-H1",
                "REMARKS": "POLYGON-46"
            },
            "id": "p46.27"
        },
        {
            "type": "Feature",
            "geometry": {
                "type": "Polygon",
                "coordinates": [
                    [
                        [88.3149635908538, 22.5374906277721],
                        [88.3149627176676, 22.5374507508   ],
                        [88.3148843540991, 22.5374515290676],
                        [88.3148855577164, 22.5374914111815],
                        [88.3149635908538, 22.5374906277721]
                    ]
                ]
            },
            "properties": {
    "floor": "ground",
                "fill-opacity": 0,
                "stroke-opacity": 1,
                "stroke": "#ff0000",
                "ID": "22GT-B9-H2",
                "REMARKS": "POLYGON-46"
            },
            "id": "p46.28"
        },
        {
            "type": "Feature",
            "geometry": {
                "type": "Polygon",
                "coordinates": [
                    [
                        [88.3149627176676, 22.5374507508   ],
                        [88.3149618787497, 22.5374124387997],
                        [88.3148832620356, 22.5374153433082],
                        [88.3148843540991, 22.5374515290676],
                        [88.3149627176676, 22.5374507508   ]
                    ]
                ]
            },
            "properties": {
    "floor": "ground",
                "fill-opacity": 0,
                "stroke-opacity": 1,
                "stroke": "#ff0000",
                "ID": "22GT-B10-H2",
                "REMARKS": "POLYGON-46"
            },
            "id": "p46.29"
        },
        {
            "type": "Feature",
            "geometry": {
                "type": "Polygon",
                "coordinates": [
                    [
                        [88.3149618787497, 22.5374124387997],
                        [88.3149609836651, 22.5373715617621],
                        [88.3148820946657, 22.5373766622579],
                        [88.3148832620356, 22.5374153433082],
                        [88.3149618787497, 22.5374124387997]
                    ]
                ]
            },
            "properties": {
    "floor": "ground",
                "fill-opacity": 0,
                "stroke-opacity": 1,
                "stroke": "#ff0000",
                "ID": "22GT-B11-H2",
                "REMARKS": "POLYGON-46"
            },
            "id": "p46.30"
        },
        {
            "type": "Feature",
            "geometry": {
                "type": "Polygon",
                "coordinates": [
                    [
                        [88.3149609836651, 22.5373715617621],
                        [88.3149598243134, 22.5373186160761],
                        [88.3148804718967, 22.5373228914591],
                        [88.3148820946657, 22.5373766622579],
                        [88.3149609836651, 22.5373715617621]
                    ]
                ]
            },
            "properties": {
    "floor": "ground",
                "fill-opacity": 0,
                "stroke-opacity": 1,
                "stroke": "#ff0000",
                "ID": "22GT-B12-H2",
                "REMARKS": "POLYGON-46"
            },
            "id": "p46.31"
        },
        {
            "type": "Feature",
            "geometry": {
                "type": "Polygon",
                "coordinates": [
                    [
                        [88.3149598243134, 22.5373186160761],
                        [88.3149589100555, 22.5372768634227],
                        [88.314879222878 , 22.5372815049585],
                        [88.3148804718967, 22.5373228914591],
                        [88.3149598243134, 22.5373186160761]
                    ]
                ]
            },
            "properties": {
    "floor": "ground",
                "fill-opacity": 0,
                "stroke-opacity": 1,
                "stroke": "#ff0000",
                "ID": "22GT-B13-H2",
                "REMARKS": "POLYGON-46"
            },
            "id": "p46.32"
        },
        {
            "type": "Feature",
            "geometry": {
                "type": "Polygon",
                "coordinates": [
                    [
                        [88.3149589100555, 22.5372768634227],
                        [88.3149577931832, 22.5372258577054],
                        [88.3148776610393, 22.5372297531006],
                        [88.314879222878 , 22.5372815049585],
                        [88.3149589100555, 22.5372768634227]
                    ]
                ]
            },
            "properties": {
    "floor": "ground",
                "fill-opacity": 0,
                "stroke-opacity": 1,
                "stroke": "#ff0000",
                "ID": "22GT-B14-H2",
                "REMARKS": "POLYGON-46"
            },
            "id": "p46.33"
        },
        {
            "type": "Feature",
            "geometry": {
                "type": "Polygon",
                "coordinates": [
                    [
                        [88.3149577931832, 22.5372258577054],
                        [88.3149568485999, 22.537182720144 ],
                        [88.3148763351259, 22.5371858186748],
                        [88.3148776610393, 22.5372297531006],
                        [88.3149577931832, 22.5372258577054]
                    ]
                ]
            },
            "properties": {
    "floor": "ground",
                "fill-opacity": 0,
                "stroke-opacity": 1,
                "stroke": "#ff0000",
                "ID": "22GT-B15-H2",
                "REMARKS": "POLYGON-46"
            },
            "id": "p46.34"
        },
        {
            "type": "Feature",
            "geometry": {
                "type": "Polygon",
                "coordinates": [
                    [
                        [88.3149568485999, 22.537182720144 ],
                        [88.3149558463297, 22.5371369481125],
                        [88.3148749049203, 22.5371384285089],
                        [88.3148763351259, 22.5371858186748],
                        [88.3149568485999, 22.537182720144 ]
                    ]
                ]
            },
            "properties": {
    "floor": "ground",
                "fill-opacity": 0,
                "stroke-opacity": 1,
                "stroke": "#ff0000",
                "ID": "22GT-B16-H2",
                "REMARKS": "POLYGON-46"
            },
            "id": "p46.35"
        },
        {
            "type": "Feature",
            "geometry": {
                "type": "Polygon",
                "coordinates": [
                    [
                        [88.3149558463297, 22.5371369481125],
                        [88.3149549499982, 22.537096014132 ],
                        [88.3148736921592, 22.5370982434084],
                        [88.3148749049203, 22.5371384285089],
                        [88.3149558463297, 22.5371369481125]
                    ]
                ]
            },
            "properties": {
    "floor": "ground",
                "fill-opacity": 0,
                "stroke-opacity": 1,
                "stroke": "#ff0000",
                "ID": "22GT-B17-H2",
                "REMARKS": "POLYGON-46"
            },
            "id": "p46.36"
        },
        {
            "type": "Feature",
            "geometry": {
                "type": "Polygon",
                "coordinates": [
                    [
                        [88.3149549499982, 22.537096014132 ],
                        [88.3149539689348, 22.537051210582 ],
                        [88.3148723569936, 22.5370540024113],
                        [88.3148736921592, 22.5370982434084],
                        [88.3149549499982, 22.537096014132 ]
                    ]
                ]
            },
            "properties": {
    "floor": "ground",
                "fill-opacity": 0,
                "stroke-opacity": 1,
                "stroke": "#ff0000",
                "ID": "22GT-B18-H2",
                "REMARKS": "POLYGON-46"
            },
            "id": "p46.37"
        },
        {
            "type": "Feature",
            "geometry": {
                "type": "Polygon",
                "coordinates": [
                    [
                        [88.3149539689348, 22.537051210582 ],
                        [88.3149528818567, 22.5370015655122],
                        [88.3148708906914, 22.5370054161739],
                        [88.3148723569936, 22.5370540024113],
                        [88.3149539689348, 22.537051210582 ]
                    ]
                ]
            },
            "properties": {
    "floor": "ground",
                "fill-opacity": 0,
                "stroke-opacity": 1,
                "stroke": "#ff0000",
                "ID": "22GT-B19-H2",
                "REMARKS": "POLYGON-46"
            },
            "id": "p46.38"
        }
    ]
}
