{"type":"FeatureCollection", "features": [
{"type":"Feature","geometry":{"type":"Polygon","coordinates":[[[88.3142367566386,22.5352969129379],[88.3142994628891,22.5352828731315],[88.3143081514452,22.5352809019708],[88.3143110422749,22.5352931098696],[88.314337963895,22.535394302655],[88.3142624341897,22.5354114503092],[88.3142367566386,22.5352969129379]]]},"properties": {
    "floor": "ground","fill-opacity":0,"stroke-opacity":1,"stroke":"#ff0000","ID":"23-10","REMARKS":"POLYGON ID-23"}},
{"type":"Feature","geometry":{"type":"Polygon","coordinates":[[[88.3142624341897,22.5354114503092],[88.314337963895,22.535394302655],[88.3143636277114,22.5354907674593],[88.3142841084691,22.5355081305032],[88.3142624341897,22.5354114503092]]]},"properties": {
    "floor": "ground","fill-opacity":0,"stroke-opacity":1,"stroke":"#ff0000","ID":"23-9","REMARKS":"POLYGON ID-23"}},
{"type":"Feature","geometry":{"type":"Polygon","coordinates":[[[88.314100299645,22.5353274652976],[88.3141704499357,22.5353117588492],[88.3141961717639,22.5354264939627],[88.3141252547978,22.5354425943097],[88.314100299645,22.5353274652976]]]},"properties": {
    "floor": "ground","fill-opacity":0,"stroke-opacity":1,"stroke":"#ff0000","ID":"23-6","REMARKS":"POLYGON ID-23"}},
{"type":"Feature","geometry":{"type":"Polygon","coordinates":[[[88.3141252547978,22.5354425943097],[88.3141961717639,22.5354264939627],[88.3142264352736,22.5355614874771],[88.3141544762993,22.5355774055685],[88.3141252547978,22.5354425943097]]]},"properties": {
    "floor": "ground","fill-opacity":0,"stroke-opacity":1,"stroke":"#ff0000","ID":"23-5","REMARKS":"POLYGON ID-23"}},
{"type":"Feature","geometry":{"type":"Polygon","coordinates":[[[88.3141704499357,22.5353117588492],[88.3142367566386,22.5352969129379],[88.3142624341897,22.5354114503092],[88.3141961717639,22.5354264939627],[88.3141704499357,22.5353117588492]]]},"properties": {
    "floor": "ground","fill-opacity":0,"stroke-opacity":1,"stroke":"#ff0000","ID":"23-8","REMARKS":"POLYGON ID-23"}},
{"type":"Feature","geometry":{"type":"Polygon","coordinates":[[[88.3141961717639,22.5354264939627],[88.3142624341897,22.5354114503092],[88.3142841084691,22.5355081305032],[88.3142486643763,22.5355158697147],[88.3142574907381,22.5355546176667],[88.3142264352736,22.5355614874771],[88.3141961717639,22.5354264939627]]]},"properties": {
    "floor": "ground","fill-opacity":0,"stroke-opacity":1,"stroke":"#ff0000","ID":"23-7","REMARKS":"POLYGON ID-23"}},
{"type":"Feature","geometry":{"type":"Polygon","coordinates":[[[88.3140524326196,22.5354591271628],[88.3139855723936,22.535474306439],[88.3139583789304,22.5353592408345],[88.3140266147441,22.5353439630988],[88.3140524326196,22.5354591271628]]]},"properties": {
    "floor": "ground","fill-opacity":0,"stroke-opacity":1,"stroke":"#ff0000","ID":"23-2","REMARKS":"POLYGON ID-23"}},
{"type":"Feature","geometry":{"type":"Polygon","coordinates":[[[88.3140825173068,22.5355933236284],[88.3140171187396,22.5356077904249],[88.3139855723936,22.535474306439],[88.3140524326196,22.5354591271628],[88.3140825173068,22.5355933236284]]]},"properties": {
    "floor": "ground","fill-opacity":0,"stroke-opacity":1,"stroke":"#ff0000","ID":"23-1","REMARKS":"POLYGON ID-23"}},
{"type":"Feature","geometry":{"type":"Polygon","coordinates":[[[88.3140266147441,22.5353439630988],[88.314100299645,22.5353274652976],[88.3141252547978,22.5354425943097],[88.3140524326196,22.5354591271628],[88.3140266147441,22.5353439630988]]]},"properties": {
    "floor": "ground","fill-opacity":0,"stroke-opacity":1,"stroke":"#ff0000","ID":"23-4","REMARKS":"POLYGON ID-23"}},
{"type":"Feature","geometry":{"type":"Polygon","coordinates":[[[88.3140524326196,22.5354591271628],[88.3141252547978,22.5354425943097],[88.3141544762993,22.5355774055685],[88.3140825173068,22.5355933236284],[88.3140524326196,22.5354591271628]]]},"properties": {
    "floor": "ground","fill-opacity":0,"stroke-opacity":1,"stroke":"#ff0000","ID":"23-3","REMARKS":"POLYGON ID-23"}}
]}