{
    "type": "FeatureCollection",
    "features": [
        {
            "type": "Feature",
            "geometry": {
                "type": "Polygon",
                "coordinates": [
                    [
                        [88.3171569306706, 22.5406361846863],
                        [88.3171291396042, 22.5405882811456],
                        [88.3169712924023, 22.5406611756305],
                        [88.3170001905507, 22.5407103333362],
                        [88.3171569306706, 22.5406361846863]
                    ]
                ]
            },
            "properties": {
    "floor": "ground",
                "fill-opacity": 0,
                "stroke-opacity": 1,
                "stroke": "#ff0000",
                "pkuid": 1,
                "ID": "A-B34-H2",
                "REMARKS": "POLYGON-66"
            },
            "id": "polygon66.1"
        },
        {
            "type": "Feature",
            "geometry": {
                "type": "Polygon",
                "coordinates": [
                    [
                        [88.3178414766395, 22.5418161385328],
                        [88.3178599439792, 22.541847970739 ],
                        [88.3180144155446, 22.5417797373063],
                        [88.3180144155446, 22.5417593256781],
                        [88.318005179189 , 22.5417428884535],
                        [88.3178414766395, 22.5418161385328]
                    ]
                ]
            },
            "properties": {
    "floor": "ground",
                "fill-opacity": 0,
                "stroke-opacity": 1,
                "stroke": "#ff0000",
                "pkuid": 2,
                "ID": "A-B1-H1",
                "REMARKS": "POLYGON-66"
            },
            "id": "polygon66.2"
        },
        {
            "type": "Feature",
            "geometry": {
                "type": "Polygon",
                "coordinates": [
                    [
                        [88.3178183540419, 22.541776282045 ],
                        [88.3178414766395, 22.5418161385328],
                        [88.318005179189 , 22.5417428884535],
                        [88.3179835885519, 22.5417044652741],
                        [88.3178183540419, 22.541776282045 ]
                    ]
                ]
            },
            "properties": {
    "floor": "ground",
                "fill-opacity": 0,
                "stroke-opacity": 1,
                "stroke": "#ff0000",
                "pkuid": 3,
                "ID": "A-B2-H1",
                "REMARKS": "POLYGON-66"
            },
            "id": "polygon66.3"
        },
        {
            "type": "Feature",
            "geometry": {
                "type": "Polygon",
                "coordinates": [
                    [
                        [88.3177991800462, 22.5417432317738],
                        [88.3178183540419, 22.541776282045 ],
                        [88.3179835885519, 22.5417044652741],
                        [88.3179641337281, 22.5416698430356],
                        [88.3177991800462, 22.5417432317738]
                    ]
                ]
            },
            "properties": {
    "floor": "ground",
                "fill-opacity": 0,
                "stroke-opacity": 1,
                "stroke": "#ff0000",
                "pkuid": 4,
                "ID": "A-B3-H1",
                "REMARKS": "POLYGON-66"
            },
            "id": "polygon66.4"
        },
        {
            "type": "Feature",
            "geometry": {
                "type": "Polygon",
                "coordinates": [
                    [
                        [88.3177767626524, 22.5417045908479],
                        [88.3177991800462, 22.5417432317738],
                        [88.3179641337281, 22.5416698430356],
                        [88.3179422798461, 22.5416309513797],
                        [88.3177767626524, 22.5417045908479]
                    ]
                ]
            },
            "properties": {
    "floor": "ground",
                "fill-opacity": 0,
                "stroke-opacity": 1,
                "stroke": "#ff0000",
                "pkuid": 5,
                "ID": "A-B4-H1",
                "REMARKS": "POLYGON-66"
            },
            "id": "polygon66.5"
        },
        {
            "type": "Feature",
            "geometry": {
                "type": "Polygon",
                "coordinates": [
                    [
                        [88.3177532480347, 22.5416640586341],
                        [88.3177767626524, 22.5417045908479],
                        [88.3179422798461, 22.5416309513797],
                        [88.3179210194504, 22.5415931159051],
                        [88.3177532480347, 22.5416640586341]
                    ]
                ]
            },
            "properties": {
    "floor": "ground",
                "fill-opacity": 0,
                "stroke-opacity": 1,
                "stroke": "#ff0000",
                "pkuid": 6,
                "ID": "A-B5-H1",
                "REMARKS": "POLYGON-66"
            },
            "id": "polygon66.6"
        },
        {
            "type": "Feature",
            "geometry": {
                "type": "Polygon",
                "coordinates": [
                    [
                        [88.3177310921285, 22.541625868435 ],
                        [88.3177532480347, 22.5416640586341],
                        [88.3179210194504, 22.5415931159051],
                        [88.3178993351762, 22.5415545260869],
                        [88.3177310921285, 22.541625868435 ]
                    ]
                ]
            },
            "properties": {
    "floor": "ground",
                "fill-opacity": 0,
                "stroke-opacity": 1,
                "stroke": "#ff0000",
                "pkuid": 7,
                "ID": "A-B6-H1",
                "REMARKS": "POLYGON-66"
            },
            "id": "polygon66.7"
        },
        {
            "type": "Feature",
            "geometry": {
                "type": "Polygon",
                "coordinates": [
                    [
                        [88.3177068883962, 22.5415841483924],
                        [88.3177310921285, 22.541625868435 ],
                        [88.3178993351762, 22.5415545260869],
                        [88.3178744403215, 22.5415102226483],
                        [88.3177068883962, 22.5415841483924]
                    ]
                ]
            },
            "properties": {
    "floor": "ground",
                "fill-opacity": 0,
                "stroke-opacity": 1,
                "stroke": "#ff0000",
                "pkuid": 8,
                "ID": "A-B7-H1",
                "REMARKS": "POLYGON-66"
            },
            "id": "polygon66.8"
        },
        {
            "type": "Feature",
            "geometry": {
                "type": "Polygon",
                "coordinates": [
                    [
                        [88.3176832719374, 22.5415434406348],
                        [88.3177068883962, 22.5415841483924],
                        [88.3178744403215, 22.5415102226483],
                        [88.3178520750728, 22.5414704209527],
                        [88.3176832719374, 22.5415434406348]
                    ]
                ]
            },
            "properties": {
    "floor": "ground",
                "fill-opacity": 0,
                "stroke-opacity": 1,
                "stroke": "#ff0000",
                "pkuid": 9,
                "ID": "A-B8-H1",
                "REMARKS": "POLYGON-66"
            },
            "id": "polygon66.9"
        },
        {
            "type": "Feature",
            "geometry": {
                "type": "Polygon",
                "coordinates": [
                    [
                        [88.3176605000212, 22.5415041886176],
                        [88.3176832719374, 22.5415434406348],
                        [88.3178520750728, 22.5414704209527],
                        [88.3178331949987, 22.5414368215516],
                        [88.3178297480663, 22.541430914626 ],
                        [88.3176605000212, 22.5415041886176]
                    ]
                ]
            },
            "properties": {
    "floor": "ground",
                "fill-opacity": 0,
                "stroke-opacity": 1,
                "stroke": "#ff0000",
                "pkuid": 10,
                "ID": "A-B9-H1",
                "REMARKS": "POLYGON-66"
            },
            "id": "polygon66.10"
        },
        {
            "type": "Feature",
            "geometry": {
                "type": "Polygon",
                "coordinates": [
                    [
                        [88.3176396784889, 22.5414682984828],
                        [88.3176605000212, 22.5415041886176],
                        [88.3178297480663, 22.541430914626 ],
                        [88.317808540301 , 22.5413945713862],
                        [88.3176396784889, 22.5414682984828]
                    ]
                ]
            },
            "properties": {
    "floor": "ground",
                "fill-opacity": 0,
                "stroke-opacity": 1,
                "stroke": "#ff0000",
                "pkuid": 11,
                "ID": "A-B10-H1",
                "REMARKS": "POLYGON-66"
            },
            "id": "polygon66.11"
        },
        {
            "type": "Feature",
            "geometry": {
                "type": "Polygon",
                "coordinates": [
                    [
                        [88.3176148211696, 22.5414254518504],
                        [88.3176396784889, 22.5414682984828],
                        [88.317808540301 , 22.5413945713862],
                        [88.317781166231 , 22.5413476610976],
                        [88.3176148211696, 22.5414254518504]
                    ]
                ]
            },
            "properties": {
    "floor": "ground",
                "fill-opacity": 0,
                "stroke-opacity": 1,
                "stroke": "#ff0000",
                "pkuid": 12,
                "ID": "A-B11-H1",
                "REMARKS": "POLYGON-66"
            },
            "id": "polygon66.12"
        },
        {
            "type": "Feature",
            "geometry": {
                "type": "Polygon",
                "coordinates": [
                    [
                        [88.3175924635393, 22.5413869139389],
                        [88.3176148211696, 22.5414254518504],
                        [88.317781166231 , 22.5413476610976],
                        [88.3177582833937, 22.5413084473269],
                        [88.3175924635393, 22.5413869139389]
                    ]
                ]
            },
            "properties": {
    "floor": "ground",
                "fill-opacity": 0,
                "stroke-opacity": 1,
                "stroke": "#ff0000",
                "pkuid": 13,
                "ID": "A-B12-H1",
                "REMARKS": "POLYGON-66"
            },
            "id": "polygon66.13"
        },
        {
            "type": "Feature",
            "geometry": {
                "type": "Polygon",
                "coordinates": [
                    [
                        [88.3175700798823, 22.5413483311654],
                        [88.3175924635393, 22.5413869139389],
                        [88.3177582833937, 22.5413084473269],
                        [88.3177339550303, 22.5412667563928],
                        [88.3175700798823, 22.5413483311654]
                    ]
                ]
            },
            "properties": {
    "floor": "ground",
                "fill-opacity": 0,
                "stroke-opacity": 1,
                "stroke": "#ff0000",
                "pkuid": 14,
                "ID": "A-B13-H1",
                "REMARKS": "POLYGON-66"
            },
            "id": "polygon66.14"
        },
        {
            "type": "Feature",
            "geometry": {
                "type": "Polygon",
                "coordinates": [
                    [
                        [88.3175476764782, 22.5413097143535],
                        [88.3175700798823, 22.5413483311654],
                        [88.3177339550303, 22.5412667563928],
                        [88.3177123886627, 22.5412297986247],
                        [88.3175476764782, 22.5413097143535]
                    ]
                ]
            },
            "properties": {
    "floor": "ground",
                "fill-opacity": 0,
                "stroke-opacity": 1,
                "stroke": "#ff0000",
                "pkuid": 15,
                "ID": "A-B14-H1",
                "REMARKS": "POLYGON-66"
            },
            "id": "polygon66.15"
        },
        {
            "type": "Feature",
            "geometry": {
                "type": "Polygon",
                "coordinates": [
                    [
                        [88.3175256801391, 22.5412717992009],
                        [88.3175476764782, 22.5413097143535],
                        [88.3177123886627, 22.5412297986247],
                        [88.3176907138727, 22.5411926550557],
                        [88.3175256801391, 22.5412717992009]
                    ]
                ]
            },
            "properties": {
    "floor": "ground",
                "fill-opacity": 0,
                "stroke-opacity": 1,
                "stroke": "#ff0000",
                "pkuid": 16,
                "ID": "A-B15-H1",
                "REMARKS": "POLYGON-66"
            },
            "id": "polygon66.16"
        },
        {
            "type": "Feature",
            "geometry": {
                "type": "Polygon",
                "coordinates": [
                    [
                        [88.3175041289462, 22.5412346513479],
                        [88.3175256801391, 22.5412717992009],
                        [88.3176907138727, 22.5411926550557],
                        [88.3176671461618, 22.5411522676336],
                        [88.3175041289462, 22.5412346513479]
                    ]
                ]
            },
            "properties": {
    "floor": "ground",
                "fill-opacity": 0,
                "stroke-opacity": 1,
                "stroke": "#ff0000",
                "pkuid": 17,
                "ID": "A-B16-H1",
                "REMARKS": "POLYGON-66"
            },
            "id": "polygon66.17"
        },
        {
            "type": "Feature",
            "geometry": {
                "type": "Polygon",
                "coordinates": [
                    [
                        [88.3175041289462, 22.5412346513479],
                        [88.3174782426062, 22.5411900309896],
                        [88.3173246523097, 22.5412622647411],
                        [88.3173532452049, 22.5413109031904],
                        [88.3175041289462, 22.5412346513479]
                    ]
                ]
            },
            "properties": {
    "floor": "ground",
                "fill-opacity": 0,
                "stroke-opacity": 1,
                "stroke": "#ff0000",
                "pkuid": 18,
                "ID": "A-B17-H2",
                "REMARKS": "POLYGON-66"
            },
            "id": "polygon66.18"
        },
        {
            "type": "Feature",
            "geometry": {
                "type": "Polygon",
                "coordinates": [
                    [
                        [88.3174565183329, 22.5411525847975],
                        [88.3174782426062, 22.5411900309896],
                        [88.3176437584332, 22.5411121886429],
                        [88.3176221466194, 22.5410751529949],
                        [88.3174565183329, 22.5411525847975]
                    ]
                ]
            },
            "properties": {
    "floor": "ground",
                "fill-opacity": 0,
                "stroke-opacity": 1,
                "stroke": "#ff0000",
                "pkuid": 19,
                "ID": "A-B18-H1",
                "REMARKS": "POLYGON-66"
            },
            "id": "polygon66.19"
        },
        {
            "type": "Feature",
            "geometry": {
                "type": "Polygon",
                "coordinates": [
                    [
                        [88.3174341607543, 22.5411140469753],
                        [88.3174565183329, 22.5411525847975],
                        [88.3176221466194, 22.5410751529949],
                        [88.317599295242 , 22.5410359931362],
                        [88.3174341607543, 22.5411140469753]
                    ]
                ]
            },
            "properties": {
    "floor": "ground",
                "fill-opacity": 0,
                "stroke-opacity": 1,
                "stroke": "#ff0000",
                "pkuid": 20,
                "ID": "A-B19-H1",
                "REMARKS": "POLYGON-66"
            },
            "id": "polygon66.20"
        },
        {
            "type": "Feature",
            "geometry": {
                "type": "Polygon",
                "coordinates": [
                    [
                        [88.3174097640684, 22.5410719943379],
                        [88.3174341607543, 22.5411140469753],
                        [88.317599295242 , 22.5410359931362],
                        [88.3175765069955, 22.5409969414636],
                        [88.3174097640684, 22.5410719943379]
                    ]
                ]
            },
            "properties": {
    "floor": "ground",
                "fill-opacity": 0,
                "stroke-opacity": 1,
                "stroke": "#ff0000",
                "pkuid": 21,
                "ID": "A-B20-H1",
                "REMARKS": "POLYGON-66"
            },
            "id": "polygon66.21"
        },
        {
            "type": "Feature",
            "geometry": {
                "type": "Polygon",
                "coordinates": [
                    [
                        [88.3173885061578, 22.5410353520166],
                        [88.3174097640684, 22.5410719943379],
                        [88.3175765069955, 22.5409969414636],
                        [88.3175549132233, 22.5409599367329],
                        [88.3173885061578, 22.5410353520166]
                    ]
                ]
            },
            "properties": {
    "floor": "ground",
                "fill-opacity": 0,
                "stroke-opacity": 1,
                "stroke": "#ff0000",
                "pkuid": 22,
                "ID": "A-B21-H1",
                "REMARKS": "POLYGON-66"
            },
            "id": "polygon66.22"
        },
        {
            "type": "Feature",
            "geometry": {
                "type": "Polygon",
                "coordinates": [
                    [
                        [88.3173677610474, 22.5409995936104],
                        [88.3173885061578, 22.5410353520166],
                        [88.3175549132233, 22.5409599367329],
                        [88.3175313226893, 22.5409195101994],
                        [88.3173677610474, 22.5409995936104]
                    ]
                ]
            },
            "properties": {
    "floor": "ground",
                "fill-opacity": 0,
                "stroke-opacity": 1,
                "stroke": "#ff0000",
                "pkuid": 23,
                "ID": "A-B22-H1",
                "REMARKS": "POLYGON-66"
            },
            "id": "polygon66.23"
        },
        {
            "type": "Feature",
            "geometry": {
                "type": "Polygon",
                "coordinates": [
                    [
                        [88.3173490043615, 22.5409672626572],
                        [88.3173677610474, 22.5409995936104],
                        [88.3175313226893, 22.5409195101994],
                        [88.3175114759726, 22.5408854993559],
                        [88.3173490043615, 22.5409672626572]
                    ]
                ]
            },
            "properties": {
    "floor": "ground",
                "fill-opacity": 0,
                "stroke-opacity": 1,
                "stroke": "#ff0000",
                "pkuid": 24,
                "ID": "A-B23-H1",
                "REMARKS": "POLYGON-66"
            },
            "id": "polygon66.24"
        },
        {
            "type": "Feature",
            "geometry": {
                "type": "Polygon",
                "coordinates": [
                    [
                        [88.3173276761476, 22.5409304991538],
                        [88.3173490043615, 22.5409672626572],
                        [88.3175114759726, 22.5408854993559],
                        [88.3174891007137, 22.5408471554103],
                        [88.3173276761476, 22.5409304991538]
                    ]
                ]
            },
            "properties": {
    "floor": "ground",
                "fill-opacity": 0,
                "stroke-opacity": 1,
                "stroke": "#ff0000",
                "pkuid": 25,
                "ID": "A-B24-H1",
                "REMARKS": "POLYGON-66"
            },
            "id": "polygon66.25"
        },
        {
            "type": "Feature",
            "geometry": {
                "type": "Polygon",
                "coordinates": [
                    [
                        [88.3173085343012, 22.5408975042983],
                        [88.3173276761476, 22.5409304991538],
                        [88.3174891007137, 22.5408471554103],
                        [88.3174681925502, 22.5408113255908],
                        [88.3173085343012, 22.5408975042983]
                    ]
                ]
            },
            "properties": {
    "floor": "ground",
                "fill-opacity": 0,
                "stroke-opacity": 1,
                "stroke": "#ff0000",
                "pkuid": 26,
                "ID": "A-B25-H1",
                "REMARKS": "POLYGON-66"
            },
            "id": "polygon66.26"
        },
        {
            "type": "Feature",
            "geometry": {
                "type": "Polygon",
                "coordinates": [
                    [
                        [88.3173085343012, 22.5408975042983],
                        [88.3172870485479, 22.5408604692439],
                        [88.3171331560205, 22.5409365165967],
                        [88.317157991203 , 22.5409787629224],
                        [88.3173085343012, 22.5408975042983]
                    ]
                ]
            },
            "properties": {
    "floor": "ground",
                "fill-opacity": 0,
                "stroke-opacity": 1,
                "stroke": "#ff0000",
                "pkuid": 27,
                "ID": "A-B26-H2",
                "REMARKS": "POLYGON-66"
            },
            "id": "polygon66.27"
        },
        {
            "type": "Feature",
            "geometry": {
                "type": "Polygon",
                "coordinates": [
                    [
                        [88.3172702906289, 22.5408315835709],
                        [88.3172870485479, 22.5408604692439],
                        [88.3174486901445, 22.5407805926201],
                        [88.3174311202461, 22.5407531600905],
                        [88.3172702906289, 22.5408315835709]
                    ]
                ]
            },
            "properties": {
    "floor": "ground",
                "fill-opacity": 0,
                "stroke-opacity": 1,
                "stroke": "#ff0000",
                "pkuid": 28,
                "ID": "A-B27-H1",
                "REMARKS": "POLYGON-66"
            },
            "id": "polygon66.28"
        },
        {
            "type": "Feature",
            "geometry": {
                "type": "Polygon",
                "coordinates": [
                    [
                        [88.3172546489667, 22.5408046219931],
                        [88.3172702906289, 22.5408315835709],
                        [88.3174311202461, 22.5407531600905],
                        [88.3174140020576, 22.5407264328322],
                        [88.3172546489667, 22.5408046219931]
                    ]
                ]
            },
            "properties": {
    "floor": "ground",
                "fill-opacity": 0,
                "stroke-opacity": 1,
                "stroke": "#ff0000",
                "pkuid": 29,
                "ID": "A-B28-H1",
                "REMARKS": "POLYGON-66"
            },
            "id": "polygon66.29"
        },
        {
            "type": "Feature",
            "geometry": {
                "type": "Polygon",
                "coordinates": [
                    [
                        [88.3172546489667, 22.5408046219931],
                        [88.3172358222121, 22.5407721702622],
                        [88.3170786666916, 22.5408438265614],
                        [88.3171001765895, 22.5408804163532],
                        [88.3172546489667, 22.5408046219931]
                    ]
                ]
            },
            "properties": {
    "floor": "ground",
                "fill-opacity": 0,
                "stroke-opacity": 1,
                "stroke": "#ff0000",
                "pkuid": 30,
                "ID": "A-B29-H2",
                "REMARKS": "POLYGON-66"
            },
            "id": "polygon66.30"
        },
        {
            "type": "Feature",
            "geometry": {
                "type": "Polygon",
                "coordinates": [
                    [
                        [88.3172169814732, 22.5407396944266],
                        [88.3172358222121, 22.5407721702622],
                        [88.3173964017162, 22.5406989527708],
                        [88.3173749294253, 22.5406654272921],
                        [88.3172169814732, 22.5407396944266]
                    ]
                ]
            },
            "properties": {
    "floor": "ground",
                "fill-opacity": 0,
                "stroke-opacity": 1,
                "stroke": "#ff0000",
                "pkuid": 31,
                "ID": "A-B30-H1",
                "REMARKS": "POLYGON-66"
            },
            "id": "polygon66.31"
        },
        {
            "type": "Feature",
            "geometry": {
                "type": "Polygon",
                "coordinates": [
                    [
                        [88.3171997252055, 22.5407099497485],
                        [88.3172169814732, 22.5407396944266],
                        [88.3173749294253, 22.5406654272921],
                        [88.317354887278 , 22.5406341347491],
                        [88.3171997252055, 22.5407099497485]
                    ]
                ]
            },
            "properties": {
    "floor": "ground",
                "fill-opacity": 0,
                "stroke-opacity": 1,
                "stroke": "#ff0000",
                "pkuid": 32,
                "ID": "A-B31-H1",
                "REMARKS": "POLYGON-66"
            },
            "id": "polygon66.32"
        },
        {
            "type": "Feature",
            "geometry": {
                "type": "Polygon",
                "coordinates": [
                    [
                        [88.3171822657994, 22.5406798549203],
                        [88.3171997252055, 22.5407099497485],
                        [88.317354887278 , 22.5406341347491],
                        [88.3173355422067, 22.5406039305766],
                        [88.3171822657994, 22.5406798549203]
                    ]
                ]
            },
            "properties": {
    "floor": "ground",
                "fill-opacity": 0,
                "stroke-opacity": 1,
                "stroke": "#ff0000",
                "pkuid": 33,
                "ID": "A-B32-H1",
                "REMARKS": "POLYGON-66"
            },
            "id": "polygon66.33"
        },
        {
            "type": "Feature",
            "geometry": {
                "type": "Polygon",
                "coordinates": [
                    [
                        [88.3171822657994, 22.5406798549203],
                        [88.3171569306706, 22.5406361846863],
                        [88.3170001905507, 22.5407103333362],
                        [88.3170273763738, 22.5407565782607],
                        [88.3171822657994, 22.5406798549203]
                    ]
                ]
            },
            "properties": {
    "floor": "ground",
                "fill-opacity": 0,
                "stroke-opacity": 1,
                "stroke": "#ff0000",
                "pkuid": 34,
                "ID": "A-B33-H2",
                "REMARKS": "POLYGON-66"
            },
            "id": "polygon66.34"
        },
        {
            "type": "Feature",
            "geometry": {
                "type": "Polygon",
                "coordinates": [
                    [
                        [88.3171291396042, 22.5405882811456],
                        [88.3171569306706, 22.5406361846863],
                        [88.3173098633406, 22.5405638372171],
                        [88.3172806933344, 22.5405182930118],
                        [88.3171291396042, 22.5405882811456]
                    ]
                ]
            },
            "properties": {
    "floor": "ground",
                "fill-opacity": 0,
                "stroke-opacity": 1,
                "stroke": "#ff0000",
                "pkuid": 35,
                "ID": "A-B34-H1",
                "REMARKS": "POLYGON-66"
            },
            "id": "polygon66.35"
        },
        {
            "type": "Feature",
            "geometry": {
                "type": "Polygon",
                "coordinates": [
                    [
                        [88.3178599439792, 22.541847970739 ],
                        [88.3178414766395, 22.5418161385328],
                        [88.3176906579961, 22.5418836236002],
                        [88.3177094346259, 22.5419144539769],
                        [88.3178599439792, 22.541847970739 ]
                    ]
                ]
            },
            "properties": {
    "floor": "ground",
                "fill-opacity": 0,
                "stroke-opacity": 1,
                "stroke": "#ff0000",
                "pkuid": 36,
                "ID": "A-B1-H2",
                "REMARKS": "POLYGON-66"
            },
            "id": "polygon66.36"
        },
        {
            "type": "Feature",
            "geometry": {
                "type": "Polygon",
                "coordinates": [
                    [
                        [88.3178414766395, 22.5418161385328],
                        [88.3178183540419, 22.541776282045 ],
                        [88.3176658034608, 22.5418425859312],
                        [88.3176696545061, 22.5418491368197],
                        [88.3176906579961, 22.5418836236002],
                        [88.3178414766395, 22.5418161385328]
                    ]
                ]
            },
            "properties": {
    "floor": "ground",
                "fill-opacity": 0,
                "stroke-opacity": 1,
                "stroke": "#ff0000",
                "pkuid": 37,
                "ID": "A-B2-H2",
                "REMARKS": "POLYGON-66"
            },
            "id": "polygon66.37"
        },
        {
            "type": "Feature",
            "geometry": {
                "type": "Polygon",
                "coordinates": [
                    [
                        [88.3178183540419, 22.541776282045 ],
                        [88.3177991800462, 22.5417432317738],
                        [88.3176471572639, 22.5418108674886],
                        [88.3176658034608, 22.5418425859312],
                        [88.3178183540419, 22.541776282045 ]
                    ]
                ]
            },
            "properties": {
    "floor": "ground",
                "fill-opacity": 0,
                "stroke-opacity": 1,
                "stroke": "#ff0000",
                "pkuid": 38,
                "ID": "A-B3-H2",
                "REMARKS": "POLYGON-66"
            },
            "id": "polygon66.38"
        },
        {
            "type": "Feature",
            "geometry": {
                "type": "Polygon",
                "coordinates": [
                    [
                        [88.3177991800462, 22.5417432317738],
                        [88.3177767626524, 22.5417045908479],
                        [88.3176245034256, 22.541772331777 ],
                        [88.3176471572639, 22.5418108674886],
                        [88.3177991800462, 22.5417432317738]
                    ]
                ]
            },
            "properties": {
    "floor": "ground",
                "fill-opacity": 0,
                "stroke-opacity": 1,
                "stroke": "#ff0000",
                "pkuid": 39,
                "ID": "A-B4-H2",
                "REMARKS": "POLYGON-66"
            },
            "id": "polygon66.39"
        },
        {
            "type": "Feature",
            "geometry": {
                "type": "Polygon",
                "coordinates": [
                    [
                        [88.3177767626524, 22.5417045908479],
                        [88.3177532480347, 22.5416640586341],
                        [88.3175991573645, 22.5417292164121],
                        [88.3176245034256, 22.541772331777 ],
                        [88.3177767626524, 22.5417045908479]
                    ]
                ]
            },
            "properties": {
    "floor": "ground",
                "fill-opacity": 0,
                "stroke-opacity": 1,
                "stroke": "#ff0000",
                "pkuid": 40,
                "ID": "A-B5-H2",
                "REMARKS": "POLYGON-66"
            },
            "id": "polygon66.40"
        },
        {
            "type": "Feature",
            "geometry": {
                "type": "Polygon",
                "coordinates": [
                    [
                        [88.3177532480347, 22.5416640586341],
                        [88.3177310921285, 22.541625868435 ],
                        [88.317576851746 , 22.5416912730458],
                        [88.3175991573645, 22.5417292164121],
                        [88.3177532480347, 22.5416640586341]
                    ]
                ]
            },
            "properties": {
    "floor": "ground",
                "fill-opacity": 0,
                "stroke-opacity": 1,
                "stroke": "#ff0000",
                "pkuid": 41,
                "ID": "A-B6-H2",
                "REMARKS": "POLYGON-66"
            },
            "id": "polygon66.41"
        },
        {
            "type": "Feature",
            "geometry": {
                "type": "Polygon",
                "coordinates": [
                    [
                        [88.3177310921285, 22.541625868435 ],
                        [88.3177068883962, 22.5415841483924],
                        [88.317553628315 , 22.5416517684184],
                        [88.317576851746 , 22.5416912730458],
                        [88.3177310921285, 22.541625868435 ]
                    ]
                ]
            },
            "properties": {
    "floor": "ground",
                "fill-opacity": 0,
                "stroke-opacity": 1,
                "stroke": "#ff0000",
                "pkuid": 42,
                "ID": "A-B7-H2",
                "REMARKS": "POLYGON-66"
            },
            "id": "polygon66.42"
        },
        {
            "type": "Feature",
            "geometry": {
                "type": "Polygon",
                "coordinates": [
                    [
                        [88.3177068883962, 22.5415841483924],
                        [88.3176832719374, 22.5415434406348],
                        [88.3175291408506, 22.5416101135846],
                        [88.317553628315 , 22.5416517684184],
                        [88.3177068883962, 22.5415841483924]
                    ]
                ]
            },
            "properties": {
    "floor": "ground",
                "fill-opacity": 0,
                "stroke-opacity": 1,
                "stroke": "#ff0000",
                "pkuid": 43,
                "ID": "A-B8-H2",
                "REMARKS": "POLYGON-66"
            },
            "id": "polygon66.43"
        },
        {
            "type": "Feature",
            "geometry": {
                "type": "Polygon",
                "coordinates": [
                    [
                        [88.3176832719374, 22.5415434406348],
                        [88.3176605000212, 22.5415041886176],
                        [88.3175061537905, 22.5415710110403],
                        [88.3175291408506, 22.5416101135846],
                        [88.3176832719374, 22.5415434406348]
                    ]
                ]
            },
            "properties": {
    "floor": "ground",
                "fill-opacity": 0,
                "stroke-opacity": 1,
                "stroke": "#ff0000",
                "pkuid": 44,
                "ID": "A-B9-H2",
                "REMARKS": "POLYGON-66"
            },
            "id": "polygon66.44"
        },
        {
            "type": "Feature",
            "geometry": {
                "type": "Polygon",
                "coordinates": [
                    [
                        [88.3176605000212, 22.5415041886176],
                        [88.3176396784889, 22.5414682984828],
                        [88.317485377025 , 22.5415356683564],
                        [88.3175061537905, 22.5415710110403],
                        [88.3176605000212, 22.5415041886176]
                    ]
                ]
            },
            "properties": {
    "floor": "ground",
                "fill-opacity": 0,
                "stroke-opacity": 1,
                "stroke": "#ff0000",
                "pkuid": 45,
                "ID": "A-B10-H2",
                "REMARKS": "POLYGON-66"
            },
            "id": "polygon66.45"
        },
        {
            "type": "Feature",
            "geometry": {
                "type": "Polygon",
                "coordinates": [
                    [
                        [88.3176396784889, 22.5414682984828],
                        [88.3176148211696, 22.5414254518504],
                        [88.3174624683613, 22.5414966991693],
                        [88.317485377025 , 22.5415356683564],
                        [88.3176396784889, 22.5414682984828]
                    ]
                ]
            },
            "properties": {
    "floor": "ground",
                "fill-opacity": 0,
                "stroke-opacity": 1,
                "stroke": "#ff0000",
                "pkuid": 46,
                "ID": "A-B11-H2",
                "REMARKS": "POLYGON-66"
            },
            "id": "polygon66.46"
        },
        {
            "type": "Feature",
            "geometry": {
                "type": "Polygon",
                "coordinates": [
                    [
                        [88.3176148211696, 22.5414254518504],
                        [88.3175924635393, 22.5413869139389],
                        [88.3174402673645, 22.5414589337718],
                        [88.3174624683613, 22.5414966991693],
                        [88.3176148211696, 22.5414254518504]
                    ]
                ]
            },
            "properties": {
    "floor": "ground",
                "fill-opacity": 0,
                "stroke-opacity": 1,
                "stroke": "#ff0000",
                "pkuid": 47,
                "ID": "A-B12-H2",
                "REMARKS": "POLYGON-66"
            },
            "id": "polygon66.47"
        },
        {
            "type": "Feature",
            "geometry": {
                "type": "Polygon",
                "coordinates": [
                    [
                        [88.3175924635393, 22.5413869139389],
                        [88.3175700798823, 22.5413483311654],
                        [88.3174193547697, 22.541423360033 ],
                        [88.3174402673645, 22.5414589337718],
                        [88.3175924635393, 22.5413869139389]
                    ]
                ]
            },
            "properties": {
    "floor": "ground",
                "fill-opacity": 0,
                "stroke-opacity": 1,
                "stroke": "#ff0000",
                "pkuid": 48,
                "ID": "A-B13-H2",
                "REMARKS": "POLYGON-66"
            },
            "id": "polygon66.48"
        },
        {
            "type": "Feature",
            "geometry": {
                "type": "Polygon",
                "coordinates": [
                    [
                        [88.3175700798823, 22.5413483311654],
                        [88.3175476764782, 22.5413097143535],
                        [88.3173958506007, 22.5413833778513],
                        [88.3174193547697, 22.541423360033 ],
                        [88.3175700798823, 22.5413483311654]
                    ]
                ]
            },
            "properties": {
    "floor": "ground",
                "fill-opacity": 0,
                "stroke-opacity": 1,
                "stroke": "#ff0000",
                "pkuid": 49,
                "ID": "A-B14-H2",
                "REMARKS": "POLYGON-66"
            },
            "id": "polygon66.49"
        },
        {
            "type": "Feature",
            "geometry": {
                "type": "Polygon",
                "coordinates": [
                    [
                        [88.3175476764782, 22.5413097143535],
                        [88.3175256801391, 22.5412717992009],
                        [88.317373234602 , 22.5413449065073],
                        [88.3173958506007, 22.5413833778513],
                        [88.3175476764782, 22.5413097143535]
                    ]
                ]
            },
            "properties": {
    "floor": "ground",
                "fill-opacity": 0,
                "stroke-opacity": 1,
                "stroke": "#ff0000",
                "pkuid": 50,
                "ID": "A-B15-H2",
                "REMARKS": "POLYGON-66"
            },
            "id": "polygon66.50"
        },
        {
            "type": "Feature",
            "geometry": {
                "type": "Polygon",
                "coordinates": [
                    [
                        [88.3175256801391, 22.5412717992009],
                        [88.3175041289462, 22.5412346513479],
                        [88.3173532452049, 22.5413109031904],
                        [88.317373234602 , 22.5413449065073],
                        [88.3175256801391, 22.5412717992009]
                    ]
                ]
            },
            "properties": {
    "floor": "ground",
                "fill-opacity": 0,
                "stroke-opacity": 1,
                "stroke": "#ff0000",
                "pkuid": 51,
                "ID": "A-B16-H2",
                "REMARKS": "POLYGON-66"
            },
            "id": "polygon66.51"
        },
        {
            "type": "Feature",
            "geometry": {
                "type": "Polygon",
                "coordinates": [
                    [
                        [88.3174782426062, 22.5411900309896],
                        [88.3175041289462, 22.5412346513479],
                        [88.3176671461618, 22.5411522676336],
                        [88.3176437584332, 22.5411121886429],
                        [88.3174782426062, 22.5411900309896]
                    ]
                ]
            },
            "properties": {
    "floor": "ground",
                "fill-opacity": 0,
                "stroke-opacity": 1,
                "stroke": "#ff0000",
                "pkuid": 52,
                "ID": "A-B17-H1",
                "REMARKS": "POLYGON-65"
            },
            "id": "polygon66.52"
        },
        {
            "type": "Feature",
            "geometry": {
                "type": "Polygon",
                "coordinates": [
                    [
                        [88.3174782426062, 22.5411900309896],
                        [88.3174565183329, 22.5411525847975],
                        [88.3173025031093, 22.5412245874526],
                        [88.3173246523097, 22.5412622647411],
                        [88.3174782426062, 22.5411900309896]
                    ]
                ]
            },
            "properties": {
    "floor": "ground",
                "fill-opacity": 0,
                "stroke-opacity": 1,
                "stroke": "#ff0000",
                "pkuid": 53,
                "ID": "A-B18-H2",
                "REMARKS": "POLYGON-66"
            },
            "id": "polygon66.53"
        },
        {
            "type": "Feature",
            "geometry": {
                "type": "Polygon",
                "coordinates": [
                    [
                        [88.3174565183329, 22.5411525847975],
                        [88.3174341607543, 22.5411140469753],
                        [88.3172802786619, 22.5411867821639],
                        [88.3173025031093, 22.5412245874526],
                        [88.3174565183329, 22.5411525847975]
                    ]
                ]
            },
            "properties": {
    "floor": "ground",
                "fill-opacity": 0,
                "stroke-opacity": 1,
                "stroke": "#ff0000",
                "pkuid": 54,
                "ID": "A-B19-H2",
                "REMARKS": "POLYGON-66"
            },
            "id": "polygon66.54"
        },
        {
            "type": "Feature",
            "geometry": {
                "type": "Polygon",
                "coordinates": [
                    [
                        [88.3174341607543, 22.5411140469753],
                        [88.3174097640684, 22.5410719943379],
                        [88.3172540116783, 22.5411421002475],
                        [88.3172802786619, 22.5411867821639],
                        [88.3174341607543, 22.5411140469753]
                    ]
                ]
            },
            "properties": {
    "floor": "ground",
                "fill-opacity": 0,
                "stroke-opacity": 1,
                "stroke": "#ff0000",
                "pkuid": 55,
                "ID": "A-B20-H2",
                "REMARKS": "POLYGON-66"
            },
            "id": "polygon66.55"
        },
        {
            "type": "Feature",
            "geometry": {
                "type": "Polygon",
                "coordinates": [
                    [
                        [88.3174097640684, 22.5410719943379],
                        [88.3173885061578, 22.5410353520166],
                        [88.3172327535466, 22.5411059387272],
                        [88.3172540116783, 22.5411421002475],
                        [88.3174097640684, 22.5410719943379]
                    ]
                ]
            },
            "properties": {
    "floor": "ground",
                "fill-opacity": 0,
                "stroke-opacity": 1,
                "stroke": "#ff0000",
                "pkuid": 56,
                "ID": "A-B21-H2",
                "REMARKS": "POLYGON-66"
            },
            "id": "polygon66.56"
        },
        {
            "type": "Feature",
            "geometry": {
                "type": "Polygon",
                "coordinates": [
                    [
                        [88.3173885061578, 22.5410353520166],
                        [88.3173677610474, 22.5409995936104],
                        [88.3172143837865, 22.5410746905224],
                        [88.3172327535466, 22.5411059387272],
                        [88.3173885061578, 22.5410353520166]
                    ]
                ]
            },
            "properties": {
    "floor": "ground",
                "fill-opacity": 0,
                "stroke-opacity": 1,
                "stroke": "#ff0000",
                "pkuid": 57,
                "ID": "A-B22-H2",
                "REMARKS": "POLYGON-66"
            },
            "id": "polygon66.57"
        },
        {
            "type": "Feature",
            "geometry": {
                "type": "Polygon",
                "coordinates": [
                    [
                        [88.3173677610474, 22.5409995936104],
                        [88.3173490043615, 22.5409672626572],
                        [88.3171963824948, 22.5410440691072],
                        [88.3172143837865, 22.5410746905224],
                        [88.3173677610474, 22.5409995936104]
                    ]
                ]
            },
            "properties": {
    "floor": "ground",
                "fill-opacity": 0,
                "stroke-opacity": 1,
                "stroke": "#ff0000",
                "pkuid": 58,
                "ID": "A-B23-H2",
                "REMARKS": "POLYGON-66"
            },
            "id": "polygon66.58"
        },
        {
            "type": "Feature",
            "geometry": {
                "type": "Polygon",
                "coordinates": [
                    [
                        [88.3173490043615, 22.5409672626572],
                        [88.3173276761476, 22.5409304991538],
                        [88.3171757351229, 22.5410089465307],
                        [88.3171963824948, 22.5410440691072],
                        [88.3173490043615, 22.5409672626572]
                    ]
                ]
            },
            "properties": {
    "floor": "ground",
                "fill-opacity": 0,
                "stroke-opacity": 1,
                "stroke": "#ff0000",
                "pkuid": 59,
                "ID": "A-B24-H2",
                "REMARKS": "POLYGON-66"
            },
            "id": "polygon66.59"
        },
        {
            "type": "Feature",
            "geometry": {
                "type": "Polygon",
                "coordinates": [
                    [
                        [88.3173276761476, 22.5409304991538],
                        [88.3173085343012, 22.5408975042983],
                        [88.317157991203 , 22.5409787629224],
                        [88.3171757351229, 22.5410089465307],
                        [88.3173276761476, 22.5409304991538]
                    ]
                ]
            },
            "properties": {
    "floor": "ground",
                "fill-opacity": 0,
                "stroke-opacity": 1,
                "stroke": "#ff0000",
                "pkuid": 60,
                "ID": "A-B25-H2",
                "REMARKS": "POLYGON-66"
            },
            "id": "polygon66.60"
        },
        {
            "type": "Feature",
            "geometry": {
                "type": "Polygon",
                "coordinates": [
                    [
                        [88.3172870485479, 22.5408604692439],
                        [88.3173085343012, 22.5408975042983],
                        [88.3174681925502, 22.5408113255908],
                        [88.3174663338936, 22.5408081404555],
                        [88.3174486901445, 22.5407805926201],
                        [88.3172870485479, 22.5408604692439]
                    ]
                ]
            },
            "properties": {
    "floor": "ground",
                "fill-opacity": 0,
                "stroke-opacity": 1,
                "stroke": "#ff0000",
                "pkuid": 61,
                "ID": "A-B26-H1",
                "REMARKS": "POLYGON-66"
            },
            "id": "polygon66.61"
        },
        {
            "type": "Feature",
            "geometry": {
                "type": "Polygon",
                "coordinates": [
                    [
                        [88.3172870485479, 22.5408604692439],
                        [88.3172702906289, 22.5408315835709],
                        [88.3171157649162, 22.5409069331516],
                        [88.3171331560205, 22.5409365165967],
                        [88.3172870485479, 22.5408604692439]
                    ]
                ]
            },
            "properties": {
    "floor": "ground",
                "fill-opacity": 0,
                "stroke-opacity": 1,
                "stroke": "#ff0000",
                "pkuid": 62,
                "ID": "A-B27-H2",
                "REMARKS": "POLYGON-66"
            },
            "id": "polygon66.62"
        },
        {
            "type": "Feature",
            "geometry": {
                "type": "Polygon",
                "coordinates": [
                    [
                        [88.3172702906289, 22.5408315835709],
                        [88.3172546489667, 22.5408046219931],
                        [88.3171001765895, 22.5408804163532],
                        [88.3171157649162, 22.5409069331516],
                        [88.3172702906289, 22.5408315835709]
                    ]
                ]
            },
            "properties": {
    "floor": "ground",
                "fill-opacity": 0,
                "stroke-opacity": 1,
                "stroke": "#ff0000",
                "pkuid": 63,
                "ID": "A-B28-H2",
                "REMARKS": "POLYGON-66"
            },
            "id": "polygon66.63"
        },
        {
            "type": "Feature",
            "geometry": {
                "type": "Polygon",
                "coordinates": [
                    [
                        [88.3172358222121, 22.5407721702622],
                        [88.3172546489667, 22.5408046219931],
                        [88.3174140020576, 22.5407264328322],
                        [88.3173964017162, 22.5406989527708],
                        [88.3172358222121, 22.5407721702622]
                    ]
                ]
            },
            "properties": {
    "floor": "ground",
                "fill-opacity": 0,
                "stroke-opacity": 1,
                "stroke": "#ff0000",
                "pkuid": 64,
                "ID": "A-B29-H1",
                "REMARKS": "POLYGON-66"
            },
            "id": "polygon66.64"
        },
        {
            "type": "Feature",
            "geometry": {
                "type": "Polygon",
                "coordinates": [
                    [
                        [88.3172358222121, 22.5407721702622],
                        [88.3172169814732, 22.5407396944266],
                        [88.3170606603823, 22.540813196611 ],
                        [88.3170786666916, 22.5408438265614],
                        [88.3172358222121, 22.5407721702622]
                    ]
                ]
            },
            "properties": {
    "floor": "ground",
                "fill-opacity": 0,
                "stroke-opacity": 1,
                "stroke": "#ff0000",
                "pkuid": 65,
                "ID": "A-B30-H2",
                "REMARKS": "POLYGON-66"
            },
            "id": "polygon66.65"
        },
        {
            "type": "Feature",
            "geometry": {
                "type": "Polygon",
                "coordinates": [
                    [
                        [88.3172169814732, 22.5407396944266],
                        [88.3171997252055, 22.5407099497485],
                        [88.3170445405942, 22.5407857757608],
                        [88.3170606603823, 22.540813196611 ],
                        [88.3172169814732, 22.5407396944266]
                    ]
                ]
            },
            "properties": {
    "floor": "ground",
                "fill-opacity": 0,
                "stroke-opacity": 1,
                "stroke": "#ff0000",
                "pkuid": 66,
                "ID": "A-B31-H2",
                "REMARKS": "POLYGON-66"
            },
            "id": "polygon66.66"
        },
        {
            "type": "Feature",
            "geometry": {
                "type": "Polygon",
                "coordinates": [
                    [
                        [88.3171997252055, 22.5407099497485],
                        [88.3171822657994, 22.5406798549203],
                        [88.3170273763738, 22.5407565782607],
                        [88.3170445405942, 22.5407857757608],
                        [88.3171997252055, 22.5407099497485]
                    ]
                ]
            },
            "properties": {
    "floor": "ground",
                "fill-opacity": 0,
                "stroke-opacity": 1,
                "stroke": "#ff0000",
                "pkuid": 67,
                "ID": "A-B32-H2",
                "REMARKS": "POLYGON-66"
            },
            "id": "polygon66.67"
        },
        {
            "type": "Feature",
            "geometry": {
                "type": "Polygon",
                "coordinates": [
                    [
                        [88.3171569306706, 22.5406361846863],
                        [88.3171822657994, 22.5406798549203],
                        [88.3173355422067, 22.5406039305766],
                        [88.3173098633406, 22.5405638372171],
                        [88.3171569306706, 22.5406361846863]
                    ]
                ]
            },
            "properties": {
    "floor": "ground",
                "fill-opacity": 0,
                "stroke-opacity": 1,
                "stroke": "#ff0000",
                "pkuid": 68,
                "ID": "A-B33-H1",
                "REMARKS": "POLYGON-66"
            },
            "id": "polygon66.68"
        }
    ]
}
