{
    "type": "FeatureCollection", 
    "features": [
        {
            "type": "Feature", 
            "geometry": {
                "type": "Polygon", 
                "coordinates": [
                    [
                        [88.3132083361738, 22.5403557336308], 
                        [88.313241930406 , 22.5404160247901], 
                        [88.3134205967808, 22.5403292184779], 
                        [88.3133852976301, 22.54026502686  ], 
                        [88.3132083361738, 22.5403557336308]  
                    ]
                ]
            }, 
            "properties": {
    "floor": "ground",
                "fill-opacity": 0, 
                "stroke-opacity": 1, 
                "stroke": "#ff0000", 
                "pkuid": 1, 
                "ID": "10ST-B11-H1", 
                "REMARKS": "POLYGON-70"
            }, 
            "id": "poly70.1"
        }, 
        {
            "type": "Feature", 
            "geometry": {
                "type": "Polygon", 
                "coordinates": [
                    [
                        [88.3135576872558, 22.540982709762 ], 
                        [88.3135958914976, 22.5410512744493], 
                        [88.3137686672309, 22.5409621857004], 
                        [88.3137294482614, 22.5408908658794], 
                        [88.3135576872558, 22.540982709762 ]  
                    ]
                ]
            }, 
            "properties": {
    "floor": "ground",
                "fill-opacity": 0, 
                "stroke-opacity": 1, 
                "stroke": "#ff0000", 
                "pkuid": 2, 
                "ID": "10ST-B1-H1", 
                "REMARKS": "POLYGON-70"
            }, 
            "id": "poly70.2"
        }, 
        {
            "type": "Feature", 
            "geometry": {
                "type": "Polygon", 
                "coordinates": [
                    [
                        [88.3135576872558, 22.540982709762 ], 
                        [88.3135214118398, 22.5409176067147], 
                        [88.313349107262 , 22.5410057189841], 
                        [88.3133719833787, 22.5410444741129], 
                        [88.3133874910884, 22.5410737168958], 
                        [88.3135576872558, 22.540982709762 ]  
                    ]
                ]
            }, 
            "properties": {
    "floor": "ground",
                "fill-opacity": 0, 
                "stroke-opacity": 1, 
                "stroke": "#ff0000", 
                "pkuid": 3, 
                "ID": "10ST-B2-H2", 
                "REMARKS": "POLYGON-70"
            }, 
            "id": "poly70.3"
        }, 
        {
            "type": "Feature", 
            "geometry": {
                "type": "Polygon", 
                "coordinates": [
                    [
                        [88.3135214118398, 22.5409176067147], 
                        [88.3134858116475, 22.5408537154834], 
                        [88.3133116570872, 22.5409422734979], 
                        [88.313349107262 , 22.5410057189841], 
                        [88.3135214118398, 22.5409176067147]  
                    ]
                ]
            }, 
            "properties": {
    "floor": "ground",
                "fill-opacity": 0, 
                "stroke-opacity": 1, 
                "stroke": "#ff0000", 
                "pkuid": 4, 
                "ID": "10ST-B3-H2", 
                "REMARKS": "POLYGON-70"
            }, 
            "id": "poly70.4"
        }, 
        {
            "type": "Feature", 
            "geometry": {
                "type": "Polygon", 
                "coordinates": [
                    [
                        [88.3134500685352, 22.5407895677551], 
                        [88.3134858116475, 22.5408537154834], 
                        [88.313660243356 , 22.5407650165384], 
                        [88.3136232705455, 22.5406977813648], 
                        [88.3134500685352, 22.5407895677551]  
                    ]
                ]
            }, 
            "properties": {
    "floor": "ground",
                "fill-opacity": 0, 
                "stroke-opacity": 1, 
                "stroke": "#ff0000", 
                "pkuid": 5, 
                "ID": "10ST-B4-H1", 
                "REMARKS": "POLYGON-70"
            }, 
            "id": "poly70.5"
        }, 
        {
            "type": "Feature", 
            "geometry": {
                "type": "Polygon", 
                "coordinates": [
                    [
                        [88.3134090403365, 22.5407159349466], 
                        [88.3134500685352, 22.5407895677551], 
                        [88.3136232705455, 22.5406977813648], 
                        [88.3135814959772, 22.5406218141792], 
                        [88.3134090403365, 22.5407159349466]  
                    ]
                ]
            }, 
            "properties": {
    "floor": "ground",
                "fill-opacity": 0, 
                "stroke-opacity": 1, 
                "stroke": "#ff0000", 
                "pkuid": 6, 
                "ID": "10ST-B5-H1", 
                "REMARKS": "POLYGON-70"
            }, 
            "id": "poly70.6"
        }, 
        {
            "type": "Feature", 
            "geometry": {
                "type": "Polygon", 
                "coordinates": [
                    [
                        [88.3134090403365, 22.5407159349466], 
                        [88.3133779300752, 22.5406601017397], 
                        [88.3132015912628, 22.5407558076196], 
                        [88.3132343366697, 22.5408112826146], 
                        [88.3134090403365, 22.5407159349466]  
                    ]
                ]
            }, 
            "properties": {
    "floor": "ground",
                "fill-opacity": 0, 
                "stroke-opacity": 1, 
                "stroke": "#ff0000", 
                "pkuid": 7, 
                "ID": "10ST-B6-H2", 
                "REMARKS": "POLYGON-70"
            }, 
            "id": "poly70.7"
        }, 
        {
            "type": "Feature", 
            "geometry": {
                "type": "Polygon", 
                "coordinates": [
                    [
                        [88.3133779300752, 22.5406601017397], 
                        [88.3133385436329, 22.5405894153715], 
                        [88.3131573130282, 22.5406807945085], 
                        [88.3132015912628, 22.5407558076196], 
                        [88.3133779300752, 22.5406601017397]  
                    ]
                ]
            }, 
            "properties": {
    "floor": "ground",
                "fill-opacity": 0, 
                "stroke-opacity": 1, 
                "stroke": "#ff0000", 
                "pkuid": 8, 
                "ID": "10ST-B7-H2", 
                "REMARKS": "POLYGON-70"
            }, 
            "id": "poly70.8"
        }, 
        {
            "type": "Feature", 
            "geometry": {
                "type": "Polygon", 
                "coordinates": [
                    [
                        [88.3133385436329, 22.5405894153715], 
                        [88.3133081707698, 22.5405349055642], 
                        [88.3131257654043, 22.5406273487142], 
                        [88.3131573130282, 22.5406807945085], 
                        [88.3133385436329, 22.5405894153715]  
                    ]
                ]
            }, 
            "properties": {
    "floor": "ground",
                "fill-opacity": 0, 
                "stroke-opacity": 1, 
                "stroke": "#ff0000", 
                "pkuid": 9, 
                "ID": "10ST-B8-H2", 
                "REMARKS": "POLYGON-70"
            }, 
            "id": "poly70.9"
        }, 
        {
            "type": "Feature", 
            "geometry": {
                "type": "Polygon", 
                "coordinates": [
                    [
                        [88.3133081707698, 22.5405349055642], 
                        [88.3132755056713, 22.5404762819097], 
                        [88.3130879757855, 22.5405633281656], 
                        [88.3131257654043, 22.5406273487142], 
                        [88.3133081707698, 22.5405349055642]  
                    ]
                ]
            }, 
            "properties": {
    "floor": "ground",
                "fill-opacity": 0, 
                "stroke-opacity": 1, 
                "stroke": "#ff0000", 
                "pkuid": 10, 
                "ID": "10ST-B9-H2", 
                "REMARKS": "POLYGON-70"
            }, 
            "id": "poly70.10"
        }, 
        {
            "type": "Feature", 
            "geometry": {
                "type": "Polygon", 
                "coordinates": [
                    [
                        [88.313241930406 , 22.5404160247901], 
                        [88.3132755056713, 22.5404762819097], 
                        [88.3134555189955, 22.5403927246366], 
                        [88.3134205967808, 22.5403292184779], 
                        [88.313241930406 , 22.5404160247901]  
                    ]
                ]
            }, 
            "properties": {
    "floor": "ground",
                "fill-opacity": 0, 
                "stroke-opacity": 1, 
                "stroke": "#ff0000", 
                "pkuid": 11, 
                "ID": "10ST-B10-H1", 
                "REMARKS": "POLYGON-70"
            }, 
            "id": "poly70.11"
        }, 
        {
            "type": "Feature", 
            "geometry": {
                "type": "Polygon", 
                "coordinates": [
                    [
                        [88.3132083361738, 22.5403557336308], 
                        [88.3131790908495, 22.5403032474035], 
                        [88.3129880273506, 22.5403940024659], 
                        [88.3130218591193, 22.5404513178998], 
                        [88.3132083361738, 22.5403557336308]  
                    ]
                ]
            }, 
            "properties": {
    "floor": "ground",
                "fill-opacity": 0, 
                "stroke-opacity": 1, 
                "stroke": "#ff0000", 
                "pkuid": 12, 
                "ID": "10ST-B12-H2", 
                "REMARKS": "POLYGON-70"
            }, 
            "id": "poly70.12"
        }, 
        {
            "type": "Feature", 
            "geometry": {
                "type": "Polygon", 
                "coordinates": [
                    [
                        [88.313241930406 , 22.5404160247901], 
                        [88.3132083361738, 22.5403557336308], 
                        [88.3130218591193, 22.5404513178998], 
                        [88.3130547171365, 22.5405069836713], 
                        [88.313241930406 , 22.5404160247901]  
                    ]
                ]
            }, 
            "properties": {
    "floor": "ground",
                "fill-opacity": 0, 
                "stroke-opacity": 1, 
                "stroke": "#ff0000", 
                "pkuid": 13, 
                "ID": "10ST-B11-H2", 
                "REMARKS": "POLYGON-70"
            }, 
            "id": "poly70.13"
        }, 
        {
            "type": "Feature", 
            "geometry": {
                "type": "Polygon", 
                "coordinates": [
                    [
                        [88.3135958914976, 22.5410512744493], 
                        [88.3135576872558, 22.540982709762 ], 
                        [88.3133874910884, 22.5410737168958], 
                        [88.3134228946752, 22.5411404771988], 
                        [88.3135958914976, 22.5410512744493]  
                    ]
                ]
            }, 
            "properties": {
    "floor": "ground",
                "fill-opacity": 0, 
                "stroke-opacity": 1, 
                "stroke": "#ff0000", 
                "pkuid": 14, 
                "ID": "10ST-B1-H2", 
                "REMARKS": "POLYGON-70"
            }, 
            "id": "poly70.14"
        }, 
        {
            "type": "Feature", 
            "geometry": {
                "type": "Polygon", 
                "coordinates": [
                    [
                        [88.3135214118398, 22.5409176067147], 
                        [88.3135576872558, 22.540982709762 ], 
                        [88.3137294482614, 22.5408908658794], 
                        [88.3136952645833, 22.5408287027519], 
                        [88.3135214118398, 22.5409176067147]  
                    ]
                ]
            }, 
            "properties": {
    "floor": "ground",
                "fill-opacity": 0, 
                "stroke-opacity": 1, 
                "stroke": "#ff0000", 
                "pkuid": 15, 
                "ID": "10ST-B2-H1", 
                "REMARKS": "POLYGON-70"
            }, 
            "id": "poly70.15"
        }, 
        {
            "type": "Feature", 
            "geometry": {
                "type": "Polygon", 
                "coordinates": [
                    [
                        [88.3134858116475, 22.5408537154834], 
                        [88.3135214118398, 22.5409176067147], 
                        [88.3136952645833, 22.5408287027519], 
                        [88.313660243356 , 22.5407650165384], 
                        [88.3134858116475, 22.5408537154834]  
                    ]
                ]
            }, 
            "properties": {
    "floor": "ground",
                "fill-opacity": 0, 
                "stroke-opacity": 1, 
                "stroke": "#ff0000", 
                "pkuid": 16, 
                "ID": "10ST-B3-H1", 
                "REMARKS": "POLYGON-70"
            }, 
            "id": "poly70.16"
        }, 
        {
            "type": "Feature", 
            "geometry": {
                "type": "Polygon", 
                "coordinates": [
                    [
                        [88.3134858116475, 22.5408537154834], 
                        [88.3134500685352, 22.5407895677551], 
                        [88.3132759764458, 22.5408818258325], 
                        [88.3133116570872, 22.5409422734979], 
                        [88.3134858116475, 22.5408537154834]  
                    ]
                ]
            }, 
            "properties": {
    "floor": "ground",
                "fill-opacity": 0, 
                "stroke-opacity": 1, 
                "stroke": "#ff0000", 
                "pkuid": 17, 
                "ID": "10ST-B4-H2", 
                "REMARKS": "POLYGON-70"
            }, 
            "id": "poly70.17"
        }, 
        {
            "type": "Feature", 
            "geometry": {
                "type": "Polygon", 
                "coordinates": [
                    [
                        [88.3134500685352, 22.5407895677551], 
                        [88.3134090403365, 22.5407159349466], 
                        [88.3132343366697, 22.5408112826146], 
                        [88.3132759764458, 22.5408818258325], 
                        [88.3134500685352, 22.5407895677551]  
                    ]
                ]
            }, 
            "properties": {
    "floor": "ground",
                "fill-opacity": 0, 
                "stroke-opacity": 1, 
                "stroke": "#ff0000", 
                "pkuid": 18, 
                "ID": "10ST-B5-H2", 
                "REMARKS": "POLYGON-70"
            }, 
            "id": "poly70.18"
        }, 
        {
            "type": "Feature", 
            "geometry": {
                "type": "Polygon", 
                "coordinates": [
                    [
                        [88.3133779300752, 22.5406601017397], 
                        [88.3134090403365, 22.5407159349466], 
                        [88.3135814959772, 22.5406218141792], 
                        [88.3135509207467, 22.5405662130251], 
                        [88.3133779300752, 22.5406601017397]  
                    ]
                ]
            }, 
            "properties": {
    "floor": "ground",
                "fill-opacity": 0, 
                "stroke-opacity": 1, 
                "stroke": "#ff0000", 
                "pkuid": 19, 
                "ID": "10ST-B6-H1", 
                "REMARKS": "POLYGON-70"
            }, 
            "id": "poly70.19"
        }, 
        {
            "type": "Feature", 
            "geometry": {
                "type": "Polygon", 
                "coordinates": [
                    [
                        [88.3133385436329, 22.5405894153715], 
                        [88.3133779300752, 22.5406601017397], 
                        [88.3135509207467, 22.5405662130251], 
                        [88.313514807313 , 22.5405005406309], 
                        [88.3133385436329, 22.5405894153715]  
                    ]
                ]
            }, 
            "properties": {
    "floor": "ground",
                "fill-opacity": 0, 
                "stroke-opacity": 1, 
                "stroke": "#ff0000", 
                "pkuid": 20, 
                "ID": "10ST-B7-H1", 
                "REMARKS": "POLYGON-70"
            }, 
            "id": "poly70.20"
        }, 
        {
            "type": "Feature", 
            "geometry": {
                "type": "Polygon", 
                "coordinates": [
                    [
                        [88.3133081707698, 22.5405349055642], 
                        [88.3133385436329, 22.5405894153715], 
                        [88.313514807313 , 22.5405005406309], 
                        [88.3134845495065, 22.5404455167133], 
                        [88.3133081707698, 22.5405349055642]  
                    ]
                ]
            }, 
            "properties": {
    "floor": "ground",
                "fill-opacity": 0, 
                "stroke-opacity": 1, 
                "stroke": "#ff0000", 
                "pkuid": 21, 
                "ID": "10ST-B8-H1", 
                "REMARKS": "POLYGON-70"
            }, 
            "id": "poly70.21"
        }, 
        {
            "type": "Feature", 
            "geometry": {
                "type": "Polygon", 
                "coordinates": [
                    [
                        [88.3132755056713, 22.5404762819097], 
                        [88.3133081707698, 22.5405349055642], 
                        [88.3134845495065, 22.5404455167133], 
                        [88.3134555189955, 22.5403927246366], 
                        [88.3132755056713, 22.5404762819097]  
                    ]
                ]
            }, 
            "properties": {
    "floor": "ground",
                "fill-opacity": 0, 
                "stroke-opacity": 1, 
                "stroke": "#ff0000", 
                "pkuid": 22, 
                "ID": "10ST-B9-H1", 
                "REMARKS": "POLYGON-70"
            }, 
            "id": "poly70.22"
        }, 
        {
            "type": "Feature", 
            "geometry": {
                "type": "Polygon", 
                "coordinates": [
                    [
                        [88.3132755056713, 22.5404762819097], 
                        [88.313241930406 , 22.5404160247901], 
                        [88.3130547171365, 22.5405069836713], 
                        [88.3130879757855, 22.5405633281656], 
                        [88.3132755056713, 22.5404762819097]  
                    ]
                ]
            }, 
            "properties": {
    "floor": "ground",
                "fill-opacity": 0, 
                "stroke-opacity": 1, 
                "stroke": "#ff0000", 
                "pkuid": 23, 
                "ID": "10ST-B10-H2", 
                "REMARKS": "POLYGON-70"
            }, 
            "id": "poly70.23"
        }, 
        {
            "type": "Feature", 
            "geometry": {
                "type": "Polygon", 
                "coordinates": [
                    [
                        [88.3131790908495, 22.5403032474035], 
                        [88.3132083361738, 22.5403557336308], 
                        [88.3133852976301, 22.54026502686  ], 
                        [88.3133592555545, 22.5402176692625], 
                        [88.3131790908495, 22.5403032474035]  
                    ]
                ]
            }, 
            "properties": {
    "floor": "ground",
                "fill-opacity": 0, 
                "stroke-opacity": 1, 
                "stroke": "#ff0000", 
                "pkuid": 24, 
                "ID": "10ST-B12-H1", 
                "REMARKS": "POLYGON-70"
            }, 
            "id": "poly70.24"
        }
    ]
}
