{
    "type": "FeatureCollection", 
    "features": [
        {
            "type": "Feature", 
            "geometry": {
                "type": "Polygon", 
                "coordinates": [
                    [
                        [88.3167091309147, 22.5416084068517], 
                        [88.3167113476623, 22.5417158947884], 
                        [88.3168371989004, 22.5416627581791], 
                        [88.3168033339784, 22.5415649037986], 
                        [88.3167091309147, 22.5416084068517]  
                    ]
                ]
            }, 
            "properties": {
    "floor": "ground",
                "fill-opacity": 0, 
                "stroke-opacity": 1, 
                "stroke": "#ff0000", 
                "ID": "5-B13-H2", 
                "REMARKS": "POLYGON-62"
            }, 
            "id": "p62.1"
        }, 
        {
            "type": "Feature", 
            "geometry": {
                "type": "Polygon", 
                "coordinates": [
                    [
                        [88.3171139189563, 22.5423051798915], 
                        [88.3171407124788, 22.5423502785321], 
                        [88.317312738431 , 22.5422563479673], 
                        [88.3173237884643, 22.5422481833445], 
                        [88.3172970495845, 22.5422020237734], 
                        [88.3171139189563, 22.5423051798915]  
                    ]
                ]
            }, 
            "properties": {
    "floor": "ground",
                "fill-opacity": 0, 
                "stroke-opacity": 1, 
                "stroke": "#ff0000", 
                "ID": "5-B1-H1", 
                "REMARKS": "POLYGON-62"
            }, 
            "id": "p62.2"
        }, 
        {
            "type": "Feature", 
            "geometry": {
                "type": "Polygon", 
                "coordinates": [
                    [
                        [88.3171139189563, 22.5423051798915], 
                        [88.317081216043 , 22.5422501346123], 
                        [88.3169034059509, 22.5423458592824], 
                        [88.316937188891 , 22.5424047306201], 
                        [88.3171139189563, 22.5423051798915]  
                    ]
                ]
            }, 
            "properties": {
    "floor": "ground",
                "fill-opacity": 0, 
                "stroke-opacity": 1, 
                "stroke": "#ff0000", 
                "ID": "5-B2-H2", 
                "REMARKS": "POLYGON-62"
            }, 
            "id": "p62.3"
        }, 
        {
            "type": "Feature", 
            "geometry": {
                "type": "Polygon", 
                "coordinates": [
                    [
                        [88.3170522598707, 22.542201395817 ], 
                        [88.317081216043 , 22.5422501346123], 
                        [88.3172669859945, 22.5421501247247], 
                        [88.3172384435383, 22.5421008516232], 
                        [88.3170522598707, 22.542201395817 ]  
                    ]
                ]
            }, 
            "properties": {
    "floor": "ground",
                "fill-opacity": 0, 
                "stroke-opacity": 1, 
                "stroke": "#ff0000", 
                "ID": "5-B3-H1", 
                "REMARKS": "POLYGON-62"
            }, 
            "id": "p62.4"
        }, 
        {
            "type": "Feature", 
            "geometry": {
                "type": "Polygon", 
                "coordinates": [
                    [
                        [88.3170220316893, 22.5421505159863], 
                        [88.3170522598707, 22.542201395817 ], 
                        [88.3172384435383, 22.5421008516232], 
                        [88.3172091879794, 22.542050347486 ], 
                        [88.3170220316893, 22.5421505159863]  
                    ]
                ]
            }, 
            "properties": {
    "floor": "ground",
                "fill-opacity": 0, 
                "stroke-opacity": 1, 
                "stroke": "#ff0000", 
                "ID": "5-B4-H1", 
                "REMARKS": "POLYGON-62"
            }, 
            "id": "p62.5"
        }, 
        {
            "type": "Feature", 
            "geometry": {
                "type": "Polygon", 
                "coordinates": [
                    [
                        [88.316992019302 , 22.5420999993787], 
                        [88.3170220316893, 22.5421505159863], 
                        [88.3172091879794, 22.542050347486 ], 
                        [88.317181167284 , 22.542001975105 ], 
                        [88.316992019302 , 22.5420999993787]  
                    ]
                ]
            }, 
            "properties": {
    "floor": "ground",
                "fill-opacity": 0, 
                "stroke-opacity": 1, 
                "stroke": "#ff0000", 
                "ID": "5-B5-H1", 
                "REMARKS": "POLYGON-62"
            }, 
            "id": "p62.6"
        }, 
        {
            "type": "Feature", 
            "geometry": {
                "type": "Polygon", 
                "coordinates": [
                    [
                        [88.316959175182 , 22.5420447164214], 
                        [88.316992019302 , 22.5420999993787], 
                        [88.317181167284 , 22.542001975105 ], 
                        [88.3171511184295, 22.5419501014943], 
                        [88.316959175182 , 22.5420447164214]  
                    ]
                ]
            }, 
            "properties": {
    "floor": "ground",
                "fill-opacity": 0, 
                "stroke-opacity": 1, 
                "stroke": "#ff0000", 
                "ID": "5-B6-H1", 
                "REMARKS": "POLYGON-62"
            }, 
            "id": "p62.7"
        }, 
        {
            "type": "Feature", 
            "geometry": {
                "type": "Polygon", 
                "coordinates": [
                    [
                        [88.3169201232777, 22.5419789845716], 
                        [88.316959175182 , 22.5420447164214], 
                        [88.3171511184295, 22.5419501014943], 
                        [88.3171123757336, 22.5418832196263], 
                        [88.3169201232777, 22.5419789845716]  
                    ]
                ]
            }, 
            "properties": {
    "floor": "ground",
                "fill-opacity": 0, 
                "stroke-opacity": 1, 
                "stroke": "#ff0000", 
                "ID": "5-B7-H1", 
                "REMARKS": "POLYGON-62"
            }, 
            "id": "p62.8"
        }, 
        {
            "type": "Feature", 
            "geometry": {
                "type": "Polygon", 
                "coordinates": [
                    [
                        [88.3169427383067, 22.5419677195555], 
                        [88.3169218537409, 22.5419073725613], 
                        [88.3167403413088, 22.5419950488463], 
                        [88.31675139674  , 22.5420583557298], 
                        [88.31675324831  , 22.5420621084624], 
                        [88.3169427383067, 22.5419677195555]  
                    ]
                ]
            }, 
            "properties": {
    "floor": "ground",
                "fill-opacity": 0, 
                "stroke-opacity": 1, 
                "stroke": "#ff0000", 
                "ID": "5-B8-H2", 
                "REMARKS": "POLYGON-62"
            }, 
            "id": "p62.9"
        }, 
        {
            "type": "Feature", 
            "geometry": {
                "type": "Polygon", 
                "coordinates": [
                    [
                        [88.3169218537409, 22.5419073725613], 
                        [88.3169021196272, 22.5418503498559], 
                        [88.3167286386393, 22.5419280356729], 
                        [88.3167403413088, 22.5419950488463], 
                        [88.3169218537409, 22.5419073725613]  
                    ]
                ]
            }, 
            "properties": {
    "floor": "ground",
                "fill-opacity": 0, 
                "stroke-opacity": 1, 
                "stroke": "#ff0000", 
                "ID": "5-B9-H2", 
                "REMARKS": "POLYGON-62"
            }, 
            "id": "p62.10"
        }, 
        {
            "type": "Feature", 
            "geometry": {
                "type": "Polygon", 
                "coordinates": [
                    [
                        [88.3169021196272, 22.5418503498559], 
                        [88.316886069838 , 22.5418039731898], 
                        [88.3167199537456, 22.5418783032345], 
                        [88.3167286386393, 22.5419280356729], 
                        [88.3169021196272, 22.5418503498559]  
                    ]
                ]
            }, 
            "properties": {
    "floor": "ground",
                "fill-opacity": 0, 
                "stroke-opacity": 1, 
                "stroke": "#ff0000", 
                "ID": "5-B10-H2", 
                "REMARKS": "POLYGON-62"
            }, 
            "id": "p62.11"
        }, 
        {
            "type": "Feature", 
            "geometry": {
                "type": "Polygon", 
                "coordinates": [
                    [
                        [88.3167132252155, 22.5418069355177], 
                        [88.3167139931283, 22.5418441708611], 
                        [88.3167199537456, 22.5418783032345], 
                        [88.316886069838 , 22.5418039731898], 
                        [88.3168646170485, 22.541741984285 ], 
                        [88.3167132252155, 22.5418069355177]  
                    ]
                ]
            }, 
            "properties": {
    "floor": "ground",
                "fill-opacity": 0, 
                "stroke-opacity": 1, 
                "stroke": "#ff0000", 
                "ID": "5-B11-H2", 
                "REMARKS": "POLYGON-62"
            }, 
            "id": "p62.12"
        }, 
        {
            "type": "Feature", 
            "geometry": {
                "type": "Polygon", 
                "coordinates": [
                    [
                        [88.3167113476623, 22.5417158947884], 
                        [88.3167132252155, 22.5418069355177], 
                        [88.3168646170485, 22.541741984285 ], 
                        [88.3168371989004, 22.5416627581791], 
                        [88.3167113476623, 22.5417158947884]  
                    ]
                ]
            }, 
            "properties": {
    "floor": "ground",
                "fill-opacity": 0, 
                "stroke-opacity": 1, 
                "stroke": "#ff0000", 
                "ID": "5-B12-H2", 
                "REMARKS": "POLYGON-62"
            }, 
            "id": "p62.13"
        }, 
        {
            "type": "Feature", 
            "geometry": {
                "type": "Polygon", 
                "coordinates": [
                    [
                        [88.3169218537409, 22.5419073725613], 
                        [88.3169427383067, 22.5419677195555], 
                        [88.3171123757336, 22.5418832196263], 
                        [88.3170816537868, 22.5418301840503], 
                        [88.3169218537409, 22.5419073725613]  
                    ]
                ]
            }, 
            "properties": {
    "floor": "ground",
                "fill-opacity": 0, 
                "stroke-opacity": 1, 
                "stroke": "#ff0000", 
                "ID": "5-B8-H1", 
                "REMARKS": "POLYGON-62"
            }, 
            "id": "p62.14"
        }, 
        {
            "type": "Feature", 
            "geometry": {
                "type": "Polygon", 
                "coordinates": [
                    [
                        [88.3169021196272, 22.5418503498559], 
                        [88.3169218537409, 22.5419073725613], 
                        [88.3170816537868, 22.5418301840503], 
                        [88.3170539502583, 22.5417823591973], 
                        [88.3169021196272, 22.5418503498559]  
                    ]
                ]
            }, 
            "properties": {
    "floor": "ground",
                "fill-opacity": 0, 
                "stroke-opacity": 1, 
                "stroke": "#ff0000", 
                "ID": "5-B9-H1", 
                "REMARKS": "POLYGON-62"
            }, 
            "id": "p62.15"
        }, 
        {
            "type": "Feature", 
            "geometry": {
                "type": "Polygon", 
                "coordinates": [
                    [
                        [88.316886069838 , 22.5418039731898], 
                        [88.3169021196272, 22.5418503498559], 
                        [88.3170539502583, 22.5417823591973], 
                        [88.3170293360733, 22.5417398675061], 
                        [88.316886069838 , 22.5418039731898]  
                    ]
                ]
            }, 
            "properties": {
    "floor": "ground",
                "fill-opacity": 0, 
                "stroke-opacity": 1, 
                "stroke": "#ff0000", 
                "ID": "5-B10-H1", 
                "REMARKS": "POLYGON-62"
            }, 
            "id": "p62.16"
        }, 
        {
            "type": "Feature", 
            "geometry": {
                "type": "Polygon", 
                "coordinates": [
                    [
                        [88.3168646170485, 22.541741984285 ], 
                        [88.316886069838 , 22.5418039731898], 
                        [88.3170293360733, 22.5417398675061], 
                        [88.3169975302805, 22.541684960877 ], 
                        [88.3168646170485, 22.541741984285 ]  
                    ]
                ]
            }, 
            "properties": {
    "floor": "ground",
                "fill-opacity": 0, 
                "stroke-opacity": 1, 
                "stroke": "#ff0000", 
                "ID": "5-B11-H1", 
                "REMARKS": "POLYGON-62"
            }, 
            "id": "p62.17"
        }, 
        {
            "type": "Feature", 
            "geometry": {
                "type": "Polygon", 
                "coordinates": [
                    [
                        [88.3168371989004, 22.5416627581791], 
                        [88.3168646170485, 22.541741984285 ], 
                        [88.3169975302805, 22.541684960877 ], 
                        [88.3169556888502, 22.5416127296355], 
                        [88.3168371989004, 22.5416627581791]  
                    ]
                ]
            }, 
            "properties": {
    "floor": "ground",
                "fill-opacity": 0, 
                "stroke-opacity": 1, 
                "stroke": "#ff0000", 
                "ID": "5-B12-H1", 
                "REMARKS": "POLYGON-62"
            }, 
            "id": "p62.18"
        }, 
        {
            "type": "Feature", 
            "geometry": {
                "type": "Polygon", 
                "coordinates": [
                    [
                        [88.3168033339784, 22.5415649037986], 
                        [88.3168371989004, 22.5416627581791], 
                        [88.3169556888502, 22.5416127296355], 
                        [88.3169016771927, 22.5415194888204], 
                        [88.3168033339784, 22.5415649037986]  
                    ]
                ]
            }, 
            "properties": {
    "floor": "ground",
                "fill-opacity": 0, 
                "stroke-opacity": 1, 
                "stroke": "#ff0000", 
                "ID": "5-B13-H1", 
                "REMARKS": "POLYGON-62"
            }, 
            "id": "p62.19"
        }, 
        {
            "type": "Feature", 
            "geometry": {
                "type": "Polygon", 
                "coordinates": [
                    [
                        [88.3171407124788, 22.5423502785321], 
                        [88.3171139189563, 22.5423051798915], 
                        [88.316937188891 , 22.5424047306201], 
                        [88.3169480873325, 22.542423722627 ], 
                        [88.3169613473725, 22.5424482164626], 
                        [88.3171407124788, 22.5423502785321]  
                    ]
                ]
            }, 
            "properties": {
    "floor": "ground",
                "fill-opacity": 0, 
                "stroke-opacity": 1, 
                "stroke": "#ff0000", 
                "ID": "5-B1-H2", 
                "REMARKS": "POLYGON-62"
            }, 
            "id": "p62.20"
        }, 
        {
            "type": "Feature", 
            "geometry": {
                "type": "Polygon", 
                "coordinates": [
                    [
                        [88.317081216043 , 22.5422501346123], 
                        [88.3171139189563, 22.5423051798915], 
                        [88.3172970495845, 22.5422020237734], 
                        [88.3172669859945, 22.5421501247247], 
                        [88.317081216043 , 22.5422501346123]  
                    ]
                ]
            }, 
            "properties": {
    "floor": "ground",
                "fill-opacity": 0, 
                "stroke-opacity": 1, 
                "stroke": "#ff0000", 
                "ID": "5-B2-H1", 
                "REMARKS": "POLYGON-62"
            }, 
            "id": "p62.21"
        }, 
        {
            "type": "Feature", 
            "geometry": {
                "type": "Polygon", 
                "coordinates": [
                    [
                        [88.317081216043 , 22.5422501346123], 
                        [88.3170522598707, 22.542201395817 ], 
                        [88.3168753341911, 22.542296940448 ], 
                        [88.3169034059509, 22.5423458592824], 
                        [88.317081216043 , 22.5422501346123]  
                    ]
                ]
            }, 
            "properties": {
    "floor": "ground",
                "fill-opacity": 0, 
                "stroke-opacity": 1, 
                "stroke": "#ff0000", 
                "ID": "5-B3-H2", 
                "REMARKS": "POLYGON-62"
            }, 
            "id": "p62.22"
        }, 
        {
            "type": "Feature", 
            "geometry": {
                "type": "Polygon", 
                "coordinates": [
                    [
                        [88.3170522598707, 22.542201395817 ], 
                        [88.3170220316893, 22.5421505159863], 
                        [88.3168455209505, 22.542244986848 ], 
                        [88.3168753341911, 22.542296940448 ], 
                        [88.3170522598707, 22.542201395817 ]  
                    ]
                ]
            }, 
            "properties": {
    "floor": "ground",
                "fill-opacity": 0, 
                "stroke-opacity": 1, 
                "stroke": "#ff0000", 
                "ID": "5-B4-H2", 
                "REMARKS": "POLYGON-62"
            }, 
            "id": "p62.23"
        }, 
        {
            "type": "Feature", 
            "geometry": {
                "type": "Polygon", 
                "coordinates": [
                    [
                        [88.3170220316893, 22.5421505159863], 
                        [88.316992019302 , 22.5420999993787], 
                        [88.3168167572568, 22.5421908273881], 
                        [88.3168309569797, 22.5422196071612], 
                        [88.3168455209505, 22.542244986848 ], 
                        [88.3170220316893, 22.5421505159863]  
                    ]
                ]
            }, 
            "properties": {
    "floor": "ground",
                "fill-opacity": 0, 
                "stroke-opacity": 1, 
                "stroke": "#ff0000", 
                "ID": "5-B5-H2", 
                "REMARKS": "POLYGON-62"
            }, 
            "id": "p62.24"
        }, 
        {
            "type": "Feature", 
            "geometry": {
                "type": "Polygon", 
                "coordinates": [
                    [
                        [88.316992019302 , 22.5420999993787], 
                        [88.316959175182 , 22.5420447164214], 
                        [88.3167866313825, 22.5421297687441], 
                        [88.3168167572568, 22.5421908273881], 
                        [88.316992019302 , 22.5420999993787]  
                    ]
                ]
            }, 
            "properties": {
    "floor": "ground",
                "fill-opacity": 0, 
                "stroke-opacity": 1, 
                "stroke": "#ff0000", 
                "ID": "5-B6-H2", 
                "REMARKS": "POLYGON-62"
            }, 
            "id": "p62.25"
        }, 
        {
            "type": "Feature", 
            "geometry": {
                "type": "Polygon", 
                "coordinates": [
                    [
                        [88.316959175182 , 22.5420447164214], 
                        [88.3169201232777, 22.5419789845716], 
                        [88.31675324831  , 22.5420621084624], 
                        [88.3167866313825, 22.5421297687441], 
                        [88.316959175182 , 22.5420447164214]  
                    ]
                ]
            }, 
            "properties": {
    "floor": "ground",
                "fill-opacity": 0, 
                "stroke-opacity": 1, 
                "stroke": "#ff0000", 
                "ID": "5-B7-H2", 
                "REMARKS": "POLYGON-62"
            }, 
            "id": "p62.26"
        }
    ]
}
