{
    "type": "FeatureCollection", 
    "features": [
        {
            "type": "Feature", 
            "geometry": {
                "type": "Polygon", 
                "coordinates": [
                    [
                        [88.3178791556489, 22.5420135168342], 
                        [88.3179272162721, 22.5421018611795], 
                        [88.3180130100047, 22.5420622417153], 
                        [88.3179657771221, 22.5419745003593], 
                        [88.3178791556489, 22.5420135168342]  
                    ]
                ]
            }, 
            "properties": {
    "floor": "ground",
                "fill-opacity": 0, 
                "stroke-opacity": 1, 
                "stroke": "#ff0000", 
                "pkuid": 1, 
                "ID": "LG-B3-H1", 
                "REMARKS": "POLYGON-68"
            }, 
            "id": "p68.1"
        }, 
        {
            "type": "Feature", 
            "geometry": {
                "type": "Polygon", 
                "coordinates": [
                    [
                        [88.3180147957035, 22.5422628484287], 
                        [88.3179720762604, 22.5421843221639], 
                        [88.3178874128267, 22.5422214248646], 
                        [88.3179298120541, 22.5423002309851], 
                        [88.3179288047002, 22.5423020917626], 
                        [88.3180147957035, 22.5422628484287]  
                    ]
                ]
            }, 
            "properties": {
    "floor": "ground",
                "fill-opacity": 0, 
                "stroke-opacity": 1, 
                "stroke": "#ff0000", 
                "pkuid": 2, 
                "ID": "LG-B1-H2", 
                "REMARKS": "POLYGON-68"
            }, 
            "id": "p68.2"
        }, 
        {
            "type": "Feature", 
            "geometry": {
                "type": "Polygon", 
                "coordinates": [
                    [
                        [88.3179272162721, 22.5421018611795], 
                        [88.3179720762604, 22.5421843221639], 
                        [88.318058370465 , 22.542146504798 ], 
                        [88.3180130100047, 22.5420622417153], 
                        [88.3179272162721, 22.5421018611795]  
                    ]
                ]
            }, 
            "properties": {
    "floor": "ground",
                "fill-opacity": 0, 
                "stroke-opacity": 1, 
                "stroke": "#ff0000", 
                "pkuid": 3, 
                "ID": "LG-B2-H1", 
                "REMARKS": "POLYGON-68"
            }, 
            "id": "p68.3"
        }, 
        {
            "type": "Feature", 
            "geometry": {
                "type": "Polygon", 
                "coordinates": [
                    [
                        [88.3178314501769, 22.5419258253228], 
                        [88.3178791556489, 22.5420135168342], 
                        [88.3179657771221, 22.5419745003593], 
                        [88.3179217532233, 22.5418927201173], 
                        [88.3178431796239, 22.5419187710763], 
                        [88.3178314501769, 22.5419258253228]  
                    ]
                ]
            }, 
            "properties": {
    "floor": "ground",
                "fill-opacity": 0, 
                "stroke-opacity": 1, 
                "stroke": "#ff0000", 
                "pkuid": 4, 
                "ID": "LG-B4-H1", 
                "REMARKS": "POLYGON-68"
            }, 
            "id": "p68.4"
        }, 
        {
            "type": "Feature", 
            "geometry": {
                "type": "Polygon", 
                "coordinates": [
                    [
                        [88.3179272162721, 22.5421018611795], 
                        [88.3178791556489, 22.5420135168342], 
                        [88.3177957633352, 22.5420510788151], 
                        [88.3178438084767, 22.5421403788201], 
                        [88.3179272162721, 22.5421018611795]  
                    ]
                ]
            }, 
            "properties": {
    "floor": "ground",
                "fill-opacity": 0, 
                "stroke-opacity": 1, 
                "stroke": "#ff0000", 
                "pkuid": 5, 
                "ID": "LG-B3-H2", 
                "REMARKS": "POLYGON-68"
            }, 
            "id": "p68.5"
        }, 
        {
            "type": "Feature", 
            "geometry": {
                "type": "Polygon", 
                "coordinates": [
                    [
                        [88.3179720762604, 22.5421843221639], 
                        [88.3180147957035, 22.5422628484287], 
                        [88.3181000548529, 22.5422239390877], 
                        [88.318058370465 , 22.542146504798 ], 
                        [88.3179720762604, 22.5421843221639]  
                    ]
                ]
            }, 
            "properties": {
    "floor": "ground",
                "fill-opacity": 0, 
                "stroke-opacity": 1, 
                "stroke": "#ff0000", 
                "pkuid": 6, 
                "ID": "LG-B1-H1", 
                "REMARKS": "POLYGON-68"
            }, 
            "id": "p68.6"
        }, 
        {
            "type": "Feature", 
            "geometry": {
                "type": "Polygon", 
                "coordinates": [
                    [
                        [88.3179720762604, 22.5421843221639], 
                        [88.3179272162721, 22.5421018611795], 
                        [88.3178438084767, 22.5421403788201], 
                        [88.3178874128267, 22.5422214248646], 
                        [88.3179720762604, 22.5421843221639]  
                    ]
                ]
            }, 
            "properties": {
    "floor": "ground",
                "fill-opacity": 0, 
                "stroke-opacity": 1, 
                "stroke": "#ff0000", 
                "pkuid": 7, 
                "ID": "LG-B2-H2", 
                "REMARKS": "POLYGON-68"
            }, 
            "id": "p68.7"
        }, 
        {
            "type": "Feature", 
            "geometry": {
                "type": "Polygon", 
                "coordinates": [
                    [
                        [88.3178791556489, 22.5420135168342], 
                        [88.3178314501769, 22.5419258253228], 
                        [88.3177565471937, 22.5419708729797], 
                        [88.3177676280859, 22.5419987847055], 
                        [88.3177957633352, 22.5420510788151], 
                        [88.3178791556489, 22.5420135168342]  
                    ]
                ]
            }, 
            "properties": {
    "floor": "ground",
                "fill-opacity": 0, 
                "stroke-opacity": 1, 
                "stroke": "#ff0000", 
                "pkuid": 8, 
                "ID": "LG-B4-H2", 
                "REMARKS": "POLYGON-68"
            }, 
            "id": "p68.8"
        }
    ]
}
