{"type":"FeatureCollection", "features": [
{"type":"Feature","geometry":{"type":"Polygon","coordinates":[[[88.3144605358715,22.5367916729522],[88.3143869340077,22.5367983756014],[88.3143721432047,22.5366808676467],[88.3144445176558,22.5366644141402],[88.3144605358715,22.5367916729522]]]},"properties": {
    "floor": "ground","fill-opacity":0,"stroke-opacity":1,"stroke":"#ff0000","ID":"22-7","REMARKS":"POLYGON ID-22"}},
{"type":"Feature","geometry":{"type":"Polygon","coordinates":[[[88.3144757863454,22.5369128320712],[88.314401475356,22.5369139014827],[88.3143869340077,22.5367983756014],[88.3144605358715,22.5367916729522],[88.3144757863454,22.5369128320712]]]},"properties": {
    "floor": "ground","fill-opacity":0,"stroke-opacity":1,"stroke":"#ff0000","ID":"22-2","REMARKS":"POLYGON ID-22"}},
{"type":"Feature","geometry":{"type":"Polygon","coordinates":[[[88.3143869340077,22.5367983756014],[88.3143815732183,22.5367988637873],[88.3143782627497,22.5367704041288],[88.3143532696259,22.536772633867],[88.3143410090887,22.5366879456221],[88.3143721432047,22.5366808676467],[88.3143869340077,22.5367983756014]]]},"properties": {
    "floor": "ground","fill-opacity":0,"stroke-opacity":1,"stroke":"#ff0000","ID":"22-6","REMARKS":"POLYGON ID-22"}},
{"type":"Feature","geometry":{"type":"Polygon","coordinates":[[[88.314401475356,22.5369139014827],[88.3143250601207,22.5369150011408],[88.3143192430496,22.5368348861279],[88.3143849777001,22.5368281316498],[88.3143815732183,22.5367988637873],[88.3143869340077,22.5367983756014],[88.314401475356,22.5369139014827]]]},"properties": {
    "floor": "ground","fill-opacity":0,"stroke-opacity":1,"stroke":"#ff0000","ID":"22-1","REMARKS":"POLYGON ID-22"}},
{"type":"Feature","geometry":{"type":"Polygon","coordinates":[[[88.3146077395722,22.5367782675537],[88.3145341377263,22.5367849702696],[88.3145168920881,22.5366479606018],[88.3145892665015,22.5366315070317],[88.3146077395722,22.5367782675537]]]},"properties": {
    "floor": "ground","fill-opacity":0,"stroke-opacity":1,"stroke":"#ff0000","ID":"22-9","REMARKS":"POLYGON ID-22"}},
{"type":"Feature","geometry":{"type":"Polygon","coordinates":[[[88.314624408315,22.5369106931452],[88.3145500973317,22.5369117626253],[88.3145341377263,22.5367849702696],[88.3146077395722,22.5367782675537],[88.314624408315,22.5369106931452]]]},"properties": {
    "floor": "ground","fill-opacity":0,"stroke-opacity":1,"stroke":"#ff0000","ID":"22-4","REMARKS":"POLYGON ID-22"}},
{"type":"Feature","geometry":{"type":"Polygon","coordinates":[[[88.3145341377263,22.5367849702696],[88.3144605358715,22.5367916729522],[88.3144445176558,22.5366644141402],[88.3145168920881,22.5366479606018],[88.3145341377263,22.5367849702696]]]},"properties": {
    "floor": "ground","fill-opacity":0,"stroke-opacity":1,"stroke":"#ff0000","ID":"22-8","REMARKS":"POLYGON ID-22"}},
{"type":"Feature","geometry":{"type":"Polygon","coordinates":[[[88.3145500973317,22.5369117626253],[88.3144757863454,22.5369128320712],[88.3144605358715,22.5367916729522],[88.3145341377263,22.5367849702696],[88.3145500973317,22.5369117626253]]]},"properties": {
    "floor": "ground","fill-opacity":0,"stroke-opacity":1,"stroke":"#ff0000","ID":"22-3","REMARKS":"POLYGON ID-22"}},
{"type":"Feature","geometry":{"type":"Polygon","coordinates":[[[88.3145892665015,22.5366315070317],[88.3146637535559,22.5366145731369],[88.3146813414091,22.5367715648044],[88.3146077395722,22.5367782675537],[88.3145892665015,22.5366315070317]]]},"properties": {
    "floor": "ground","fill-opacity":0,"stroke-opacity":1,"stroke":"#ff0000","ID":"22-10","REMARKS":"POLYGON ID-22"}},
{"type":"Feature","geometry":{"type":"Polygon","coordinates":[[[88.3146077395722,22.5367782675537],[88.3146813414091,22.5367715648044],[88.3146968113249,22.5369096510916],[88.314624408315,22.5369106931452],[88.3146077395722,22.5367782675537]]]},"properties": {
    "floor": "ground","fill-opacity":0,"stroke-opacity":1,"stroke":"#ff0000","ID":"22-5","REMARKS":"POLYGON ID-22"}}
]}
