{
    "type": "FeatureCollection",
    "features": [
        {
            "type": "Feature",
            "geometry": {
                "type": "Polygon",
                "coordinates": [
                    [
                        [88.3139230362408, 22.5282559164853],
                        [88.3139467028257, 22.5281554417873],
                        [88.3137410394774, 22.5281160787468],
                        [88.3137179995709, 22.5282220347054],
                        [88.3139230362408, 22.5282559164853]
                    ]
                ]
            },
            "properties": {
    "floor": "ground",
                "fill-opacity": 0,
                "stroke-opacity": 1,
                "stroke": "#ff0000",
                "ID": "28S-B3-H2",
                "REMARKS": "POLYGON-59"
            },
            "id": "p59.1"
        },
        {
            "type": "Feature",
            "geometry": {
                "type": "Polygon",
                "coordinates": [
                    [
                        [88.31389440853  , 22.5283774532681],
                        [88.3138695124158, 22.52848314784  ],
                        [88.3140716957035, 22.528523527195 ],
                        [88.3140897770704, 22.5284637122249],
                        [88.3141012320671, 22.528417070025 ],
                        [88.31389440853  , 22.5283774532681]
                    ]
                ]
            },
            "properties": {
    "floor": "ground",
                "fill-opacity": 0,
                "stroke-opacity": 1,
                "stroke": "#ff0000",
                "ID": "28S-B1-H1",
                "REMARKS": "POLYGON-59"
            },
            "id": "p59.2"
        },
        {
            "type": "Feature",
            "geometry": {
                "type": "Polygon",
                "coordinates": [
                    [
                        [88.3139230362408, 22.5282559164853],
                        [88.31389440853  , 22.5283774532681],
                        [88.3141012320671, 22.528417070025 ],
                        [88.3141323168817, 22.5282904995705],
                        [88.3139230362408, 22.5282559164853]
                    ]
                ]
            },
            "properties": {
    "floor": "ground",
                "fill-opacity": 0,
                "stroke-opacity": 1,
                "stroke": "#ff0000",
                "ID": "28S-B2-H1",
                "REMARKS": "POLYGON-59"
            },
            "id": "p59.3"
        },
        {
            "type": "Feature",
            "geometry": {
                "type": "Polygon",
                "coordinates": [
                    [
                        [88.3139467028257, 22.5281554417873],
                        [88.3139679304535, 22.5280653214978],
                        [88.3137625214515, 22.5280172874103],
                        [88.3137410394774, 22.5281160787468],
                        [88.3139467028257, 22.5281554417873]
                    ]
                ]
            },
            "properties": {
    "floor": "ground",
                "fill-opacity": 0,
                "stroke-opacity": 1,
                "stroke": "#ff0000",
                "ID": "28S-B4-H2",
                "REMARKS": "POLYGON-59"
            },
            "id": "p59.4"
        },
        {
            "type": "Feature",
            "geometry": {
                "type": "Polygon",
                "coordinates": [
                    [
                        [88.3138695124158, 22.52848314784  ],
                        [88.31389440853  , 22.5283774532681],
                        [88.3136926094281, 22.5283387989347],
                        [88.3136698902382, 22.5284432799812],
                        [88.3138695124158, 22.52848314784  ]
                    ]
                ]
            },
            "properties": {
    "floor": "ground",
                "fill-opacity": 0,
                "stroke-opacity": 1,
                "stroke": "#ff0000",
                "ID": "28S-B1-H2",
                "REMARKS": "POLYGON-59"
            },
            "id": "p59.5"
        },
        {
            "type": "Feature",
            "geometry": {
                "type": "Polygon",
                "coordinates": [
                    [
                        [88.31389440853  , 22.5283774532681],
                        [88.3139230362408, 22.5282559164853],
                        [88.3137179995709, 22.5282220347054],
                        [88.3136926094281, 22.5283387989347],
                        [88.31389440853  , 22.5283774532681]
                    ]
                ]
            },
            "properties": {
    "floor": "ground",
                "fill-opacity": 0,
                "stroke-opacity": 1,
                "stroke": "#ff0000",
                "ID": "28S-B2-H2",
                "REMARKS": "POLYGON-59"
            },
            "id": "p59.6"
        },
        {
            "type": "Feature",
            "geometry": {
                "type": "Polygon",
                "coordinates": [
                    [
                        [88.3139679304535, 22.5280653214978],
                        [88.3139467028257, 22.5281554417873],
                        [88.3141556638307, 22.5281954359845],
                        [88.3141756873579, 22.528113904633 ],
                        [88.3139679304535, 22.5280653214978]
                    ]
                ]
            },
            "properties": {
    "floor": "ground",
                "fill-opacity": 0,
                "stroke-opacity": 1,
                "stroke": "#ff0000",
                "ID": "28S-B4-H1",
                "REMARKS": "POLYGON-59"
            },
            "id": "p59.7"
        },
        {
            "type": "Feature",
            "geometry": {
                "type": "Polygon",
                "coordinates": [
                    [
                        [88.3139467028257, 22.5281554417873],
                        [88.3139230362408, 22.5282559164853],
                        [88.3141323168817, 22.5282904995705],
                        [88.3141556638307, 22.5281954359845],
                        [88.3139467028257, 22.5281554417873]
                    ]
                ]
            },
            "properties": {
    "floor": "ground",
                "fill-opacity": 0,
                "stroke-opacity": 1,
                "stroke": "#ff0000",
                "ID": "28S-B3-H1",
                "REMARKS": "POLYGON-59"
            },
            "id": "p59.8"
        }
    ]
}
