{
    "type": "FeatureCollection",
    "features": [
        {
            "type": "Feature",
            "geometry": {
                "type": "Polygon",
                "coordinates": [
                    [
                        [88.3178248890899, 22.5436550401543],
                        [88.3178493680907, 22.5437399930776],
                        [88.3180736937144, 22.5436890191711],
                        [88.3180471687763, 22.5436023038798],
                        [88.3178248890899, 22.5436550401543]
                    ]
                ]
            },
            "properties": {
    "floor": "ground",
                "fill-opacity": 0,
                "stroke-opacity": 1,
                "stroke": "#ff0000",
                "ID": "1-B13-H1",
                "REMARKS": "POLYGON-41",
                "AREA": 0
            },
            "id": "s1.1"
        },
        {
            "type": "Feature",
            "geometry": {
                "type": "Polygon",
                "coordinates": [
                    [
                        [88.3180458969992, 22.5444220350213],
                        [88.318062732993 , 22.5444804633412],
                        [88.3183010219438, 22.5444322003088],
                        [88.3182827702411, 22.5443725318669],
                        [88.3180458969992, 22.5444220350213]
                    ]
                ]
            },
            "properties": {
    "floor": "ground",
                "fill-opacity": 0,
                "stroke-opacity": 1,
                "stroke": "#ff0000",
                "ID": "1-B1-H1",
                "REMARKS": "POLYGON-41",
                "AREA": 0
            },
            "id": "s1.2"
        },
        {
            "type": "Feature",
            "geometry": {
                "type": "Polygon",
                "coordinates": [
                    [
                        [88.3180265037126, 22.544354731768 ],
                        [88.3180458969992, 22.5444220350213],
                        [88.3182827702411, 22.5443725318669],
                        [88.3182619740261, 22.5443045449095],
                        [88.3180265037126, 22.544354731768 ]
                    ]
                ]
            },
            "properties": {
    "floor": "ground",
                "fill-opacity": 0,
                "stroke-opacity": 1,
                "stroke": "#ff0000",
                "ID": "1-B2-H1",
                "REMARKS": "POLYGON-41",
                "AREA": 0
            },
            "id": "s1.3"
        },
        {
            "type": "Feature",
            "geometry": {
                "type": "Polygon",
                "coordinates": [
                    [
                        [88.3180077281234, 22.5442895721972],
                        [88.3180265037126, 22.544354731768 ],
                        [88.3182619740261, 22.5443045449095],
                        [88.3182414213143, 22.5442373540119],
                        [88.3180077281234, 22.5442895721972]
                    ]
                ]
            },
            "properties": {
    "floor": "ground",
                "fill-opacity": 0,
                "stroke-opacity": 1,
                "stroke": "#ff0000",
                "ID": "1-B3-H1",
                "REMARKS": "POLYGON-41",
                "AREA": 0
            },
            "id": "s1.4"
        },
        {
            "type": "Feature",
            "geometry": {
                "type": "Polygon",
                "coordinates": [
                    [
                        [88.317989871885 , 22.5442276031788],
                        [88.3180077281234, 22.5442895721972],
                        [88.3182414213143, 22.5442373540119],
                        [88.3182225061466, 22.5441755165716],
                        [88.317989871885 , 22.5442276031788]
                    ]
                ]
            },
            "properties": {
    "floor": "ground",
                "fill-opacity": 0,
                "stroke-opacity": 1,
                "stroke": "#ff0000",
                "ID": "1-B4-H1",
                "REMARKS": "POLYGON-41",
                "AREA": 0
            },
            "id": "s1.5"
        },
        {
            "type": "Feature",
            "geometry": {
                "type": "Polygon",
                "coordinates": [
                    [
                        [88.3179717517578, 22.5441647183498],
                        [88.317989871885 , 22.5442276031788],
                        [88.3182225061466, 22.5441755165716],
                        [88.3182040955862, 22.5441153287926],
                        [88.3179717517578, 22.5441647183498]
                    ]
                ]
            },
            "properties": {
    "floor": "ground",
                "fill-opacity": 0,
                "stroke-opacity": 1,
                "stroke": "#ff0000",
                "ID": "1-B5-H1",
                "REMARKS": "POLYGON-41",
                "AREA": 0
            },
            "id": "s1.6"
        },
        {
            "type": "Feature",
            "geometry": {
                "type": "Polygon",
                "coordinates": [
                    [
                        [88.3179555286038, 22.5441084168543],
                        [88.3179717517578, 22.5441647183498],
                        [88.3182040955862, 22.5441153287926],
                        [88.3181867975969, 22.5440587782294],
                        [88.3179555286038, 22.5441084168543]
                    ]
                ]
            },
            "properties": {
    "floor": "ground",
                "fill-opacity": 0,
                "stroke-opacity": 1,
                "stroke": "#ff0000",
                "ID": "1-B6-H1",
                "REMARKS": "POLYGON-41",
                "AREA": 0
            },
            "id": "s1.7"
        },
        {
            "type": "Feature",
            "geometry": {
                "type": "Polygon",
                "coordinates": [
                    [
                        [88.3179388549797, 22.5440505520287],
                        [88.3179555286038, 22.5441084168543],
                        [88.3181867975969, 22.5440587782294],
                        [88.318168813279 , 22.543999983922 ],
                        [88.3179388549797, 22.5440505520287]
                    ]
                ]
            },
            "properties": {
    "floor": "ground",
                "fill-opacity": 0,
                "stroke-opacity": 1,
                "stroke": "#ff0000",
                "ID": "1-B7-H1",
                "REMARKS": "POLYGON-41",
                "AREA": 0
            },
            "id": "s1.8"
        },
        {
            "type": "Feature",
            "geometry": {
                "type": "Polygon",
                "coordinates": [
                    [
                        [88.3179232626107, 22.5439964396349],
                        [88.3179388549797, 22.5440505520287],
                        [88.318168813279 , 22.543999983922 ],
                        [88.3181520889668, 22.5439453088234],
                        [88.3179232626107, 22.5439964396349]
                    ]
                ]
            },
            "properties": {
    "floor": "ground",
                "fill-opacity": 0,
                "stroke-opacity": 1,
                "stroke": "#ff0000",
                "ID": "1-B8-H1",
                "REMARKS": "POLYGON-41",
                "AREA": 0
            },
            "id": "s1.9"
        },
        {
            "type": "Feature",
            "geometry": {
                "type": "Polygon",
                "coordinates": [
                    [
                        [88.3179061679923, 22.543937113774 ],
                        [88.3179232626107, 22.5439964396349],
                        [88.3181520889668, 22.5439453088234],
                        [88.3181340093705, 22.5438862030319],
                        [88.3179061679923, 22.543937113774 ]
                    ]
                ]
            },
            "properties": {
    "floor": "ground",
                "fill-opacity": 0,
                "stroke-opacity": 1,
                "stroke": "#ff0000",
                "ID": "1-B9-H1",
                "REMARKS": "POLYGON-41",
                "AREA": 0
            },
            "id": "s1.10"
        },
        {
            "type": "Feature",
            "geometry": {
                "type": "Polygon",
                "coordinates": [
                    [
                        [88.3178878200468, 22.543873438315 ],
                        [88.3179061679923, 22.543937113774 ],
                        [88.3181340093705, 22.5438862030319],
                        [88.3181153126923, 22.5438250798768],
                        [88.3178878200468, 22.543873438315 ]
                    ]
                ]
            },
            "properties": {
    "floor": "ground",
                "fill-opacity": 0,
                "stroke-opacity": 1,
                "stroke": "#ff0000",
                "ID": "1-B10-H1",
                "REMARKS": "POLYGON-41",
                "AREA": 0
            },
            "id": "s1.11"
        },
        {
            "type": "Feature",
            "geometry": {
                "type": "Polygon",
                "coordinates": [
                    [
                        [88.3178698508346, 22.5438110772279],
                        [88.3178878200468, 22.543873438315 ],
                        [88.3181153126923, 22.5438250798768],
                        [88.3180954822888, 22.5437602503489],
                        [88.3178698508346, 22.5438110772279]
                    ]
                ]
            },
            "properties": {
    "floor": "ground",
                "fill-opacity": 0,
                "stroke-opacity": 1,
                "stroke": "#ff0000",
                "ID": "1-B11-H1",
                "REMARKS": "POLYGON-41",
                "AREA": 0
            },
            "id": "s1.12"
        },
        {
            "type": "Feature",
            "geometry": {
                "type": "Polygon",
                "coordinates": [
                    [
                        [88.3178493680907, 22.5437399930776],
                        [88.3178698508346, 22.5438110772279],
                        [88.3180954822888, 22.5437602503489],
                        [88.3180736937144, 22.5436890191711],
                        [88.3178493680907, 22.5437399930776]
                    ]
                ]
            },
            "properties": {
    "floor": "ground",
                "fill-opacity": 0,
                "stroke-opacity": 1,
                "stroke": "#ff0000",
                "ID": "1-B12-H1",
                "REMARKS": "POLYGON-41",
                "AREA": 0
            },
            "id": "s1.13"
        },
        {
            "type": "Feature",
            "geometry": {
                "type": "Polygon",
                "coordinates": [
                    [
                        [88.3178493680907, 22.5437399930776],
                        [88.3178248890899, 22.5436550401543],
                        [88.3176079625024, 22.543706506396 ],
                        [88.3176316435329, 22.5437894670122],
                        [88.3178493680907, 22.5437399930776]
                    ]
                ]
            },
            "properties": {
    "floor": "ground",
                "fill-opacity": 0,
                "stroke-opacity": 1,
                "stroke": "#ff0000",
                "ID": "1-B13-H2",
                "REMARKS": "POLYGON-41",
                "AREA": 0
            },
            "id": "s1.14"
        },
        {
            "type": "Feature",
            "geometry": {
                "type": "Polygon",
                "coordinates": [
                    [
                        [88.318062732993 , 22.5444804633412],
                        [88.3180458969992, 22.5444220350213],
                        [88.3178253652607, 22.5444681230328],
                        [88.3178416685931, 22.5445252377139],
                        [88.318062732993 , 22.5444804633412]
                    ]
                ]
            },
            "properties": {
    "floor": "ground",
                "fill-opacity": 0,
                "stroke-opacity": 1,
                "stroke": "#ff0000",
                "ID": "1-B1-H2",
                "REMARKS": "POLYGON-41",
                "AREA": 0
            },
            "id": "s1.15"
        },
        {
            "type": "Feature",
            "geometry": {
                "type": "Polygon",
                "coordinates": [
                    [
                        [88.3180458969992, 22.5444220350213],
                        [88.3180265037126, 22.544354731768 ],
                        [88.3178063893786, 22.5444016457368],
                        [88.3178253652607, 22.5444681230328],
                        [88.3180458969992, 22.5444220350213]
                    ]
                ]
            },
            "properties": {
    "floor": "ground",
                "fill-opacity": 0,
                "stroke-opacity": 1,
                "stroke": "#ff0000",
                "ID": "1-B2-H2",
                "REMARKS": "POLYGON-41",
                "AREA": 0
            },
            "id": "s1.16"
        },
        {
            "type": "Feature",
            "geometry": {
                "type": "Polygon",
                "coordinates": [
                    [
                        [88.3180265037126, 22.544354731768 ],
                        [88.3180077281234, 22.5442895721972],
                        [88.3177883882285, 22.5443385831727],
                        [88.3178063893786, 22.5444016457368],
                        [88.3180265037126, 22.544354731768 ]
                    ]
                ]
            },
            "properties": {
    "floor": "ground",
                "fill-opacity": 0,
                "stroke-opacity": 1,
                "stroke": "#ff0000",
                "ID": "1-B3-H2",
                "REMARKS": "POLYGON-41",
                "AREA": 0
            },
            "id": "s1.17"
        },
        {
            "type": "Feature",
            "geometry": {
                "type": "Polygon",
                "coordinates": [
                    [
                        [88.3180077281234, 22.5442895721972],
                        [88.317989871885 , 22.5442276031788],
                        [88.3177707157546, 22.5442766720442],
                        [88.3177883882285, 22.5443385831727],
                        [88.3180077281234, 22.5442895721972]
                    ]
                ]
            },
            "properties": {
    "floor": "ground",
                "fill-opacity": 0,
                "stroke-opacity": 1,
                "stroke": "#ff0000",
                "ID": "1-B4-H2",
                "REMARKS": "POLYGON-41",
                "AREA": 0
            },
            "id": "s1.18"
        },
        {
            "type": "Feature",
            "geometry": {
                "type": "Polygon",
                "coordinates": [
                    [
                        [88.317989871885 , 22.5442276031788],
                        [88.3179717517578, 22.5441647183498],
                        [88.3177520875063, 22.5442114125968],
                        [88.3177707157546, 22.5442766720442],
                        [88.317989871885 , 22.5442276031788]
                    ]
                ]
            },
            "properties": {
    "floor": "ground",
                "fill-opacity": 0,
                "stroke-opacity": 1,
                "stroke": "#ff0000",
                "ID": "1-B5-H2",
                "REMARKS": "POLYGON-41",
                "AREA": 0
            },
            "id": "s1.19"
        },
        {
            "type": "Feature",
            "geometry": {
                "type": "Polygon",
                "coordinates": [
                    [
                        [88.3179717517578, 22.5441647183498],
                        [88.3179555286038, 22.5441084168543],
                        [88.3177361295255, 22.5441555077697],
                        [88.3177520875063, 22.5442114125968],
                        [88.3179717517578, 22.5441647183498]
                    ]
                ]
            },
            "properties": {
    "floor": "ground",
                "fill-opacity": 0,
                "stroke-opacity": 1,
                "stroke": "#ff0000",
                "ID": "1-B6-H2",
                "REMARKS": "POLYGON-41",
                "AREA": 0
            },
            "id": "s1.20"
        },
        {
            "type": "Feature",
            "geometry": {
                "type": "Polygon",
                "coordinates": [
                    [
                        [88.3179555286038, 22.5441084168543],
                        [88.3179388549797, 22.5440505520287],
                        [88.3177199131178, 22.5440986976076],
                        [88.3177361295255, 22.5441555077697],
                        [88.3179555286038, 22.5441084168543]
                    ]
                ]
            },
            "properties": {
    "floor": "ground",
                "fill-opacity": 0,
                "stroke-opacity": 1,
                "stroke": "#ff0000",
                "ID": "1-B7-H2",
                "REMARKS": "POLYGON-41",
                "AREA": 0
            },
            "id": "s1.21"
        },
        {
            "type": "Feature",
            "geometry": {
                "type": "Polygon",
                "coordinates": [
                    [
                        [88.3179388549797, 22.5440505520287],
                        [88.3179232626107, 22.5439964396349],
                        [88.3177046664071, 22.5440452845385],
                        [88.3177199131178, 22.5440986976076],
                        [88.3179388549797, 22.5440505520287]
                    ]
                ]
            },
            "properties": {
    "floor": "ground",
                "fill-opacity": 0,
                "stroke-opacity": 1,
                "stroke": "#ff0000",
                "ID": "1-B8-H2",
                "REMARKS": "POLYGON-41",
                "AREA": 0
            },
            "id": "s1.22"
        },
        {
            "type": "Feature",
            "geometry": {
                "type": "Polygon",
                "coordinates": [
                    [
                        [88.3179232626107, 22.5439964396349],
                        [88.3179061679923, 22.543937113774 ],
                        [88.3176877223013, 22.5439859250668],
                        [88.3177046664071, 22.5440452845385],
                        [88.3179232626107, 22.5439964396349]
                    ]
                ]
            },
            "properties": {
    "floor": "ground",
                "fill-opacity": 0,
                "stroke-opacity": 1,
                "stroke": "#ff0000",
                "ID": "1-B9-H2",
                "REMARKS": "POLYGON-41",
                "AREA": 0
            },
            "id": "s1.23"
        },
        {
            "type": "Feature",
            "geometry": {
                "type": "Polygon",
                "coordinates": [
                    [
                        [88.3179061679923, 22.543937113774 ],
                        [88.3178878200468, 22.543873438315 ],
                        [88.3176688969483, 22.5439199751122],
                        [88.3176877223013, 22.5439859250668],
                        [88.3179061679923, 22.543937113774 ]
                    ]
                ]
            },
            "properties": {
    "floor": "ground",
                "fill-opacity": 0,
                "stroke-opacity": 1,
                "stroke": "#ff0000",
                "ID": "1-B10-H2",
                "REMARKS": "POLYGON-41",
                "AREA": 0
            },
            "id": "s1.24"
        },
        {
            "type": "Feature",
            "geometry": {
                "type": "Polygon",
                "coordinates": [
                    [
                        [88.3178878200468, 22.543873438315 ],
                        [88.3178698508346, 22.5438110772279],
                        [88.3176518311822, 22.543860189434 ],
                        [88.3176688969483, 22.5439199751122],
                        [88.3178878200468, 22.543873438315 ]
                    ]
                ]
            },
            "properties": {
    "floor": "ground",
                "fill-opacity": 0,
                "stroke-opacity": 1,
                "stroke": "#ff0000",
                "ID": "1-B11-H2",
                "REMARKS": "POLYGON-41",
                "AREA": 0
            },
            "id": "s1.25"
        },
        {
            "type": "Feature",
            "geometry": {
                "type": "Polygon",
                "coordinates": [
                    [
                        [88.3178698508346, 22.5438110772279],
                        [88.3178493680907, 22.5437399930776],
                        [88.3176316435329, 22.5437894670122],
                        [88.3176518311822, 22.543860189434 ],
                        [88.3178698508346, 22.5438110772279]
                    ]
                ]
            },
            "properties": {
    "floor": "ground",
                "fill-opacity": 0,
                "stroke-opacity": 1,
                "stroke": "#ff0000",
                "ID": "1-B12-H2",
                "REMARKS": "POLYGON-41",
                "AREA": 0
            },
            "id": "s1.26"
        }
    ]
}
