{"type":"FeatureCollection", "features": [
{"type":"Feature","geometry":{"type":"Polygon","coordinates":[[[88.2982848376016,22.5446874288568],[88.2982833746346,22.5446815877707],[88.2982736361043,22.5446427054073],[88.29826389758,22.5446038230429],[88.2982541590617,22.5445649406774],[88.2982444205494,22.5445260583109],[88.2982346820431,22.5444871759433],[88.2982249435429,22.5444482935747],[88.2982152050486,22.5444094112051],[88.2982054665604,22.5443705288345],[88.2981957280783,22.5443316464628],[88.2982475845709,22.5443183340051],[88.2983252576393,22.5446757871098],[88.2982848376016,22.5446874288568]]]},"properties": {
    "floor": "ground","fill-opacity":0,"stroke-opacity":1,"stroke":"#ff0000","ID":"32-106","REMARKS":"POLYGON ID-32","AREA":199.202}},
{"type":"Feature","geometry":{"type":"Polygon","coordinates":[[[88.2977804859607,22.5445193582092],[88.2977707459964,22.544481302292],[88.2979881063726,22.5444259157062],[88.2979978455982,22.5444643848502],[88.2977804859607,22.5445193582092]]]},"properties": {
    "floor": "ground","fill-opacity":0,"stroke-opacity":1,"stroke":"#ff0000","ID":"32-67","REMARKS":"POLYGON ID-32","AREA":100.82}},
{"type":"Feature","geometry":{"type":"Polygon","coordinates":[[[88.2975631261361,22.5445743312821],[88.2975533854319,22.5445366885917],[88.2977707459964,22.544481302292],[88.2977804859607,22.5445193582092],[88.2975631261361,22.5445743312821]]]},"properties": {
    "floor": "ground","fill-opacity":0,"stroke-opacity":1,"stroke":"#ff0000","ID":"32-33","REMARKS":"POLYGON ID-32","AREA":99.798}},
{"type":"Feature","geometry":{"type":"Polygon","coordinates":[[[88.2979978455982,22.5444643848502],[88.2979881063726,22.5444259157062],[88.2982054665604,22.5443705288345],[88.2982152050486,22.5444094112051],[88.2979978455982,22.5444643848502]]]},"properties": {
    "floor": "ground","fill-opacity":0,"stroke-opacity":1,"stroke":"#ff0000","ID":"32-101","REMARKS":"POLYGON ID-32","AREA":101.843}},
{"type":"Feature","geometry":{"type":"Polygon","coordinates":[[[88.2977707459964,22.544481302292],[88.2977610060381,22.5444432463737],[88.297978367153,22.5443874465613],[88.2979881063726,22.5444259157062],[88.2977707459964,22.544481302292]]]},"properties": {
    "floor": "ground","fill-opacity":0,"stroke-opacity":1,"stroke":"#ff0000","ID":"32-68","REMARKS":"POLYGON ID-32","AREA":100.866}},
{"type":"Feature","geometry":{"type":"Polygon","coordinates":[[[88.2975533854319,22.5445366885917],[88.2975436447335,22.5444990459002],[88.2977610060381,22.5444432463737],[88.2977707459964,22.544481302292],[88.2975533854319,22.5445366885917]]]},"properties": {
    "floor": "ground","fill-opacity":0,"stroke-opacity":1,"stroke":"#ff0000","ID":"32-34","REMARKS":"POLYGON ID-32","AREA":99.844}},
{"type":"Feature","geometry":{"type":"Polygon","coordinates":[[[88.2979881063726,22.5444259157062],[88.297978367153,22.5443874465613],[88.2981957280783,22.5443316464628],[88.2982054665604,22.5443705288345],[88.2979881063726,22.5444259157062]]]},"properties": {
    "floor": "ground","fill-opacity":0,"stroke-opacity":1,"stroke":"#ff0000","ID":"32-102","REMARKS":"POLYGON ID-32","AREA":101.889}},
{"type":"Feature","geometry":{"type":"Polygon","coordinates":[[[88.2977999659068,22.5445954700406],[88.2977902259308,22.5445574141254],[88.2980075848297,22.5445028539931],[88.2980173240672,22.544541323135],[88.2977999659068,22.5445954700406]]]},"properties": {
    "floor": "ground","fill-opacity":0,"stroke-opacity":1,"stroke":"#ff0000","ID":"32-65","REMARKS":"POLYGON ID-32","AREA":100.728}},
{"type":"Feature","geometry":{"type":"Polygon","coordinates":[[[88.2975826075619,22.54464961666],[88.2975728668461,22.5446119739716],[88.2977902259308,22.5445574141254],[88.2977999659068,22.5445954700406],[88.2975826075619,22.54464961666]]]},"properties": {
    "floor": "ground","fill-opacity":0,"stroke-opacity":1,"stroke":"#ff0000","ID":"32-31","REMARKS":"POLYGON ID-32","AREA":99.706}},
{"type":"Feature","geometry":{"type":"Polygon","coordinates":[[[88.2980173240672,22.544541323135],[88.2980075848297,22.5445028539931],[88.2982249435429,22.5444482935747],[88.2982346820431,22.5444871759433],[88.2980173240672,22.544541323135]]]},"properties": {
    "floor": "ground","fill-opacity":0,"stroke-opacity":1,"stroke":"#ff0000","ID":"32-99","REMARKS":"POLYGON ID-32","AREA":101.75}},
{"type":"Feature","geometry":{"type":"Polygon","coordinates":[[[88.2977902259308,22.5445574141254],[88.2977804859607,22.5445193582092],[88.2979978455982,22.5444643848502],[88.2980075848297,22.5445028539931],[88.2977902259308,22.5445574141254]]]},"properties": {
    "floor": "ground","fill-opacity":0,"stroke-opacity":1,"stroke":"#ff0000","ID":"32-66","REMARKS":"POLYGON ID-32","AREA":100.774}},
{"type":"Feature","geometry":{"type":"Polygon","coordinates":[[[88.2975728668461,22.5446119739716],[88.2975631261361,22.5445743312821],[88.2977804859607,22.5445193582092],[88.2977902259308,22.5445574141254],[88.2975728668461,22.5446119739716]]]},"properties": {
    "floor": "ground","fill-opacity":0,"stroke-opacity":1,"stroke":"#ff0000","ID":"32-32","REMARKS":"POLYGON ID-32","AREA":99.752}},
{"type":"Feature","geometry":{"type":"Polygon","coordinates":[[[88.2980075848297,22.5445028539931],[88.2979978455982,22.5444643848502],[88.2982152050486,22.5444094112051],[88.2982249435429,22.5444482935747],[88.2980075848297,22.5445028539931]]]},"properties": {
    "floor": "ground","fill-opacity":0,"stroke-opacity":1,"stroke":"#ff0000","ID":"32-100","REMARKS":"POLYGON ID-32","AREA":101.796}},
{"type":"Feature","geometry":{"type":"Polygon","coordinates":[[[88.2978194458765,22.5446715818679],[88.2978097058887,22.5446335259548],[88.2980270633107,22.5445797922759],[88.29803680256,22.5446182614158],[88.2978194458765,22.5446715818679]]]},"properties": {
    "floor": "ground","fill-opacity":0,"stroke-opacity":1,"stroke":"#ff0000","ID":"32-63","REMARKS":"POLYGON ID-32","AREA":100.636}},
{"type":"Feature","geometry":{"type":"Polygon","coordinates":[[[88.297602089011,22.5447249020338],[88.2975923482835,22.5446872593474],[88.2978097058887,22.5446335259548],[88.2978194458765,22.5446715818679],[88.297602089011,22.5447249020338]]]},"properties": {
    "floor": "ground","fill-opacity":0,"stroke-opacity":1,"stroke":"#ff0000","ID":"32-29","REMARKS":"POLYGON ID-32","AREA":99.613}},
{"type":"Feature","geometry":{"type":"Polygon","coordinates":[[[88.29803680256,22.5446182614158],[88.2980270633107,22.5445797922759],[88.2982444205494,22.5445260583109],[88.2982541590617,22.5445649406774],[88.29803680256,22.5446182614158]]]},"properties": {
    "floor": "ground","fill-opacity":0,"stroke-opacity":1,"stroke":"#ff0000","ID":"32-97","REMARKS":"POLYGON ID-32","AREA":101.658}},
{"type":"Feature","geometry":{"type":"Polygon","coordinates":[[[88.2978097058887,22.5446335259548],[88.2977999659068,22.5445954700406],[88.2980173240672,22.544541323135],[88.2980270633107,22.5445797922759],[88.2978097058887,22.5446335259548]]]},"properties": {
    "floor": "ground","fill-opacity":0,"stroke-opacity":1,"stroke":"#ff0000","ID":"32-64","REMARKS":"POLYGON ID-32","AREA":100.682}},
{"type":"Feature","geometry":{"type":"Polygon","coordinates":[[[88.2975923482835,22.5446872593474],[88.2975826075619,22.54464961666],[88.2977999659068,22.5445954700406],[88.2978097058887,22.5446335259548],[88.2975923482835,22.5446872593474]]]},"properties": {
    "floor": "ground","fill-opacity":0,"stroke-opacity":1,"stroke":"#ff0000","ID":"32-30","REMARKS":"POLYGON ID-32","AREA":99.659}},
{"type":"Feature","geometry":{"type":"Polygon","coordinates":[[[88.2980270633107,22.5445797922759],[88.2980173240672,22.544541323135],[88.2982346820431,22.5444871759433],[88.2982444205494,22.5445260583109],[88.2980270633107,22.5445797922759]]]},"properties": {
    "floor": "ground","fill-opacity":0,"stroke-opacity":1,"stroke":"#ff0000","ID":"32-98","REMARKS":"POLYGON ID-32","AREA":101.704}},
{"type":"Feature","geometry":{"type":"Polygon","coordinates":[[[88.2978389258697,22.5447476936912],[88.2978291858701,22.54470963778],[88.2980465418154,22.5446567305546],[88.2980562810767,22.5446951996924],[88.2978389258697,22.5447476936912]]]},"properties": {
    "floor": "ground","fill-opacity":0,"stroke-opacity":1,"stroke":"#ff0000","ID":"32-61","REMARKS":"POLYGON ID-32","AREA":100.543}},
{"type":"Feature","geometry":{"type":"Polygon","coordinates":[[[88.2976215704832,22.5448001874035],[88.2976118297442,22.5447625447191],[88.2978291858701,22.54470963778],[88.2978389258697,22.5447476936912],[88.2976215704832,22.5448001874035]]]},"properties": {
    "floor": "ground","fill-opacity":0,"stroke-opacity":1,"stroke":"#ff0000","ID":"32-27","REMARKS":"POLYGON ID-32","AREA":99.521}},
{"type":"Feature","geometry":{"type":"Polygon","coordinates":[[[88.2980562810767,22.5446951996924],[88.2980465418154,22.5446567305546],[88.29826389758,22.5446038230429],[88.2982736361043,22.5446427054073],[88.2980562810767,22.5446951996924]]]},"properties": {
    "floor": "ground","fill-opacity":0,"stroke-opacity":1,"stroke":"#ff0000","ID":"32-95","REMARKS":"POLYGON ID-32","AREA":101.565}},
{"type":"Feature","geometry":{"type":"Polygon","coordinates":[[[88.2978291858701,22.54470963778],[88.2978194458765,22.5446715818679],[88.29803680256,22.5446182614158],[88.2980465418154,22.5446567305546],[88.2978291858701,22.54470963778]]]},"properties": {
    "floor": "ground","fill-opacity":0,"stroke-opacity":1,"stroke":"#ff0000","ID":"32-62","REMARKS":"POLYGON ID-32","AREA":100.589}},
{"type":"Feature","geometry":{"type":"Polygon","coordinates":[[[88.2976118297442,22.5447625447191],[88.297602089011,22.5447249020338],[88.2978194458765,22.5446715818679],[88.2978291858701,22.54470963778],[88.2976118297442,22.5447625447191]]]},"properties": {
    "floor": "ground","fill-opacity":0,"stroke-opacity":1,"stroke":"#ff0000","ID":"32-28","REMARKS":"POLYGON ID-32","AREA":99.567}},
{"type":"Feature","geometry":{"type":"Polygon","coordinates":[[[88.2980465418154,22.5446567305546],[88.29803680256,22.5446182614158],[88.2982541590617,22.5445649406774],[88.29826389758,22.5446038230429],[88.2980465418154,22.5446567305546]]]},"properties": {
    "floor": "ground","fill-opacity":0,"stroke-opacity":1,"stroke":"#ff0000","ID":"32-96","REMARKS":"POLYGON ID-32","AREA":101.612}},
{"type":"Feature","geometry":{"type":"Polygon","coordinates":[[[88.2978584058864,22.5448238055104],[88.2978486658751,22.5447857496013],[88.2980660203439,22.5447336688292],[88.2980757596171,22.544772137965],[88.2978584058864,22.5448238055104]]]},"properties": {
    "floor": "ground","fill-opacity":0,"stroke-opacity":1,"stroke":"#ff0000","ID":"32-59","REMARKS":"POLYGON ID-32","AREA":100.451}},
{"type":"Feature","geometry":{"type":"Polygon","coordinates":[[[88.2976410519788,22.5448754727692],[88.2976313112281,22.5448378300869],[88.2978486658751,22.5447857496013],[88.2978584058864,22.5448238055104],[88.2976410519788,22.5448754727692]]]},"properties": {
    "floor": "ground","fill-opacity":0,"stroke-opacity":1,"stroke":"#ff0000","ID":"32-25","REMARKS":"POLYGON ID-32","AREA":99.429}},
{"type":"Feature","geometry":{"type":"Polygon","coordinates":[[[88.2980757596171,22.544772137965],[88.2980660203439,22.5447336688292],[88.2982833746346,22.5446815877707],[88.2982848376016,22.5446874288568],[88.298293113171,22.5447204701331],[88.2980757596171,22.544772137965]]]},"properties": {
    "floor": "ground","fill-opacity":0,"stroke-opacity":1,"stroke":"#ff0000","ID":"32-93","REMARKS":"POLYGON ID-32","AREA":101.473}},
{"type":"Feature","geometry":{"type":"Polygon","coordinates":[[[88.2978486658751,22.5447857496013],[88.2978389258697,22.5447476936912],[88.2980562810767,22.5446951996924],[88.2980660203439,22.5447336688292],[88.2978486658751,22.5447857496013]]]},"properties": {
    "floor": "ground","fill-opacity":0,"stroke-opacity":1,"stroke":"#ff0000","ID":"32-60","REMARKS":"POLYGON ID-32","AREA":100.497}},
{"type":"Feature","geometry":{"type":"Polygon","coordinates":[[[88.2976313112281,22.5448378300869],[88.2976215704832,22.5448001874035],[88.2978389258697,22.5447476936912],[88.2978486658751,22.5447857496013],[88.2976313112281,22.5448378300869]]]},"properties": {
    "floor": "ground","fill-opacity":0,"stroke-opacity":1,"stroke":"#ff0000","ID":"32-26","REMARKS":"POLYGON ID-32","AREA":99.475}},
{"type":"Feature","geometry":{"type":"Polygon","coordinates":[[[88.2980660203439,22.5447336688292],[88.2980562810767,22.5446951996924],[88.2982736361043,22.5446427054073],[88.2982833746346,22.5446815877707],[88.2980660203439,22.5447336688292]]]},"properties": {
    "floor": "ground","fill-opacity":0,"stroke-opacity":1,"stroke":"#ff0000","ID":"32-94","REMARKS":"POLYGON ID-32","AREA":101.519}},
{"type":"Feature","geometry":{"type":"Polygon","coordinates":[[[88.2982900251327,22.545618458693],[88.2982997645427,22.5456569278053],[88.298082427769,22.5456990911388],[88.2980726876225,22.5456610352531],[88.2982900251327,22.545618458693]]]},"properties": {
    "floor": "ground","fill-opacity":0,"stroke-opacity":1,"stroke":"#ff0000","ID":"32-36","REMARKS":"POLYGON ID-32","AREA":99.389}},
{"type":"Feature","geometry":{"type":"Polygon","coordinates":[[[88.2980726876225,22.5456610352531],[88.298082427769,22.5456990911388],[88.2978650908478,22.5457412541845],[88.2978553499635,22.5457036115254],[88.2980726876225,22.5456610352531]]]},"properties": {
    "floor": "ground","fill-opacity":0,"stroke-opacity":1,"stroke":"#ff0000","ID":"32-2","REMARKS":"POLYGON ID-32","AREA":98.367}},
{"type":"Feature","geometry":{"type":"Polygon","coordinates":[[[88.2985073624942,22.5455758818453],[88.2985171011691,22.545614764184],[88.2982997645427,22.5456569278053],[88.2982900251327,22.545618458693],[88.2985073624942,22.5455758818453]]]},"properties": {
    "floor": "ground","fill-opacity":0,"stroke-opacity":1,"stroke":"#ff0000","ID":"32-70","REMARKS":"POLYGON ID-32","AREA":100.411}},
{"type":"Feature","geometry":{"type":"Polygon","coordinates":[[[88.2983444574943,22.5449254685513],[88.2983418059431,22.5449148819297],[88.2983320673767,22.5448759995724],[88.2983223288162,22.5448371172141],[88.2983125902618,22.5447982348548],[88.2983028517134,22.5447593524945],[88.298293113171,22.5447204701331],[88.2982848376016,22.5446874288568],[88.2983252576393,22.5446757871098],[88.2983781030377,22.5449189815312],[88.2983444574943,22.5449254685513]]]},"properties": {
    "floor": "ground","fill-opacity":0,"stroke-opacity":1,"stroke":"#ff0000","ID":"32-105","REMARKS":"POLYGON ID-32","AREA":107.268}},
{"type":"Feature","geometry":{"type":"Polygon","coordinates":[[[88.2982997645427,22.5456569278053],[88.2983095039587,22.5456953969165],[88.2980921679214,22.5457371470235],[88.298082427769,22.5456990911388],[88.2982997645427,22.5456569278053]]]},"properties": {
    "floor": "ground","fill-opacity":0,"stroke-opacity":1,"stroke":"#ff0000","ID":"32-35","REMARKS":"POLYGON ID-32","AREA":99.343}},
{"type":"Feature","geometry":{"type":"Polygon","coordinates":[[[88.298082427769,22.5456990911388],[88.2980921679214,22.5457371470235],[88.2978748317379,22.5457788968426],[88.2978650908478,22.5457412541845],[88.298082427769,22.5456990911388]]]},"properties": {
    "floor": "ground","fill-opacity":0,"stroke-opacity":1,"stroke":"#ff0000","ID":"32-1","REMARKS":"POLYGON ID-32","AREA":98.32}},
{"type":"Feature","geometry":{"type":"Polygon","coordinates":[[[88.2985171011691,22.545614764184],[88.2985268398499,22.5456536465217],[88.2983095039587,22.5456953969165],[88.2982997645427,22.5456569278053],[88.2985171011691,22.545614764184]]]},"properties": {
    "floor": "ground","fill-opacity":0,"stroke-opacity":1,"stroke":"#ff0000","ID":"32-69","REMARKS":"POLYGON ID-32","AREA":100.365}},
{"type":"Feature","geometry":{"type":"Polygon","coordinates":[[[88.2982705463305,22.5455415204655],[88.2982802857286,22.5455799895798],[88.2980629474818,22.5456229793664],[88.298053207347,22.5455849234786],[88.2982705463305,22.5455415204655]]]},"properties": {
    "floor": "ground","fill-opacity":0,"stroke-opacity":1,"stroke":"#ff0000","ID":"32-38","REMARKS":"POLYGON ID-32","AREA":99.481}},
{"type":"Feature","geometry":{"type":"Polygon","coordinates":[[[88.298053207347,22.5455849234786],[88.2980629474818,22.5456229793664],[88.297845609085,22.5456659688653],[88.2978358682123,22.5456283262042],[88.298053207347,22.5455849234786]]]},"properties": {
    "floor": "ground","fill-opacity":0,"stroke-opacity":1,"stroke":"#ff0000","ID":"32-4","REMARKS":"POLYGON ID-32","AREA":98.459}},
{"type":"Feature","geometry":{"type":"Polygon","coordinates":[[[88.2984878851626,22.5454981171648],[88.2984976238254,22.5455369995056],[88.2982802857286,22.5455799895798],[88.2982705463305,22.5455415204655],[88.2984878851626,22.5454981171648]]]},"properties": {
    "floor": "ground","fill-opacity":0,"stroke-opacity":1,"stroke":"#ff0000","ID":"32-72","REMARKS":"POLYGON ID-32","AREA":100.503}},
{"type":"Feature","geometry":{"type":"Polygon","coordinates":[[[88.2982802857286,22.5455799895798],[88.2982900251327,22.545618458693],[88.2980726876225,22.5456610352531],[88.2980629474818,22.5456229793664],[88.2982802857286,22.5455799895798]]]},"properties": {
    "floor": "ground","fill-opacity":0,"stroke-opacity":1,"stroke":"#ff0000","ID":"32-37","REMARKS":"POLYGON ID-32","AREA":99.435}},
{"type":"Feature","geometry":{"type":"Polygon","coordinates":[[[88.2980629474818,22.5456229793664],[88.2980726876225,22.5456610352531],[88.2978553499635,22.5457036115254],[88.297845609085,22.5456659688653],[88.2980629474818,22.5456229793664]]]},"properties": {
    "floor": "ground","fill-opacity":0,"stroke-opacity":1,"stroke":"#ff0000","ID":"32-3","REMARKS":"POLYGON ID-32","AREA":98.413}},
{"type":"Feature","geometry":{"type":"Polygon","coordinates":[[[88.2984976238254,22.5455369995056],[88.2985073624942,22.5455758818453],[88.2982900251327,22.545618458693],[88.2982802857286,22.5455799895798],[88.2984976238254,22.5455369995056]]]},"properties": {
    "floor": "ground","fill-opacity":0,"stroke-opacity":1,"stroke":"#ff0000","ID":"32-71","REMARKS":"POLYGON ID-32","AREA":100.457}},
{"type":"Feature","geometry":{"type":"Polygon","coordinates":[[[88.298251067552,22.5454645822339],[88.2982608069383,22.5455030513502],[88.2980434672181,22.5455468675899],[88.2980337270951,22.5455088117001],[88.298251067552,22.5454645822339]]]},"properties": {
    "floor": "ground","fill-opacity":0,"stroke-opacity":1,"stroke":"#ff0000","ID":"32-40","REMARKS":"POLYGON ID-32","AREA":99.574}},
{"type":"Feature","geometry":{"type":"Polygon","coordinates":[[[88.2980337270951,22.5455088117001],[88.2980434672181,22.5455468675899],[88.2978261273454,22.545590683542],[88.2978163864844,22.5455530408788],[88.2980337270951,22.5455088117001]]]},"properties": {
    "floor": "ground","fill-opacity":0,"stroke-opacity":1,"stroke":"#ff0000","ID":"32-6","REMARKS":"POLYGON ID-32","AREA":98.551}},
{"type":"Feature","geometry":{"type":"Polygon","coordinates":[[[88.2984684078551,22.5454203524802],[88.2984781465058,22.545459234823],[88.2982608069383,22.5455030513502],[88.298251067552,22.5454645822339],[88.2984684078551,22.5454203524802]]]},"properties": {
    "floor": "ground","fill-opacity":0,"stroke-opacity":1,"stroke":"#ff0000","ID":"32-74","REMARKS":"POLYGON ID-32","AREA":100.596}},
{"type":"Feature","geometry":{"type":"Polygon","coordinates":[[[88.2982608069383,22.5455030513502],[88.2982705463305,22.5455415204655],[88.298053207347,22.5455849234786],[88.2980434672181,22.5455468675899],[88.2982608069383,22.5455030513502]]]},"properties": {
    "floor": "ground","fill-opacity":0,"stroke-opacity":1,"stroke":"#ff0000","ID":"32-39","REMARKS":"POLYGON ID-32","AREA":99.527}},
{"type":"Feature","geometry":{"type":"Polygon","coordinates":[[[88.2980434672181,22.5455468675899],[88.298053207347,22.5455849234786],[88.2978358682123,22.5456283262042],[88.2978261273454,22.545590683542],[88.2980434672181,22.5455468675899]]]},"properties": {
    "floor": "ground","fill-opacity":0,"stroke-opacity":1,"stroke":"#ff0000","ID":"32-5","REMARKS":"POLYGON ID-32","AREA":98.505}},
{"type":"Feature","geometry":{"type":"Polygon","coordinates":[[[88.2984781465058,22.545459234823],[88.2984878851626,22.5454981171648],[88.2982705463305,22.5455415204655],[88.2982608069383,22.5455030513502],[88.2984781465058,22.545459234823]]]},"properties": {
    "floor": "ground","fill-opacity":0,"stroke-opacity":1,"stroke":"#ff0000","ID":"32-73","REMARKS":"POLYGON ID-32","AREA":100.55}},
{"type":"Feature","geometry":{"type":"Polygon","coordinates":[[[88.2982315887974,22.5453876439981],[88.2982413281717,22.5454261131165],[88.298023986978,22.5454707558093],[88.2980142468667,22.5454326999175],[88.2982315887974,22.5453876439981]]]},"properties": {
    "floor": "ground","fill-opacity":0,"stroke-opacity":1,"stroke":"#ff0000","ID":"32-42","REMARKS":"POLYGON ID-32","AREA":99.666}},
{"type":"Feature","geometry":{"type":"Polygon","coordinates":[[[88.2980142468667,22.5454326999175],[88.298023986978,22.5454707558093],[88.2978066456291,22.5455153982147],[88.2977969047797,22.5454777555495],[88.2980142468667,22.5454326999175]]]},"properties": {
    "floor": "ground","fill-opacity":0,"stroke-opacity":1,"stroke":"#ff0000","ID":"32-8","REMARKS":"POLYGON ID-32","AREA":98.644}},
{"type":"Feature","geometry":{"type":"Polygon","coordinates":[[[88.2984489305716,22.5453425877914],[88.2984586692103,22.5453814701363],[88.2982413281717,22.5454261131165],[88.2982315887974,22.5453876439981],[88.2984489305716,22.5453425877914]]]},"properties": {
    "floor": "ground","fill-opacity":0,"stroke-opacity":1,"stroke":"#ff0000","ID":"32-76","REMARKS":"POLYGON ID-32","AREA":100.688}},
{"type":"Feature","geometry":{"type":"Polygon","coordinates":[[[88.2982413281717,22.5454261131165],[88.298251067552,22.5454645822339],[88.2980337270951,22.5455088117001],[88.298023986978,22.5454707558093],[88.2982413281717,22.5454261131165]]]},"properties": {
    "floor": "ground","fill-opacity":0,"stroke-opacity":1,"stroke":"#ff0000","ID":"32-41","REMARKS":"POLYGON ID-32","AREA":99.62}},
{"type":"Feature","geometry":{"type":"Polygon","coordinates":[[[88.298023986978,22.5454707558093],[88.2980337270951,22.5455088117001],[88.2978163864844,22.5455530408788],[88.2978066456291,22.5455153982147],[88.298023986978,22.5454707558093]]]},"properties": {
    "floor": "ground","fill-opacity":0,"stroke-opacity":1,"stroke":"#ff0000","ID":"32-7","REMARKS":"POLYGON ID-32","AREA":98.597}},
{"type":"Feature","geometry":{"type":"Polygon","coordinates":[[[88.2984586692103,22.5453814701363],[88.2984684078551,22.5454203524802],[88.298251067552,22.5454645822339],[88.2982413281717,22.5454261131165],[88.2984586692103,22.5453814701363]]]},"properties": {
    "floor": "ground","fill-opacity":0,"stroke-opacity":1,"stroke":"#ff0000","ID":"32-75","REMARKS":"POLYGON ID-32","AREA":100.642}},
{"type":"Feature","geometry":{"type":"Polygon","coordinates":[[[88.2982121100665,22.5453107057583],[88.298221849429,22.5453491748787],[88.2980045067613,22.5453946440247],[88.2979947666618,22.5453565881308],[88.2982121100665,22.5453107057583]]]},"properties": {
    "floor": "ground","fill-opacity":0,"stroke-opacity":1,"stroke":"#ff0000","ID":"32-44","REMARKS":"POLYGON ID-32","AREA":99.758}},
{"type":"Feature","geometry":{"type":"Polygon","coordinates":[[[88.2979947666618,22.5453565881308],[88.2980045067613,22.5453946440247],[88.2977871639361,22.5454401128833],[88.2977774230982,22.5454024702161],[88.2979947666618,22.5453565881308]]]},"properties": {
    "floor": "ground","fill-opacity":0,"stroke-opacity":1,"stroke":"#ff0000","ID":"32-10","REMARKS":"POLYGON ID-32","AREA":98.736}},
{"type":"Feature","geometry":{"type":"Polygon","coordinates":[[[88.2984294533123,22.5452648230986],[88.2984391919389,22.5453037054455],[88.298221849429,22.5453491748787],[88.2982121100665,22.5453107057583],[88.2984294533123,22.5452648230986]]]},"properties": {
    "floor": "ground","fill-opacity":0,"stroke-opacity":1,"stroke":"#ff0000","ID":"32-78","REMARKS":"POLYGON ID-32","AREA":100.781}},
{"type":"Feature","geometry":{"type":"Polygon","coordinates":[[[88.298221849429,22.5453491748787],[88.2982315887974,22.5453876439981],[88.2980142468667,22.5454326999175],[88.2980045067613,22.5453946440247],[88.298221849429,22.5453491748787]]]},"properties": {
    "floor": "ground","fill-opacity":0,"stroke-opacity":1,"stroke":"#ff0000","ID":"32-43","REMARKS":"POLYGON ID-32","AREA":99.712}},
{"type":"Feature","geometry":{"type":"Polygon","coordinates":[[[88.2980045067613,22.5453946440247],[88.2980142468667,22.5454326999175],[88.2977969047797,22.5454777555495],[88.2977871639361,22.5454401128833],[88.2980045067613,22.5453946440247]]]},"properties": {
    "floor": "ground","fill-opacity":0,"stroke-opacity":1,"stroke":"#ff0000","ID":"32-9","REMARKS":"POLYGON ID-32","AREA":98.69}},
{"type":"Feature","geometry":{"type":"Polygon","coordinates":[[[88.2984391919389,22.5453037054455],[88.2984489305716,22.5453425877914],[88.2982315887974,22.5453876439981],[88.298221849429,22.5453491748787],[88.2984391919389,22.5453037054455]]]},"properties": {
    "floor": "ground","fill-opacity":0,"stroke-opacity":1,"stroke":"#ff0000","ID":"32-77","REMARKS":"POLYGON ID-32","AREA":100.734}},
{"type":"Feature","geometry":{"type":"Polygon","coordinates":[[[88.2981926313595,22.5452337675144],[88.29820237071,22.5452722366369],[88.2979850265682,22.545318532236],[88.2979752864805,22.5452804763401],[88.2981926313595,22.5452337675144]]]},"properties": {
    "floor": "ground","fill-opacity":0,"stroke-opacity":1,"stroke":"#ff0000","ID":"32-46","REMARKS":"POLYGON ID-32","AREA":99.851}},
{"type":"Feature","geometry":{"type":"Polygon","coordinates":[[[88.2979752864805,22.5452804763401],[88.2979850265682,22.545318532236],[88.2977676822662,22.5453648275479],[88.29775794144,22.5453271848787],[88.2979752864805,22.5452804763401]]]},"properties": {
    "floor": "ground","fill-opacity":0,"stroke-opacity":1,"stroke":"#ff0000","ID":"32-12","REMARKS":"POLYGON ID-32","AREA":98.828}},
{"type":"Feature","geometry":{"type":"Polygon","coordinates":[[[88.298409976077,22.5451870584016],[88.2984197146916,22.5452259407506],[88.29820237071,22.5452722366369],[88.2981926313595,22.5452337675144],[88.298409976077,22.5451870584016]]]},"properties": {
    "floor": "ground","fill-opacity":0,"stroke-opacity":1,"stroke":"#ff0000","ID":"32-80","REMARKS":"POLYGON ID-32","AREA":100.873}},
{"type":"Feature","geometry":{"type":"Polygon","coordinates":[[[88.29820237071,22.5452722366369],[88.2982121100665,22.5453107057583],[88.2979947666618,22.5453565881308],[88.2979850265682,22.545318532236],[88.29820237071,22.5452722366369]]]},"properties": {
    "floor": "ground","fill-opacity":0,"stroke-opacity":1,"stroke":"#ff0000","ID":"32-45","REMARKS":"POLYGON ID-32","AREA":99.804}},
{"type":"Feature","geometry":{"type":"Polygon","coordinates":[[[88.2979850265682,22.545318532236],[88.2979947666618,22.5453565881308],[88.2977774230982,22.5454024702161],[88.2977676822662,22.5453648275479],[88.2979850265682,22.545318532236]]]},"properties": {
    "floor": "ground","fill-opacity":0,"stroke-opacity":1,"stroke":"#ff0000","ID":"32-11","REMARKS":"POLYGON ID-32","AREA":98.782}},
{"type":"Feature","geometry":{"type":"Polygon","coordinates":[[[88.2984197146916,22.5452259407506],[88.2984228673406,22.5452385279973],[88.2984294533123,22.5452648230986],[88.2982121100665,22.5453107057583],[88.29820237071,22.5452722366369],[88.2984197146916,22.5452259407506]]]},"properties": {
    "floor": "ground","fill-opacity":0,"stroke-opacity":1,"stroke":"#ff0000","ID":"32-79","REMARKS":"POLYGON ID-32","AREA":100.827}},
{"type":"Feature","geometry":{"type":"Polygon","coordinates":[[[88.2984462738445,22.545232701992],[88.2985373078099,22.5456516356104],[88.2985268398499,22.5456536465217],[88.2985171011691,22.545614764184],[88.2985073624942,22.5455758818453],[88.2984976238254,22.5455369995056],[88.2984878851626,22.5454981171648],[88.2984781465058,22.545459234823],[88.2984684078551,22.5454203524802],[88.2984586692103,22.5453814701363],[88.2984489305716,22.5453425877914],[88.2984391919389,22.5453037054455],[88.2984294533123,22.5452648230986],[88.2984228673406,22.5452385279973],[88.2984462738445,22.545232701992]]]},"properties": {
    "floor": "ground","fill-opacity":0,"stroke-opacity":1,"stroke":"#ff0000","ID":"32-103","REMARKS":"POLYGON ID-32","AREA":84.778}},
{"type":"Feature","geometry":{"type":"Polygon","coordinates":[[[88.2981731526763,22.5451568292664],[88.2981828920149,22.5451952983909],[88.2979655463986,22.5452424204432],[88.2979558063227,22.5452043645453],[88.2981731526763,22.5451568292664]]]},"properties": {
    "floor": "ground","fill-opacity":0,"stroke-opacity":1,"stroke":"#ff0000","ID":"32-48","REMARKS":"POLYGON ID-32","AREA":99.943}},
{"type":"Feature","geometry":{"type":"Polygon","coordinates":[[[88.2979558063227,22.5452043645453],[88.2979655463986,22.5452424204432],[88.2977482006196,22.5452895422084],[88.297738459805,22.5452518995372],[88.2979558063227,22.5452043645453]]]},"properties": {
    "floor": "ground","fill-opacity":0,"stroke-opacity":1,"stroke":"#ff0000","ID":"32-14","REMARKS":"POLYGON ID-32","AREA":98.921}},
{"type":"Feature","geometry":{"type":"Polygon","coordinates":[[[88.2983904988658,22.5451092937005],[88.2984002374684,22.5451481760515],[88.2981828920149,22.5451952983909],[88.2981731526763,22.5451568292664],[88.2983904988658,22.5451092937005]]]},"properties": {
    "floor": "ground","fill-opacity":0,"stroke-opacity":1,"stroke":"#ff0000","ID":"32-82","REMARKS":"POLYGON ID-32","AREA":100.965}},
{"type":"Feature","geometry":{"type":"Polygon","coordinates":[[[88.2981828920149,22.5451952983909],[88.2981926313595,22.5452337675144],[88.2979752864805,22.5452804763401],[88.2979655463986,22.5452424204432],[88.2981828920149,22.5451952983909]]]},"properties": {
    "floor": "ground","fill-opacity":0,"stroke-opacity":1,"stroke":"#ff0000","ID":"32-47","REMARKS":"POLYGON ID-32","AREA":99.897}},
{"type":"Feature","geometry":{"type":"Polygon","coordinates":[[[88.2979655463986,22.5452424204432],[88.2979752864805,22.5452804763401],[88.29775794144,22.5453271848787],[88.2977482006196,22.5452895422084],[88.2979655463986,22.5452424204432]]]},"properties": {
    "floor": "ground","fill-opacity":0,"stroke-opacity":1,"stroke":"#ff0000","ID":"32-13","REMARKS":"POLYGON ID-32","AREA":98.874}},
{"type":"Feature","geometry":{"type":"Polygon","coordinates":[[[88.2984002374684,22.5451481760515],[88.298409976077,22.5451870584016],[88.2981926313595,22.5452337675144],[88.2981828920149,22.5451952983909],[88.2984002374684,22.5451481760515]]]},"properties": {
    "floor": "ground","fill-opacity":0,"stroke-opacity":1,"stroke":"#ff0000","ID":"32-81","REMARKS":"POLYGON ID-32","AREA":100.919}},
{"type":"Feature","geometry":{"type":"Polygon","coordinates":[[[88.2981536740168,22.5450798910143],[88.2981634133436,22.5451183601409],[88.2979460662526,22.5451663086464],[88.2979363261884,22.5451282527465],[88.2981536740168,22.5450798910143]]]},"properties": {
    "floor": "ground","fill-opacity":0,"stroke-opacity":1,"stroke":"#ff0000","ID":"32-50","REMARKS":"POLYGON ID-32","AREA":100.035}},
{"type":"Feature","geometry":{"type":"Polygon","coordinates":[[[88.2979363261884,22.5451282527465],[88.2979460662526,22.5451663086464],[88.2977287189963,22.545214256865],[88.2977189781933,22.5451766141917],[88.2979363261884,22.5451282527465]]]},"properties": {
    "floor": "ground","fill-opacity":0,"stroke-opacity":1,"stroke":"#ff0000","ID":"32-16","REMARKS":"POLYGON ID-32","AREA":99.013}},
{"type":"Feature","geometry":{"type":"Polygon","coordinates":[[[88.2983710216787,22.5450315289952],[88.2983807602692,22.5450704113484],[88.2981634133436,22.5451183601409],[88.2981536740168,22.5450798910143],[88.2983710216787,22.5450315289952]]]},"properties": {
    "floor": "ground","fill-opacity":0,"stroke-opacity":1,"stroke":"#ff0000","ID":"32-84","REMARKS":"POLYGON ID-32","AREA":101.058}},
{"type":"Feature","geometry":{"type":"Polygon","coordinates":[[[88.2981634133436,22.5451183601409],[88.2981731526763,22.5451568292664],[88.2979558063227,22.5452043645453],[88.2979460662526,22.5451663086464],[88.2981634133436,22.5451183601409]]]},"properties": {
    "floor": "ground","fill-opacity":0,"stroke-opacity":1,"stroke":"#ff0000","ID":"32-49","REMARKS":"POLYGON ID-32","AREA":99.989}},
{"type":"Feature","geometry":{"type":"Polygon","coordinates":[[[88.2979460662526,22.5451663086464],[88.2979558063227,22.5452043645453],[88.297738459805,22.5452518995372],[88.2977287189963,22.545214256865],[88.2979460662526,22.5451663086464]]]},"properties": {
    "floor": "ground","fill-opacity":0,"stroke-opacity":1,"stroke":"#ff0000","ID":"32-15","REMARKS":"POLYGON ID-32","AREA":98.967}},
{"type":"Feature","geometry":{"type":"Polygon","coordinates":[[[88.2983807602692,22.5450704113484],[88.2983904988658,22.5451092937005],[88.2981731526763,22.5451568292664],[88.2981634133436,22.5451183601409],[88.2983807602692,22.5450704113484]]]},"properties": {
    "floor": "ground","fill-opacity":0,"stroke-opacity":1,"stroke":"#ff0000","ID":"32-83","REMARKS":"POLYGON ID-32","AREA":101.011}},
{"type":"Feature","geometry":{"type":"Polygon","coordinates":[[[88.2981341953812,22.5450029527581],[88.298143934696,22.5450414218867],[88.29792658613,22.5450901968455],[88.2979168460776,22.5450521409435],[88.2981341953812,22.5450029527581]]]},"properties": {
    "floor": "ground","fill-opacity":0,"stroke-opacity":1,"stroke":"#ff0000","ID":"32-52","REMARKS":"POLYGON ID-32","AREA":100.128}},
{"type":"Feature","geometry":{"type":"Polygon","coordinates":[[[88.2979168460776,22.5450521409435],[88.29792658613,22.5450901968455],[88.2977092373961,22.5451389715174],[88.2976994966048,22.5451013288421],[88.2979168460776,22.5450521409435]]]},"properties": {
    "floor": "ground","fill-opacity":0,"stroke-opacity":1,"stroke":"#ff0000","ID":"32-18","REMARKS":"POLYGON ID-32","AREA":99.105}},
{"type":"Feature","geometry":{"type":"Polygon","coordinates":[[[88.2983515445156,22.5449537642859],[88.2983612830941,22.5449926466411],[88.298143934696,22.5450414218867],[88.2981341953812,22.5450029527581],[88.2983515445156,22.5449537642859]]]},"properties": {
    "floor": "ground","fill-opacity":0,"stroke-opacity":1,"stroke":"#ff0000","ID":"32-86","REMARKS":"POLYGON ID-32","AREA":101.15}},
{"type":"Feature","geometry":{"type":"Polygon","coordinates":[[[88.298143934696,22.5450414218867],[88.2981536740168,22.5450798910143],[88.2979363261884,22.5451282527465],[88.29792658613,22.5450901968455],[88.298143934696,22.5450414218867]]]},"properties": {
    "floor": "ground","fill-opacity":0,"stroke-opacity":1,"stroke":"#ff0000","ID":"32-51","REMARKS":"POLYGON ID-32","AREA":100.081}},
{"type":"Feature","geometry":{"type":"Polygon","coordinates":[[[88.29792658613,22.5450901968455],[88.2979363261884,22.5451282527465],[88.2977189781933,22.5451766141917],[88.2977092373961,22.5451389715174],[88.29792658613,22.5450901968455]]]},"properties": {
    "floor": "ground","fill-opacity":0,"stroke-opacity":1,"stroke":"#ff0000","ID":"32-17","REMARKS":"POLYGON ID-32","AREA":99.059}},
{"type":"Feature","geometry":{"type":"Polygon","coordinates":[[[88.2983612830941,22.5449926466411],[88.2983710216787,22.5450315289952],[88.2981536740168,22.5450798910143],[88.298143934696,22.5450414218867],[88.2983612830941,22.5449926466411]]]},"properties": {
    "floor": "ground","fill-opacity":0,"stroke-opacity":1,"stroke":"#ff0000","ID":"32-85","REMARKS":"POLYGON ID-32","AREA":101.104}},
{"type":"Feature","geometry":{"type":"Polygon","coordinates":[[[88.2981147167694,22.5449260144978],[88.2981244560723,22.5449644836285],[88.297907106031,22.5450140850405],[88.2978973659903,22.5449760291365],[88.2981147167694,22.5449260144978]]]},"properties": {
    "floor": "ground","fill-opacity":0,"stroke-opacity":1,"stroke":"#ff0000","ID":"32-54","REMARKS":"POLYGON ID-32","AREA":100.22}},
{"type":"Feature","geometry":{"type":"Polygon","coordinates":[[[88.2978973659903,22.5449760291365],[88.297907106031,22.5450140850405],[88.2976897558193,22.5450636861659],[88.2976800150395,22.5450260434885],[88.2978973659903,22.5449760291365]]]},"properties": {
    "floor": "ground","fill-opacity":0,"stroke-opacity":1,"stroke":"#ff0000","ID":"32-20","REMARKS":"POLYGON ID-32","AREA":99.198}},
{"type":"Feature","geometry":{"type":"Polygon","coordinates":[[[88.2983320673767,22.5448759995724],[88.2983418059431,22.5449148819297],[88.2981244560723,22.5449644836285],[88.2981147167694,22.5449260144978],[88.2983320673767,22.5448759995724]]]},"properties": {
    "floor": "ground","fill-opacity":0,"stroke-opacity":1,"stroke":"#ff0000","ID":"32-88","REMARKS":"POLYGON ID-32","AREA":101.242}},
{"type":"Feature","geometry":{"type":"Polygon","coordinates":[[[88.2981244560723,22.5449644836285],[88.2981341953812,22.5450029527581],[88.2979168460776,22.5450521409435],[88.297907106031,22.5450140850405],[88.2981244560723,22.5449644836285]]]},"properties": {
    "floor": "ground","fill-opacity":0,"stroke-opacity":1,"stroke":"#ff0000","ID":"32-53","REMARKS":"POLYGON ID-32","AREA":100.174}},
{"type":"Feature","geometry":{"type":"Polygon","coordinates":[[[88.297907106031,22.5450140850405],[88.2979168460776,22.5450521409435],[88.2976994966048,22.5451013288421],[88.2976897558193,22.5450636861659],[88.297907106031,22.5450140850405]]]},"properties": {
    "floor": "ground","fill-opacity":0,"stroke-opacity":1,"stroke":"#ff0000","ID":"32-19","REMARKS":"POLYGON ID-32","AREA":99.152}},
{"type":"Feature","geometry":{"type":"Polygon","coordinates":[[[88.2983418059431,22.5449148819297],[88.2983444574943,22.5449254685513],[88.2983515445156,22.5449537642859],[88.2981341953812,22.5450029527581],[88.2981244560723,22.5449644836285],[88.2983418059431,22.5449148819297]]]},"properties": {
    "floor": "ground","fill-opacity":0,"stroke-opacity":1,"stroke":"#ff0000","ID":"32-87","REMARKS":"POLYGON ID-32","AREA":101.196}},
{"type":"Feature","geometry":{"type":"Polygon","coordinates":[[[88.2983781030377,22.5449189815312],[88.2984462738445,22.545232701992],[88.2984228673406,22.5452385279973],[88.2984197146916,22.5452259407506],[88.298409976077,22.5451870584016],[88.2984002374684,22.5451481760515],[88.2983904988658,22.5451092937005],[88.2983807602692,22.5450704113484],[88.2983710216787,22.5450315289952],[88.2983612830941,22.5449926466411],[88.2983515445156,22.5449537642859],[88.2983444574943,22.5449254685513],[88.2983781030377,22.5449189815312]]]},"properties": {
    "floor": "ground","fill-opacity":0,"stroke-opacity":1,"stroke":"#ff0000","ID":"32-104","REMARKS":"POLYGON ID-32","AREA":106.932}},
{"type":"Feature","geometry":{"type":"Polygon","coordinates":[[[88.2980952381813,22.5448490762335],[88.2981049774724,22.5448875453662],[88.2978876259555,22.5449379732315],[88.2978778859266,22.5448999173255],[88.2980952381813,22.5448490762335]]]},"properties": {
    "floor": "ground","fill-opacity":0,"stroke-opacity":1,"stroke":"#ff0000","ID":"32-56","REMARKS":"POLYGON ID-32","AREA":100.312}},
{"type":"Feature","geometry":{"type":"Polygon","coordinates":[[[88.2978778859266,22.5448999173255],[88.2978876259555,22.5449379732315],[88.2976702742656,22.5449884008102],[88.2976605334975,22.5449507581309],[88.2978778859266,22.5448999173255]]]},"properties": {
    "floor": "ground","fill-opacity":0,"stroke-opacity":1,"stroke":"#ff0000","ID":"32-22","REMARKS":"POLYGON ID-32","AREA":99.29}},
{"type":"Feature","geometry":{"type":"Polygon","coordinates":[[[88.2983125902618,22.5447982348548],[88.2983223288162,22.5448371172141],[88.2981049774724,22.5448875453662],[88.2980952381813,22.5448490762335],[88.2983125902618,22.5447982348548]]]},"properties": {
    "floor": "ground","fill-opacity":0,"stroke-opacity":1,"stroke":"#ff0000","ID":"32-90","REMARKS":"POLYGON ID-32","AREA":101.335}},
{"type":"Feature","geometry":{"type":"Polygon","coordinates":[[[88.2981049774724,22.5448875453662],[88.2981147167694,22.5449260144978],[88.2978973659903,22.5449760291365],[88.2978876259555,22.5449379732315],[88.2981049774724,22.5448875453662]]]},"properties": {
    "floor": "ground","fill-opacity":0,"stroke-opacity":1,"stroke":"#ff0000","ID":"32-55","REMARKS":"POLYGON ID-32","AREA":100.266}},
{"type":"Feature","geometry":{"type":"Polygon","coordinates":[[[88.2978876259555,22.5449379732315],[88.2978973659903,22.5449760291365],[88.2976800150395,22.5450260434885],[88.2976702742656,22.5449884008102],[88.2978876259555,22.5449379732315]]]},"properties": {
    "floor": "ground","fill-opacity":0,"stroke-opacity":1,"stroke":"#ff0000","ID":"32-21","REMARKS":"POLYGON ID-32","AREA":99.244}},
{"type":"Feature","geometry":{"type":"Polygon","coordinates":[[[88.2983223288162,22.5448371172141],[88.2983320673767,22.5448759995724],[88.2981147167694,22.5449260144978],[88.2981049774724,22.5448875453662],[88.2983223288162,22.5448371172141]]]},"properties": {
    "floor": "ground","fill-opacity":0,"stroke-opacity":1,"stroke":"#ff0000","ID":"32-89","REMARKS":"POLYGON ID-32","AREA":101.288}},
{"type":"Feature","geometry":{"type":"Polygon","coordinates":[[[88.2978681459035,22.5448618614184],[88.2978584058864,22.5448238055104],[88.2980757596171,22.544772137965],[88.2980854988962,22.5448106070997],[88.2978681459035,22.5448618614184]]]},"properties": {
    "floor": "ground","fill-opacity":0,"stroke-opacity":1,"stroke":"#ff0000","ID":"32-58","REMARKS":"POLYGON ID-32","AREA":100.405}},
{"type":"Feature","geometry":{"type":"Polygon","coordinates":[[[88.2976507927353,22.5449131154506],[88.2976410519788,22.5448754727692],[88.2978584058864,22.5448238055104],[88.2978681459035,22.5448618614184],[88.2976507927353,22.5449131154506]]]},"properties": {
    "floor": "ground","fill-opacity":0,"stroke-opacity":1,"stroke":"#ff0000","ID":"32-24","REMARKS":"POLYGON ID-32","AREA":99.382}},
{"type":"Feature","geometry":{"type":"Polygon","coordinates":[[[88.2980854988962,22.5448106070997],[88.2980757596171,22.544772137965],[88.298293113171,22.5447204701331],[88.2983028517134,22.5447593524945],[88.2980854988962,22.5448106070997]]]},"properties": {
    "floor": "ground","fill-opacity":0,"stroke-opacity":1,"stroke":"#ff0000","ID":"32-92","REMARKS":"POLYGON ID-32","AREA":101.427}},
{"type":"Feature","geometry":{"type":"Polygon","coordinates":[[[88.2980854988962,22.5448106070997],[88.2980952381813,22.5448490762335],[88.2978778859266,22.5448999173255],[88.2978681459035,22.5448618614184],[88.2980854988962,22.5448106070997]]]},"properties": {
    "floor": "ground","fill-opacity":0,"stroke-opacity":1,"stroke":"#ff0000","ID":"32-57","REMARKS":"POLYGON ID-32","AREA":100.359}},
{"type":"Feature","geometry":{"type":"Polygon","coordinates":[[[88.2978681459035,22.5448618614184],[88.2978778859266,22.5448999173255],[88.2976605334975,22.5449507581309],[88.2976507927353,22.5449131154506],[88.2978681459035,22.5448618614184]]]},"properties": {
    "floor": "ground","fill-opacity":0,"stroke-opacity":1,"stroke":"#ff0000","ID":"32-23","REMARKS":"POLYGON ID-32","AREA":99.336}},
{"type":"Feature","geometry":{"type":"Polygon","coordinates":[[[88.2983028517134,22.5447593524945],[88.2983125902618,22.5447982348548],[88.2980952381813,22.5448490762335],[88.2980854988962,22.5448106070997],[88.2983028517134,22.5447593524945]]]},"properties": {
    "floor": "ground","fill-opacity":0,"stroke-opacity":1,"stroke":"#ff0000","ID":"32-91","REMARKS":"POLYGON ID-32","AREA":101.381}}
]}