{
    "type": "FeatureCollection", 
    "features": [
        {
            "type": "Feature", 
            "geometry": {
                "type": "Polygon", 
                "coordinates": [
                    [
                        [88.3129199308827, 22.5400167545792], 
                        [88.3129061221739, 22.5399923245936], 
                        [88.312823758557 , 22.5400333862071], 
                        [88.3128380407764, 22.5400572103423], 
                        [88.3129199308827, 22.5400167545792]  
                    ]
                ]
            }, 
            "properties": {
    "floor": "ground",
                "fill-opacity": 0, 
                "stroke-opacity": 1, 
                "stroke": "#ff0000", 
                "pkuid": 1, 
                "ID": "10-B14-H2", 
                "REMARKS": "POLYGON-42"
            }, 
            "id": "poly42.1"
        }, 
        {
            "type": "Feature", 
            "geometry": {
                "type": "Polygon", 
                "coordinates": [
                    [
                        [88.3131593215201, 22.540304306748 ], 
                        [88.3131425352045, 22.5402760755397], 
                        [88.3130085276578, 22.5403435427332], 
                        [88.3130235122795, 22.5403702681429], 
                        [88.3131593215201, 22.540304306748 ]  
                    ]
                ]
            }, 
            "properties": {
    "floor": "ground",
                "fill-opacity": 0, 
                "stroke-opacity": 1, 
                "stroke": "#ff0000", 
                "pkuid": 2, 
                "ID": "10-B1-H2", 
                "REMARKS": "POLYGON-42"
            }, 
            "id": "poly42.2"
        }, 
        {
            "type": "Feature", 
            "geometry": {
                "type": "Polygon", 
                "coordinates": [
                    [
                        [88.3131425352045, 22.5402760755397], 
                        [88.3131269148404, 22.5402498052275], 
                        [88.3129931944289, 22.5403161955748], 
                        [88.3130085276578, 22.5403435427332], 
                        [88.3131425352045, 22.5402760755397]  
                    ]
                ]
            }, 
            "properties": {
    "floor": "ground",
                "fill-opacity": 0, 
                "stroke-opacity": 1, 
                "stroke": "#ff0000", 
                "pkuid": 3, 
                "ID": "10-B2-H2", 
                "REMARKS": "POLYGON-42"
            }, 
            "id": "poly42.3"
        }, 
        {
            "type": "Feature", 
            "geometry": {
                "type": "Polygon", 
                "coordinates": [
                    [
                        [88.3131269148404, 22.5402498052275], 
                        [88.3131125501342, 22.5402256466795], 
                        [88.3129788711239, 22.5402921290992], 
                        [88.3129916886397, 22.5403135099659], 
                        [88.3129931944289, 22.5403161955748], 
                        [88.3131269148404, 22.5402498052275]  
                    ]
                ]
            }, 
            "properties": {
    "floor": "ground",
                "fill-opacity": 0, 
                "stroke-opacity": 1, 
                "stroke": "#ff0000", 
                "pkuid": 4, 
                "ID": "10-B3-H2", 
                "REMARKS": "POLYGON-42"
            }, 
            "id": "poly42.4"
        }, 
        {
            "type": "Feature", 
            "geometry": {
                "type": "Polygon", 
                "coordinates": [
                    [
                        [88.3131125501342, 22.5402256466795], 
                        [88.3130975988269, 22.5402005015863], 
                        [88.3129637526343, 22.5402669099838], 
                        [88.3129788711239, 22.5402921290992], 
                        [88.3131125501342, 22.5402256466795]  
                    ]
                ]
            }, 
            "properties": {
    "floor": "ground",
                "fill-opacity": 0, 
                "stroke-opacity": 1, 
                "stroke": "#ff0000", 
                "pkuid": 5, 
                "ID": "10-B4-H2", 
                "REMARKS": "POLYGON-42"
            }, 
            "id": "poly42.5"
        }, 
        {
            "type": "Feature", 
            "geometry": {
                "type": "Polygon", 
                "coordinates": [
                    [
                        [88.3130975988269, 22.5402005015863], 
                        [88.3130831326738, 22.540176172425 ], 
                        [88.3129498038752, 22.540243642093 ], 
                        [88.3129637526343, 22.5402669099838], 
                        [88.3130975988269, 22.5402005015863]  
                    ]
                ]
            }, 
            "properties": {
    "floor": "ground",
                "fill-opacity": 0, 
                "stroke-opacity": 1, 
                "stroke": "#ff0000", 
                "pkuid": 6, 
                "ID": "10-B5-H2", 
                "REMARKS": "POLYGON-42"
            }, 
            "id": "poly42.6"
        }, 
        {
            "type": "Feature", 
            "geometry": {
                "type": "Polygon", 
                "coordinates": [
                    [
                        [88.3130831326738, 22.540176172425 ], 
                        [88.3130681454159, 22.5401509668702], 
                        [88.3129355972191, 22.5402199440049], 
                        [88.3129498038752, 22.540243642093 ], 
                        [88.3130831326738, 22.540176172425 ]  
                    ]
                ]
            }, 
            "properties": {
    "floor": "ground",
                "fill-opacity": 0, 
                "stroke-opacity": 1, 
                "stroke": "#ff0000", 
                "pkuid": 7, 
                "ID": "10-B6-H2", 
                "REMARKS": "POLYGON-42"
            }, 
            "id": "poly42.7"
        }, 
        {
            "type": "Feature", 
            "geometry": {
                "type": "Polygon", 
                "coordinates": [
                    [
                        [88.3130681454159, 22.5401509668702], 
                        [88.3130550608605, 22.5401289612785], 
                        [88.3129224213708, 22.5401979654046], 
                        [88.3129355972191, 22.5402199440049], 
                        [88.3130681454159, 22.5401509668702]  
                    ]
                ]
            }, 
            "properties": {
    "floor": "ground",
                "fill-opacity": 0, 
                "stroke-opacity": 1, 
                "stroke": "#ff0000", 
                "pkuid": 8, 
                "ID": "10-B7-H2", 
                "REMARKS": "POLYGON-42"
            }, 
            "id": "poly42.8"
        }, 
        {
            "type": "Feature", 
            "geometry": {
                "type": "Polygon", 
                "coordinates": [
                    [
                        [88.3130550608605, 22.5401289612785], 
                        [88.3130385790689, 22.5401012422184], 
                        [88.3129059915377, 22.5401705588404], 
                        [88.3129224213708, 22.5401979654046], 
                        [88.3130550608605, 22.5401289612785]  
                    ]
                ]
            }, 
            "properties": {
    "floor": "ground",
                "fill-opacity": 0, 
                "stroke-opacity": 1, 
                "stroke": "#ff0000", 
                "pkuid": 9, 
                "ID": "10-B8-H2", 
                "REMARKS": "POLYGON-42"
            }, 
            "id": "poly42.9"
        }, 
        {
            "type": "Feature", 
            "geometry": {
                "type": "Polygon", 
                "coordinates": [
                    [
                        [88.3130385790689, 22.5401012422184], 
                        [88.3130251269703, 22.5400786184929], 
                        [88.3128906157352, 22.540144910502 ], 
                        [88.3129059915377, 22.5401705588404], 
                        [88.3130385790689, 22.5401012422184]  
                    ]
                ]
            }, 
            "properties": {
    "floor": "ground",
                "fill-opacity": 0, 
                "stroke-opacity": 1, 
                "stroke": "#ff0000", 
                "pkuid": 10, 
                "ID": "10-B9-H2", 
                "REMARKS": "POLYGON-42"
            }, 
            "id": "poly42.10"
        }, 
        {
            "type": "Feature", 
            "geometry": {
                "type": "Polygon", 
                "coordinates": [
                    [
                        [88.3130251269703, 22.5400786184929], 
                        [88.3130147333444, 22.5400611385036], 
                        [88.3130125987388, 22.5400562096365], 
                        [88.3128778532366, 22.5401236214094], 
                        [88.3128906157352, 22.540144910502 ], 
                        [88.3130251269703, 22.5400786184929]  
                    ]
                ]
            }, 
            "properties": {
    "floor": "ground",
                "fill-opacity": 0, 
                "stroke-opacity": 1, 
                "stroke": "#ff0000", 
                "pkuid": 11, 
                "ID": "10-B10-H2", 
                "REMARKS": "POLYGON-42"
            }, 
            "id": "poly42.11"
        }, 
        {
            "type": "Feature", 
            "geometry": {
                "type": "Polygon", 
                "coordinates": [
                    [
                        [88.3129457957283, 22.5400625139487], 
                        [88.3129577441723, 22.5400836528054], 
                        [88.3130421616157, 22.5400414196368], 
                        [88.3130283303159, 22.5400194077468], 
                        [88.3129457957283, 22.5400625139487]  
                    ]
                ]
            }, 
            "properties": {
    "floor": "ground",
                "fill-opacity": 0, 
                "stroke-opacity": 1, 
                "stroke": "#ff0000", 
                "pkuid": 12, 
                "ID": "10-B11-H1", 
                "REMARKS": "POLYGON-42"
            }, 
            "id": "poly42.12"
        }, 
        {
            "type": "Feature", 
            "geometry": {
                "type": "Polygon", 
                "coordinates": [
                    [
                        [88.3129327209901, 22.5400393824835], 
                        [88.3129457957283, 22.5400625139487], 
                        [88.3130283303159, 22.5400194077468], 
                        [88.31301342523  , 22.5399956869747], 
                        [88.3129327209901, 22.5400393824835]  
                    ]
                ]
            }, 
            "properties": {
    "floor": "ground",
                "fill-opacity": 0, 
                "stroke-opacity": 1, 
                "stroke": "#ff0000", 
                "pkuid": 13, 
                "ID": "10-B12-H1", 
                "REMARKS": "POLYGON-42"
            }, 
            "id": "poly42.13"
        }, 
        {
            "type": "Feature", 
            "geometry": {
                "type": "Polygon", 
                "coordinates": [
                    [
                        [88.3129327209901, 22.5400393824835], 
                        [88.3129199308827, 22.5400167545792], 
                        [88.3128380407764, 22.5400572103423], 
                        [88.3128531728186, 22.5400824520648], 
                        [88.3129327209901, 22.5400393824835]  
                    ]
                ]
            }, 
            "properties": {
    "floor": "ground",
                "fill-opacity": 0, 
                "stroke-opacity": 1, 
                "stroke": "#ff0000", 
                "pkuid": 14, 
                "ID": "10-B13-H2", 
                "REMARKS": "POLYGON-42"
            }, 
            "id": "poly42.14"
        }, 
        {
            "type": "Feature", 
            "geometry": {
                "type": "Polygon", 
                "coordinates": [
                    [
                        [88.3129061221739, 22.5399923245936], 
                        [88.3128937750073, 22.5399704803278], 
                        [88.3128106231031, 22.5400114749888], 
                        [88.312823758557 , 22.5400333862071], 
                        [88.3129061221739, 22.5399923245936]  
                    ]
                ]
            }, 
            "properties": {
    "floor": "ground",
                "fill-opacity": 0, 
                "stroke-opacity": 1, 
                "stroke": "#ff0000", 
                "pkuid": 15, 
                "ID": "10-B15-H2", 
                "REMARKS": "POLYGON-42"
            }, 
            "id": "poly42.15"
        }, 
        {
            "type": "Feature", 
            "geometry": {
                "type": "Polygon", 
                "coordinates": [
                    [
                        [88.3131425352045, 22.5402760755397], 
                        [88.3131593215201, 22.540304306748 ], 
                        [88.3132781013977, 22.5402466163702], 
                        [88.3132597139371, 22.5402170809502], 
                        [88.3131425352045, 22.5402760755397]  
                    ]
                ]
            }, 
            "properties": {
    "floor": "ground",
                "fill-opacity": 0, 
                "stroke-opacity": 1, 
                "stroke": "#ff0000", 
                "pkuid": 16, 
                "ID": "10-B1-H1", 
                "REMARKS": "POLYGON-42"
            }, 
            "id": "poly42.16"
        }, 
        {
            "type": "Feature", 
            "geometry": {
                "type": "Polygon", 
                "coordinates": [
                    [
                        [88.3131269148404, 22.5402498052275], 
                        [88.3131425352045, 22.5402760755397], 
                        [88.3132597139371, 22.5402170809502], 
                        [88.3132439211017, 22.5401917132262], 
                        [88.3131269148404, 22.5402498052275]  
                    ]
                ]
            }, 
            "properties": {
    "floor": "ground",
                "fill-opacity": 0, 
                "stroke-opacity": 1, 
                "stroke": "#ff0000", 
                "pkuid": 17, 
                "ID": "10-B2-H1", 
                "REMARKS": "POLYGON-42"
            }, 
            "id": "poly42.17"
        }, 
        {
            "type": "Feature", 
            "geometry": {
                "type": "Polygon", 
                "coordinates": [
                    [
                        [88.3131125501342, 22.5402256466795], 
                        [88.3131269148404, 22.5402498052275], 
                        [88.3132439211017, 22.5401917132262], 
                        [88.3132289938479, 22.5401677358689], 
                        [88.3131125501342, 22.5402256466795]  
                    ]
                ]
            }, 
            "properties": {
    "floor": "ground",
                "fill-opacity": 0, 
                "stroke-opacity": 1, 
                "stroke": "#ff0000", 
                "pkuid": 18, 
                "ID": "10-B3-H1", 
                "REMARKS": "POLYGON-42"
            }, 
            "id": "poly42.18"
        }, 
        {
            "type": "Feature", 
            "geometry": {
                "type": "Polygon", 
                "coordinates": [
                    [
                        [88.3130975988269, 22.5402005015863], 
                        [88.3131125501342, 22.5402256466795], 
                        [88.3132289938479, 22.5401677358689], 
                        [88.3132135705321, 22.540142961697 ], 
                        [88.3130975988269, 22.5402005015863]  
                    ]
                ]
            }, 
            "properties": {
    "floor": "ground",
                "fill-opacity": 0, 
                "stroke-opacity": 1, 
                "stroke": "#ff0000", 
                "pkuid": 19, 
                "ID": "10-B4-H1", 
                "REMARKS": "POLYGON-42"
            }, 
            "id": "poly42.19"
        }, 
        {
            "type": "Feature", 
            "geometry": {
                "type": "Polygon", 
                "coordinates": [
                    [
                        [88.3130831326738, 22.540176172425 ], 
                        [88.3130975988269, 22.5402005015863], 
                        [88.3132135705321, 22.540142961697 ], 
                        [88.3131980444729, 22.5401180224903], 
                        [88.3130831326738, 22.540176172425 ]  
                    ]
                ]
            }, 
            "properties": {
    "floor": "ground",
                "fill-opacity": 0, 
                "stroke-opacity": 1, 
                "stroke": "#ff0000", 
                "pkuid": 20, 
                "ID": "10-B5-H1", 
                "REMARKS": "POLYGON-42"
            }, 
            "id": "poly42.20"
        }, 
        {
            "type": "Feature", 
            "geometry": {
                "type": "Polygon", 
                "coordinates": [
                    [
                        [88.3130681454159, 22.5401509668702], 
                        [88.3130831326738, 22.540176172425 ], 
                        [88.3131980444729, 22.5401180224903], 
                        [88.3131817494642, 22.540091848135 ], 
                        [88.3130681454159, 22.5401509668702]  
                    ]
                ]
            }, 
            "properties": {
    "floor": "ground",
                "fill-opacity": 0, 
                "stroke-opacity": 1, 
                "stroke": "#ff0000", 
                "pkuid": 21, 
                "ID": "10-B6-H1", 
                "REMARKS": "POLYGON-42"
            }, 
            "id": "poly42.21"
        }, 
        {
            "type": "Feature", 
            "geometry": {
                "type": "Polygon", 
                "coordinates": [
                    [
                        [88.3130550608605, 22.5401289612785], 
                        [88.3130681454159, 22.5401509668702], 
                        [88.3131817494642, 22.540091848135 ], 
                        [88.3131682085043, 22.5400700975547], 
                        [88.3130550608605, 22.5401289612785]  
                    ]
                ]
            }, 
            "properties": {
    "floor": "ground",
                "fill-opacity": 0, 
                "stroke-opacity": 1, 
                "stroke": "#ff0000", 
                "pkuid": 22, 
                "ID": "10-B7-H1", 
                "REMARKS": "POLYGON-42"
            }, 
            "id": "poly42.22"
        }, 
        {
            "type": "Feature", 
            "geometry": {
                "type": "Polygon", 
                "coordinates": [
                    [
                        [88.3130385790689, 22.5401012422184], 
                        [88.3130550608605, 22.5401289612785], 
                        [88.3131682085043, 22.5400700975547], 
                        [88.3131510060141, 22.5400424655295], 
                        [88.3130385790689, 22.5401012422184]  
                    ]
                ]
            }, 
            "properties": {
    "floor": "ground",
                "fill-opacity": 0, 
                "stroke-opacity": 1, 
                "stroke": "#ff0000", 
                "pkuid": 23, 
                "ID": "10-B8-H1", 
                "REMARKS": "POLYGON-42"
            }, 
            "id": "poly42.23"
        }, 
        {
            "type": "Feature", 
            "geometry": {
                "type": "Polygon", 
                "coordinates": [
                    [
                        [88.3130251269703, 22.5400786184929], 
                        [88.3130385790689, 22.5401012422184], 
                        [88.3131510060141, 22.5400424655295], 
                        [88.3131386747376, 22.5400226580401], 
                        [88.3130251269703, 22.5400786184929]  
                    ]
                ]
            }, 
            "properties": {
    "floor": "ground",
                "fill-opacity": 0, 
                "stroke-opacity": 1, 
                "stroke": "#ff0000", 
                "pkuid": 24, 
                "ID": "10-B9-H1", 
                "REMARKS": "POLYGON-42"
            }, 
            "id": "poly42.24"
        }, 
        {
            "type": "Feature", 
            "geometry": {
                "type": "Polygon", 
                "coordinates": [
                    [
                        [88.3130125987388, 22.5400562096365], 
                        [88.3130147333444, 22.5400611385036], 
                        [88.3130251269703, 22.5400786184929], 
                        [88.3131386747376, 22.5400226580401], 
                        [88.313126664767 , 22.5400033666581], 
                        [88.3130443622504, 22.5400449218476], 
                        [88.3130421616157, 22.5400414196368], 
                        [88.3130125987388, 22.5400562096365]  
                    ]
                ]
            }, 
            "properties": {
    "floor": "ground",
                "fill-opacity": 0, 
                "stroke-opacity": 1, 
                "stroke": "#ff0000", 
                "pkuid": 25, 
                "ID": "10-B10-H1", 
                "REMARKS": "POLYGON-42"
            }, 
            "id": "poly42.25"
        }, 
        {
            "type": "Feature", 
            "geometry": {
                "type": "Polygon", 
                "coordinates": [
                    [
                        [88.3129061221739, 22.5399923245936], 
                        [88.3129199308827, 22.5400167545792], 
                        [88.3130013795883, 22.5399765168791], 
                        [88.3129862207134, 22.5399523922133], 
                        [88.3129061221739, 22.5399923245936]  
                    ]
                ]
            }, 
            "properties": {
    "floor": "ground",
                "fill-opacity": 0, 
                "stroke-opacity": 1, 
                "stroke": "#ff0000", 
                "pkuid": 26, 
                "ID": "10-B14-H1", 
                "REMARKS": "POLYGON-42"
            }, 
            "id": "poly42.26"
        }, 
        {
            "type": "Feature", 
            "geometry": {
                "type": "Polygon", 
                "coordinates": [
                    [
                        [88.3129577441723, 22.5400836528054], 
                        [88.3129457957283, 22.5400625139487], 
                        [88.3128661555181, 22.5401041084739], 
                        [88.3128778532366, 22.5401236214094], 
                        [88.3129577441723, 22.5400836528054]  
                    ]
                ]
            }, 
            "properties": {
    "floor": "ground",
                "fill-opacity": 0, 
                "stroke-opacity": 1, 
                "stroke": "#ff0000", 
                "pkuid": 27, 
                "ID": "10-B11-H2", 
                "REMARKS": "POLYGON-42"
            }, 
            "id": "poly42.27"
        }, 
        {
            "type": "Feature", 
            "geometry": {
                "type": "Polygon", 
                "coordinates": [
                    [
                        [88.3129457957283, 22.5400625139487], 
                        [88.3129327209901, 22.5400393824835], 
                        [88.3128531728186, 22.5400824520648], 
                        [88.3128661555181, 22.5401041084739], 
                        [88.3129457957283, 22.5400625139487]  
                    ]
                ]
            }, 
            "properties": {
    "floor": "ground",
                "fill-opacity": 0, 
                "stroke-opacity": 1, 
                "stroke": "#ff0000", 
                "pkuid": 28, 
                "ID": "10-B12-H2", 
                "REMARKS": "POLYGON-42"
            }, 
            "id": "poly42.28"
        }, 
        {
            "type": "Feature", 
            "geometry": {
                "type": "Polygon", 
                "coordinates": [
                    [
                        [88.3129199308827, 22.5400167545792], 
                        [88.3129327209901, 22.5400393824835], 
                        [88.31301342523  , 22.5399956869747], 
                        [88.3130013795883, 22.5399765168791], 
                        [88.3129199308827, 22.5400167545792]  
                    ]
                ]
            }, 
            "properties": {
    "floor": "ground",
                "fill-opacity": 0, 
                "stroke-opacity": 1, 
                "stroke": "#ff0000", 
                "pkuid": 29, 
                "ID": "10-B13-H1", 
                "REMARKS": "POLYGON-42"
            }, 
            "id": "poly42.29"
        }, 
        {
            "type": "Feature", 
            "geometry": {
                "type": "Polygon", 
                "coordinates": [
                    [
                        [88.3128937750073, 22.5399704803278], 
                        [88.3129061221739, 22.5399923245936], 
                        [88.3129862207134, 22.5399523922133], 
                        [88.3129730334026, 22.5399314052028], 
                        [88.3128937750073, 22.5399704803278]  
                    ]
                ]
            }, 
            "properties": {
    "floor": "ground",
                "fill-opacity": 0, 
                "stroke-opacity": 1, 
                "stroke": "#ff0000", 
                "pkuid": 30, 
                "ID": "10-B15-H1", 
                "REMARKS": "POLYGON-42"
            }, 
            "id": "poly42.30"
        }
    ]
}
