{
  "type": "FeatureCollection",
  "features": [
    {
      "type": "Feature",
      "properties": {
    "floor": "ground",
        "ID": "9-B14-H2",
        "REMARKS": "POLYGON-65"
      },
      "geometry": {
        "type": "Polygon",
        "coordinates": [[[88.3156734338817,22.5397953209146],[88.3156343619607,22.5397287373181],[88.3154483357831,22.5398186105015],[88.3154918289544,22.5398909994797],[88.3156734338817,22.5397953209146]]]
      }
    },
    {
      "type": "Feature",
      "properties": {
    "floor": "ground",
        "ID": "9-B1-H2",
        "REMARKS": "POLYGON-65"
      },
      "geometry": {
        "type": "Polygon",
        "coordinates": [[[88.3160362286076,22.540413569955],[88.3160110395482,22.5403706445466],[88.3158352810591,22.5404626328217],[88.3158497140237,22.5404866546976],[88.315860764057,22.540507066514],[88.3160362286076,22.540413569955]]]
      }
    },
    {
      "type": "Feature",
      "properties": {
    "floor": "ground",
        "ID": "9-B2-H1",
        "REMARKS": "POLYGON-65"
      },
      "geometry": {
        "type": "Polygon",
        "coordinates": [[[88.3161673969756,22.5402888103768],[88.316139059036,22.540239364266],[88.3159822567463,22.5403215949371],[88.3160110395482,22.5403706445466],[88.3161673969756,22.5402888103768]]]
      }
    },

    {
      "type": "Feature",
      "properties": {
    "floor": "ground","ID": "9-B3-H1","REMARKS": "POLYGON-65"},
      "geometry": {"type": "Polygon","coordinates": [[[88.316139059036,22.540239364266],[88.3161085818553,22.5401861854509],[88.3159513820783,22.5402689805176],[88.3159822567463,22.5403215949371],[88.316139059036,22.540239364266]]]}
    },
    {
      "type": "Feature",
      "properties": {
    "floor": "ground","ID": "9-B4-H2","REMARKS": "POLYGON-65"},
      "geometry": {"type": "Polygon","coordinates": [[[88.3159513820783,22.5402689805176],[88.3159235854176,22.5402216114199],[88.3157436236652,22.5403100804813],[88.3157748065599,22.5403619805339],[88.3159513820783,22.5402689805176]]]}
    },
    {
      "type": "Feature",
      "properties": {
    "floor": "ground","ID": "9-B5-H2","REMARKS": "POLYGON-65"},
      "geometry": {"type": "Polygon","coordinates": [[[88.3159235854176,22.5402216114199],[88.315889196381,22.5401630080629],[88.315707386193,22.5402497677126],[88.3157436236652,22.5403100804813],[88.3159235854176,22.5402216114199]]]}
    },
    {
      "type": "Feature",
      "properties": {
    "floor": "ground","ID": "9-B6-H1","REMARKS": "POLYGON-65"},
      "geometry": {"type": "Polygon","coordinates": [[[88.3160510374035,22.5400857776801],[88.3160273962334,22.5400445268363],[88.3158656562662,22.5401228926687],[88.315889196381,22.5401630080629],[88.3160510374035,22.5400857776801]]]}
    },
    {
      "type": "Feature",
      "properties": {
    "floor": "ground","ID": "9-B7-H1","REMARKS": "POLYGON-65"},
      "geometry": {"type": "Polygon","coordinates": [[[88.3160273962334,22.5400445268363],[88.3159971149683,22.5399916898689],[88.315835755849,22.5400719384986],[88.3158656562662,22.5401228926687],[88.3160273962334,22.5400445268363]]]}
    },
    {
      "type": "Feature",
      "properties": {
    "floor": "ground","ID": "9-B8-H1","REMARKS": "POLYGON-65"},
      "geometry": {"type": "Polygon","coordinates": [[[88.3159971149683,22.5399916898689],[88.3159710496814,22.5399462092488],[88.3158111008913,22.5400299232682],[88.315835755849,22.5400719384986],[88.3159971149683,22.5399916898689]]]}
    },
    {
      "type": "Feature",
      "properties": {
    "floor": "ground","ID": "9-B9-H1","REMARKS": "POLYGON-65"},
      "geometry": {"type": "Polygon","coordinates": [[[88.3159710496814,22.5399462092488],[88.315943412232,22.5398979854047],[88.3157822754239,22.5399808009511],[88.3158111008913,22.5400299232682],[88.3159710496814,22.5399462092488]]]}
    },
    {
      "type": "Feature",
      "properties": {
    "floor": "ground","ID": "9-B10-H1","REMARKS": "POLYGON-65"},
      "geometry": {"type": "Polygon","coordinates": [[[88.315943412232,22.5398979854047],[88.3159166970549,22.5398513708086],[88.3157548264629,22.5399340243786],[88.3157822754239,22.5399808009511],[88.315943412232,22.5398979854047]]]}
    },
    {
      "type": "Feature",
      "properties": {
    "floor": "ground","ID": "9-B11-H1","REMARKS": "POLYGON-65"},
      "geometry": {"type": "Polygon","coordinates": [[[88.3159166970549,22.5398513708086],[88.3158916761026,22.5398077124198],[88.3157303229524,22.5398922672339],[88.3157548264629,22.5399340243786],[88.3159166970549,22.5398513708086]]]}
    },
    {
      "type": "Feature",
      "properties": {
    "floor": "ground","ID": "9-B12-H1","REMARKS": "POLYGON-65"},
      "geometry": {"type": "Polygon","coordinates": [[[88.3158916761026,22.5398077124198],[88.3158686338613,22.5397675066309],[88.3157060078772,22.5398508312074],[88.3157303229524,22.5398922672339],[88.3158916761026,22.5398077124198]]]}
    },
    {
      "type": "Feature",
      "properties": {
    "floor": "ground","ID": "9-B13-H1","REMARKS": "POLYGON-65"},
      "geometry": {"type": "Polygon","coordinates": [[[88.3158686338613,22.5397675066309],[88.3158356074633,22.5397098797549],[88.3156734338817,22.5397953209146],[88.3157060078772,22.5398508312074],[88.3158686338613,22.5397675066309]]]}
    },
    {
      "type": "Feature",
      "properties": {
    "floor": "ground","ID": "9-B15-H1","REMARKS": "POLYGON-65"},
      "geometry": {"type": "Polygon","coordinates": [[[88.3158004330481,22.5396485048611],[88.3157647230718,22.539586195481],[88.3155994022462,22.5396691614521],[88.3156343619607,22.5397287373181],[88.3158004330481,22.5396485048611]]]}
    },
    {
      "type": "Feature",
      "properties": {
    "floor": "ground","ID": "9-B1-H1","REMARKS": "POLYGON-65"},
      "geometry": {"type": "Polygon","coordinates": [[[88.3161914851843,22.5403308412463],[88.3161673969756,22.5402888103768],[88.3160110395482,22.5403706445466],[88.3160362286076,22.540413569955],[88.3161914851843,22.5403308412463]]]}
    },
    {
      "type": "Feature",
      "properties": {
    "floor": "ground","ID": "9-B2-H2","REMARKS": "POLYGON-65"},
      "geometry": {"type": "Polygon","coordinates": [[[88.3160110395482,22.5403706445466],[88.3159822567463,22.5403215949371],[88.3158060593146,22.5404139968598],[88.3158352810591,22.5404626328217],[88.3160110395482,22.5403706445466]]]}
    },
    {
      "type": "Feature",
      "properties": {
    "floor": "ground","ID": "9-B3-H2","REMARKS": "POLYGON-65"},
      "geometry": {"type": "Polygon","coordinates": [[[88.3159822567463,22.5403215949371],[88.3159513820783,22.5402689805176],[88.3157748065599,22.5403619805339],[88.3158060593146,22.5404139968598],[88.3159822567463,22.5403215949371]]]}
    },
    {
      "type": "Feature",
      "properties": {
    "floor": "ground","ID": "9-B4-H1","REMARKS": "POLYGON-65"},
      "geometry": {"type": "Polygon","coordinates": [[[88.3161085818553,22.5401861854509],[88.3160837578785,22.5401428707594],[88.3159235854176,22.5402216114199],[88.3159513820783,22.5402689805176],[88.3161085818553,22.5401861854509]]]}
    },
    {
      "type": "Feature",
      "properties": {
    "floor": "ground","ID": "9-B5-H1","REMARKS": "POLYGON-65"},
      "geometry": {"type": "Polygon","coordinates": [[[88.3160837578785,22.5401428707594],[88.3160510374035,22.5400857776801],[88.315889196381,22.5401630080629],[88.3159235854176,22.5402216114199],[88.3160837578785,22.5401428707594]]]}
    },
     {
      "type": "Feature",
      "properties": {
    "floor": "ground","ID": "9-B6-H2","REMARKS": "POLYGON-65"},
      "geometry": {"type": "Polygon","coordinates": [[[88.315889196381,22.5401630080629],[88.3158656562662,22.5401228926687],[88.31568402978,22.5402108938661],[88.315707386193,22.5402497677126],[88.315889196381,22.5401630080629]]]}
    },
    {
      "type": "Feature",
      "properties": {
    "floor": "ground","ID": "9-B7-H2","REMARKS": "POLYGON-65"},
      "geometry": {"type": "Polygon","coordinates": [[[88.3158656562662,22.5401228926687],[88.315835755849,22.5400719384986],[88.3156546559597,22.540162004793],[88.31568402978,22.5402108938661],[88.3158656562662,22.5401228926687]]]}
    },
    {
      "type": "Feature",
      "properties": {
    "floor": "ground","ID": "9-B8-H2","REMARKS": "POLYGON-65"},
      "geometry": {"type": "Polygon","coordinates": [[[88.315835755849,22.5400719384986],[88.3158111008913,22.5400299232682],[88.3156317094525,22.5401238131837],[88.3156546559597,22.540162004793],[88.315835755849,22.5400719384986]]]}
    },
    {
      "type": "Feature",
      "properties": {
    "floor": "ground","ID": "9-B9-H2","REMARKS": "POLYGON-65"},
      "geometry": {"type": "Polygon","coordinates": [[[88.3158111008913,22.5400299232682],[88.3157822754239,22.5399808009511],[88.3156015809671,22.5400736680641],[88.3156317094525,22.5401238131837],[88.3158111008913,22.5400299232682]]]}
    },
    {
      "type": "Feature",
      "properties": {
    "floor": "ground","ID": "9-B10-H2","REMARKS": "POLYGON-65"},
      "geometry": {"type": "Polygon","coordinates": [[[88.3157822754239,22.5399808009511],[88.3157548264629,22.5399340243786],[88.3155733536204,22.5400266871539],[88.3156015809671,22.5400736680641],[88.3157822754239,22.5399808009511]]]}
    },
    {
      "type": "Feature",
      "properties": {
    "floor": "ground","ID": "9-B11-H2","REMARKS": "POLYGON-65"},
      "geometry": {"type": "Polygon","coordinates": [[[88.3157548264629,22.5399340243786],[88.3157303229524,22.5398922672339],[88.3155495178908,22.5399870155444],[88.3155733536204,22.5400266871539],[88.3157548264629,22.5399340243786]]]}
    },
    {
      "type": "Feature",
      "properties": {
    "floor": "ground","ID": "9-B12-H2","REMARKS": "POLYGON-65"},
      "geometry": {"type": "Polygon","coordinates": [[[88.3157303229524,22.5398922672339],[88.3157060078772,22.5398508312074],[88.3155237897255,22.5399441942108],[88.3155495178908,22.5399870155444],[88.3157303229524,22.5398922672339]]]}
    },
    {
      "type": "Feature",
      "properties": {
    "floor": "ground","ID": "9-B13-H2","REMARKS": "POLYGON-65"},
      "geometry": {"type": "Polygon","coordinates": [[[88.3157060078772,22.5398508312074],[88.3156734338817,22.5397953209146],[88.3154918289544,22.5398909994797],[88.3155237897255,22.5399441942108],[88.3157060078772,22.5398508312074]]]}
    },
    {
      "type": "Feature",
      "properties": {
    "floor": "ground","ID": "9-B15-H2","REMARKS": "POLYGON-65"},
      "geometry": {"type": "Polygon","coordinates": [[[88.3156343619607,22.5397287373181],[88.3155994022462,22.5396691614521],[88.3154143427122,22.5397620332599],[88.3154483357831,22.5398186105015],[88.3156343619607,22.5397287373181]]]}
    },
    {
      "type": "Feature",
      "properties": {
    "floor": "ground","ID": "9-B14-H1","REMARKS": "POLYGON-65"},
      "geometry": {"type": "Polygon","coordinates": [[[88.3158356074633,22.5397098797549],[88.3158004330481,22.5396485048611],[88.3156343619607,22.5397287373181],[88.3156734338817,22.5397953209146],[88.3158356074633,22.5397098797549]]]}
    }
  ]
}
