{"type":"FeatureCollection", "features": [
{"type":"Feature","geometry":{"type":"Polygon","coordinates":[[[88.3134288385746,22.5295780672435],[88.3133118956769,22.5295538874418],[88.3133266086947,22.5294821747889],[88.3134437755552,22.5295065000869],[88.3134288385746,22.5295780672435]]]},"properties": {
    "floor": "ground","fill-opacity":0,"stroke-opacity":1,"stroke":"#ff0000","ID":"27-2","REMARKS":"POLYGON ID-27"}},
{"type":"Feature","geometry":{"type":"Polygon","coordinates":[[[88.3134139015806,22.5296496343988],[88.3132971826459,22.5296256000934],[88.3133118956769,22.5295538874418],[88.3134288385746,22.5295780672435],[88.3134139015806,22.5296496343988]]]},"properties": {
    "floor": "ground","fill-opacity":0,"stroke-opacity":1,"stroke":"#ff0000","ID":"27-1","REMARKS":"POLYGON ID-27"}},
{"type":"Feature","geometry":{"type":"Polygon","coordinates":[[[88.3134587125224,22.529434932929],[88.3133413216992,22.5294104621349],[88.3133560346906,22.5293387494795],[88.3134736494761,22.5293633657698],[88.3134587125224,22.529434932929]]]},"properties": {
    "floor": "ground","fill-opacity":0,"stroke-opacity":1,"stroke":"#ff0000","ID":"27-4","REMARKS":"POLYGON ID-27"}},
{"type":"Feature","geometry":{"type":"Polygon","coordinates":[[[88.3134437755552,22.5295065000869],[88.3133266086947,22.5294821747889],[88.3133413216992,22.5294104621349],[88.3134587125224,22.529434932929],[88.3134437755552,22.5295065000869]]]},"properties": {
    "floor": "ground","fill-opacity":0,"stroke-opacity":1,"stroke":"#ff0000","ID":"27-3","REMARKS":"POLYGON ID-27"}},
{"type":"Feature","geometry":{"type":"Polygon","coordinates":[[[88.3134885864165,22.5292917986094],[88.3133707476686,22.529267036823],[88.3133854606335,22.5291953241652],[88.3135035233433,22.5292202314476],[88.3134885864165,22.5292917986094]]]},"properties": {
    "floor": "ground","fill-opacity":0,"stroke-opacity":1,"stroke":"#ff0000","ID":"27-6","REMARKS":"POLYGON ID-27"}},
{"type":"Feature","geometry":{"type":"Polygon","coordinates":[[[88.3134736494761,22.5293633657698],[88.3133560346906,22.5293387494795],[88.3133707476686,22.529267036823],[88.3134885864165,22.5292917986094],[88.3134736494761,22.5293633657698]]]},"properties": {
    "floor": "ground","fill-opacity":0,"stroke-opacity":1,"stroke":"#ff0000","ID":"27-5","REMARKS":"POLYGON ID-27"}},
{"type":"Feature","geometry":{"type":"Polygon","coordinates":[[[88.3135184602568,22.5291486642846],[88.3134001735852,22.5291236115061],[88.3134148865236,22.5290518988458],[88.3135333971568,22.5290770971204],[88.3135184602568,22.5291486642846]]]},"properties": {
    "floor": "ground","fill-opacity":0,"stroke-opacity":1,"stroke":"#ff0000","ID":"27-8","REMARKS":"POLYGON ID-27"}},
{"type":"Feature","geometry":{"type":"Polygon","coordinates":[[[88.3135035233433,22.5292202314476],[88.3133854606335,22.5291953241652],[88.3134001735852,22.5291236115061],[88.3135184602568,22.5291486642846],[88.3135035233433,22.5292202314476]]]},"properties": {
    "floor": "ground","fill-opacity":0,"stroke-opacity":1,"stroke":"#ff0000","ID":"27-7","REMARKS":"POLYGON ID-27"}},
{"type":"Feature","geometry":{"type":"Polygon","coordinates":[[[88.3135483340433,22.5290055299549],[88.3134295994488,22.5289801861843],[88.3134443123607,22.5289084735215],[88.3135632709164,22.5289339627881],[88.3135483340433,22.5290055299549]]]},"properties": {
    "floor": "ground","fill-opacity":0,"stroke-opacity":1,"stroke":"#ff0000","ID":"27-10","REMARKS":"POLYGON ID-27"}},
{"type":"Feature","geometry":{"type":"Polygon","coordinates":[[[88.3135333971568,22.5290770971204],[88.3134148865236,22.5290518988458],[88.3134295994488,22.5289801861843],[88.3135483340433,22.5290055299549],[88.3135333971568,22.5290770971204]]]},"properties": {
    "floor": "ground","fill-opacity":0,"stroke-opacity":1,"stroke":"#ff0000","ID":"27-9","REMARKS":"POLYGON ID-27"}},
{"type":"Feature","geometry":{"type":"Polygon","coordinates":[[[88.3136627244788,22.5296264265859],[88.3135457815086,22.5296022469582],[88.3135609424523,22.5295308252974],[88.313678109386,22.5295551504206],[88.3136627244788,22.5296264265859]]]},"properties": {
    "floor": "ground","fill-opacity":0,"stroke-opacity":1,"stroke":"#ff0000","ID":"27-22","REMARKS":"POLYGON ID-27"}},
{"type":"Feature","geometry":{"type":"Polygon","coordinates":[[[88.3136473395577,22.5296977027498],[88.3135306205512,22.5296736686177],[88.3135457815086,22.5296022469582],[88.3136627244788,22.5296264265859],[88.3136473395577,22.5296977027498]]]},"properties": {
    "floor": "ground","fill-opacity":0,"stroke-opacity":1,"stroke":"#ff0000","ID":"27-21","REMARKS":"POLYGON ID-27"}},
{"type":"Feature","geometry":{"type":"Polygon","coordinates":[[[88.3136934942794,22.5294838742541],[88.3135761033825,22.5294594036354],[88.3135912642989,22.529387981972],[88.3137088791589,22.5294125980862],[88.3136934942794,22.5294838742541]]]},"properties": {
    "floor": "ground","fill-opacity":0,"stroke-opacity":1,"stroke":"#ff0000","ID":"27-24","REMARKS":"POLYGON ID-27"}},
{"type":"Feature","geometry":{"type":"Polygon","coordinates":[[[88.313678109386,22.5295551504206],[88.3135609424523,22.5295308252974],[88.3135761033825,22.5294594036354],[88.3136934942794,22.5294838742541],[88.313678109386,22.5295551504206]]]},"properties": {
    "floor": "ground","fill-opacity":0,"stroke-opacity":1,"stroke":"#ff0000","ID":"27-23","REMARKS":"POLYGON ID-27"}},
{"type":"Feature","geometry":{"type":"Polygon","coordinates":[[[88.3137242640246,22.5293413219169],[88.3136064252018,22.5293165603073],[88.313621586091,22.5292451386414],[88.3137396488764,22.5292700457464],[88.3137242640246,22.5293413219169]]]},"properties": {
    "floor": "ground","fill-opacity":0,"stroke-opacity":1,"stroke":"#ff0000","ID":"27-26","REMARKS":"POLYGON ID-27"}},
{"type":"Feature","geometry":{"type":"Polygon","coordinates":[[[88.3137088791589,22.5294125980862],[88.3135912642989,22.529387981972],[88.3136064252018,22.5293165603073],[88.3137242640246,22.5293413219169],[88.3137088791589,22.5294125980862]]]},"properties": {
    "floor": "ground","fill-opacity":0,"stroke-opacity":1,"stroke":"#ff0000","ID":"27-25","REMARKS":"POLYGON ID-27"}},
{"type":"Feature","geometry":{"type":"Polygon","coordinates":[[[88.3137550337144,22.5291987695744],[88.3136367469665,22.5291737169741],[88.3136519078284,22.5291022953055],[88.3137704185385,22.5291274934012],[88.3137550337144,22.5291987695744]]]},"properties": {
    "floor": "ground","fill-opacity":0,"stroke-opacity":1,"stroke":"#ff0000","ID":"27-28","REMARKS":"POLYGON ID-27"}},
{"type":"Feature","geometry":{"type":"Polygon","coordinates":[[[88.3137396488764,22.5292700457464],[88.313621586091,22.5292451386414],[88.3136367469665,22.5291737169741],[88.3137550337144,22.5291987695744],[88.3137396488764,22.5292700457464]]]},"properties": {
    "floor": "ground","fill-opacity":0,"stroke-opacity":1,"stroke":"#ff0000","ID":"27-27","REMARKS":"POLYGON ID-27"}},
{"type":"Feature","geometry":{"type":"Polygon","coordinates":[[[88.3137858033487,22.5290562172266],[88.3136670686766,22.5290308736356],[88.3136822295112,22.5289594519645],[88.3138011881451,22.5289849410507],[88.3137858033487,22.5290562172266]]]},"properties": {
    "floor": "ground","fill-opacity":0,"stroke-opacity":1,"stroke":"#ff0000","ID":"27-30","REMARKS":"POLYGON ID-27"}},
{"type":"Feature","geometry":{"type":"Polygon","coordinates":[[[88.3137704185385,22.5291274934012],[88.3136519078284,22.5291022953055],[88.3136670686766,22.5290308736356],[88.3137858033487,22.5290562172266],[88.3137704185385,22.5291274934012]]]},"properties": {
    "floor": "ground","fill-opacity":0,"stroke-opacity":1,"stroke":"#ff0000","ID":"27-29","REMARKS":"POLYGON ID-27"}},
{"type":"Feature","geometry":{"type":"Polygon","coordinates":[[[88.3135457815086,22.5296022469582],[88.3134288385746,22.5295780672435],[88.3134437755552,22.5295065000869],[88.3135609424523,22.5295308252974],[88.3135457815086,22.5296022469582]]]},"properties": {
    "floor": "ground","fill-opacity":0,"stroke-opacity":1,"stroke":"#ff0000","ID":"27-12","REMARKS":"POLYGON ID-27"}},
{"type":"Feature","geometry":{"type":"Polygon","coordinates":[[[88.3135306205512,22.5296736686177],[88.3134139015806,22.5296496343988],[88.3134288385746,22.5295780672435],[88.3135457815086,22.5296022469582],[88.3135306205512,22.5296736686177]]]},"properties": {
    "floor": "ground","fill-opacity":0,"stroke-opacity":1,"stroke":"#ff0000","ID":"27-11","REMARKS":"POLYGON ID-27"}},
{"type":"Feature","geometry":{"type":"Polygon","coordinates":[[[88.3135761033825,22.5294594036354],[88.3134587125224,22.529434932929],[88.3134736494761,22.5293633657698],[88.3135912642989,22.529387981972],[88.3135761033825,22.5294594036354]]]},"properties": {
    "floor": "ground","fill-opacity":0,"stroke-opacity":1,"stroke":"#ff0000","ID":"27-14","REMARKS":"POLYGON ID-27"}},
{"type":"Feature","geometry":{"type":"Polygon","coordinates":[[[88.3135609424523,22.5295308252974],[88.3134437755552,22.5295065000869],[88.3134587125224,22.529434932929],[88.3135761033825,22.5294594036354],[88.3135609424523,22.5295308252974]]]},"properties": {
    "floor": "ground","fill-opacity":0,"stroke-opacity":1,"stroke":"#ff0000","ID":"27-13","REMARKS":"POLYGON ID-27"}},
{"type":"Feature","geometry":{"type":"Polygon","coordinates":[[[88.3136064252018,22.5293165603073],[88.3134885864165,22.5292917986094],[88.3135035233433,22.5292202314476],[88.313621586091,22.5292451386414],[88.3136064252018,22.5293165603073]]]},"properties": {
    "floor": "ground","fill-opacity":0,"stroke-opacity":1,"stroke":"#ff0000","ID":"27-16","REMARKS":"POLYGON ID-27"}},
{"type":"Feature","geometry":{"type":"Polygon","coordinates":[[[88.3135912642989,22.529387981972],[88.3134736494761,22.5293633657698],[88.3134885864165,22.5292917986094],[88.3136064252018,22.5293165603073],[88.3135912642989,22.529387981972]]]},"properties": {
    "floor": "ground","fill-opacity":0,"stroke-opacity":1,"stroke":"#ff0000","ID":"27-15","REMARKS":"POLYGON ID-27"}},
{"type":"Feature","geometry":{"type":"Polygon","coordinates":[[[88.3136367469665,22.5291737169741],[88.3135184602568,22.5291486642846],[88.3135333971568,22.5290770971204],[88.3136519078284,22.5291022953055],[88.3136367469665,22.5291737169741]]]},"properties": {
    "floor": "ground","fill-opacity":0,"stroke-opacity":1,"stroke":"#ff0000","ID":"27-18","REMARKS":"POLYGON ID-27"}},
{"type":"Feature","geometry":{"type":"Polygon","coordinates":[[[88.313621586091,22.5292451386414],[88.3135035233433,22.5292202314476],[88.3135184602568,22.5291486642846],[88.3136367469665,22.5291737169741],[88.313621586091,22.5292451386414]]]},"properties": {
    "floor": "ground","fill-opacity":0,"stroke-opacity":1,"stroke":"#ff0000","ID":"27-17","REMARKS":"POLYGON ID-27"}},
{"type":"Feature","geometry":{"type":"Polygon","coordinates":[[[88.3136670686766,22.5290308736356],[88.3135483340433,22.5290055299549],[88.3135632709164,22.5289339627881],[88.3136822295112,22.5289594519645],[88.3136670686766,22.5290308736356]]]},"properties": {
    "floor": "ground","fill-opacity":0,"stroke-opacity":1,"stroke":"#ff0000","ID":"27-20","REMARKS":"POLYGON ID-27"}},
{"type":"Feature","geometry":{"type":"Polygon","coordinates":[[[88.3136519078284,22.5291022953055],[88.3135333971568,22.5290770971204],[88.3135483340433,22.5290055299549],[88.3136670686766,22.5290308736356],[88.3136519078284,22.5291022953055]]]},"properties": {
    "floor": "ground","fill-opacity":0,"stroke-opacity":1,"stroke":"#ff0000","ID":"27-19","REMARKS":"POLYGON ID-27"}},
{"type":"Feature","geometry":{"type":"Polygon","coordinates":[[[88.313678109386,22.5295551504206],[88.3137939238486,22.5295791946629],[88.3137952421364,22.5295796313987],[88.3137796674853,22.5296506061266],[88.3136627244788,22.5296264265859],[88.313678109386,22.5295551504206]]]},"properties": {
    "floor": "ground","fill-opacity":0,"stroke-opacity":1,"stroke":"#ff0000","ID":"27-32","REMARKS":"POLYGON ID-27"}},
{"type":"Feature","geometry":{"type":"Polygon","coordinates":[[[88.3136627244788,22.5296264265859],[88.3137796674853,22.5296506061266],[88.3137640586002,22.5297217367953],[88.3136473395577,22.5296977027498],[88.3136627244788,22.5296264265859]]]},"properties": {
    "floor": "ground","fill-opacity":0,"stroke-opacity":1,"stroke":"#ff0000","ID":"27-31","REMARKS":"POLYGON ID-27"}},
{"type":"Feature","geometry":{"type":"Polygon","coordinates":[[[88.3137088791589,22.5294125980862],[88.3138264940561,22.5294372141123],[88.3138108852132,22.5295083447851],[88.3136934942794,22.5294838742541],[88.3137088791589,22.5294125980862]]]},"properties": {
    "floor": "ground","fill-opacity":0,"stroke-opacity":1,"stroke":"#ff0000","ID":"27-34","REMARKS":"POLYGON ID-27"}},
{"type":"Feature","geometry":{"type":"Polygon","coordinates":[[[88.3136934942794,22.5294838742541],[88.3138108852132,22.5295083447851],[88.3137952421364,22.5295796313987],[88.3137939238486,22.5295791946629],[88.313678109386,22.5295551504206],[88.3136934942794,22.5294838742541]]]},"properties": {
    "floor": "ground","fill-opacity":0,"stroke-opacity":1,"stroke":"#ff0000","ID":"27-33","REMARKS":"POLYGON ID-27"}},
{"type":"Feature","geometry":{"type":"Polygon","coordinates":[[[88.3137396488764,22.5292700457464],[88.3138577116997,22.5292949527626],[88.3138421028849,22.5293660834381],[88.3137242640246,22.5293413219169],[88.3137396488764,22.5292700457464]]]},"properties": {
    "floor": "ground","fill-opacity":0,"stroke-opacity":1,"stroke":"#ff0000","ID":"27-36","REMARKS":"POLYGON ID-27"}},
{"type":"Feature","geometry":{"type":"Polygon","coordinates":[[[88.3137242640246,22.5293413219169],[88.3138421028849,22.5293660834381],[88.3138264940561,22.5294372141123],[88.3137088791589,22.5294125980862],[88.3137242640246,22.5293413219169]]]},"properties": {
    "floor": "ground","fill-opacity":0,"stroke-opacity":1,"stroke":"#ff0000","ID":"27-35","REMARKS":"POLYGON ID-27"}},
{"type":"Feature","geometry":{"type":"Polygon","coordinates":[[[88.3137704185385,22.5291274934012],[88.313888929287,22.5291526914075],[88.3138733205003,22.5292238220857],[88.3137550337144,22.5291987695744],[88.3137704185385,22.5291274934012]]]},"properties": {
    "floor": "ground","fill-opacity":0,"stroke-opacity":1,"stroke":"#ff0000","ID":"27-38","REMARKS":"POLYGON ID-27"}},
{"type":"Feature","geometry":{"type":"Polygon","coordinates":[[[88.3137550337144,22.5291987695744],[88.3138733205003,22.5292238220857],[88.3138577116997,22.5292949527626],[88.3137396488764,22.5292700457464],[88.3137550337144,22.5291987695744]]]},"properties": {
    "floor": "ground","fill-opacity":0,"stroke-opacity":1,"stroke":"#ff0000","ID":"27-37","REMARKS":"POLYGON ID-27"}},
{"type":"Feature","geometry":{"type":"Polygon","coordinates":[[[88.3138011881451,22.5289849410507],[88.313920146818,22.5290104300469],[88.3139045380595,22.5290815607279],[88.3137858033487,22.5290562172266],[88.3138011881451,22.5289849410507]]]},"properties": {
    "floor": "ground","fill-opacity":0,"stroke-opacity":1,"stroke":"#ff0000","ID":"27-40","REMARKS":"POLYGON ID-27"}},
{"type":"Feature","geometry":{"type":"Polygon","coordinates":[[[88.3137858033487,22.5290562172266],[88.3139045380595,22.5290815607279],[88.313888929287,22.5291526914075],[88.3137704185385,22.5291274934012],[88.3137858033487,22.5290562172266]]]},"properties": {
    "floor": "ground","fill-opacity":0,"stroke-opacity":1,"stroke":"#ff0000","ID":"27-39","REMARKS":"POLYGON ID-27"}}
]}