{"type":"FeatureCollection", "features": [
{"type":"Feature","geometry":{"type":"Polygon","coordinates":[[[88.3144741500483,22.5257421163098],[88.3144711846271,22.525755243195],[88.3144488295028,22.5258542014616],[88.3143671991444,22.5258381444652],[88.3143924396315,22.5257264139973],[88.3144741500483,22.5257421163098]]]},"properties": {
    "floor": "ground","fill-opacity":0,"stroke-opacity":1,"stroke":"#ff0000","ID":"29-25","REMARKS":"POLYGON ID-29"}},
{"type":"Feature","geometry":{"type":"Polygon","coordinates":[[[88.3145196460206,22.5261160214023],[88.3145798106524,22.5261264150757],[88.3145610521234,22.5262683547417],[88.3144887088559,22.5262563123398],[88.3145196460206,22.5261160214023]]]},"properties": {
    "floor": "ground","fill-opacity":0,"stroke-opacity":1,"stroke":"#ff0000","ID":"29-37","REMARKS":"POLYGON ID-29"}},
{"type":"Feature","geometry":{"type":"Polygon","coordinates":[[[88.3145505556333,22.5259758551505],[88.314598569151,22.525984475407],[88.3145798106524,22.5261264150757],[88.3145196460206,22.5261160214023],[88.3145505556333,22.5259758551505]]]},"properties": {
    "floor": "ground","fill-opacity":0,"stroke-opacity":1,"stroke":"#ff0000","ID":"29-38","REMARKS":"POLYGON ID-29"}},
{"type":"Feature","geometry":{"type":"Polygon","coordinates":[[[88.3143671991444,22.5258381444652],[88.3144488295028,22.5258542014616],[88.3144263835955,22.5259535614647],[88.3143703217092,22.5259434961526],[88.3143444489944,22.5259388509763],[88.3143671991444,22.5258381444652]]]},"properties": {
    "floor": "ground","fill-opacity":0,"stroke-opacity":1,"stroke":"#ff0000","ID":"29-24","REMARKS":"POLYGON ID-29"}},
{"type":"Feature","geometry":{"type":"Polygon","coordinates":[[[88.3144991500682,22.5256314498516],[88.3145241500528,22.52552078339],[88.3145462362982,22.5254230149327],[88.3145555329413,22.5254251976889],[88.3145458473862,22.525638604633],[88.3144991500682,22.5256314498516]]]},"properties": {
    "floor": "ground","fill-opacity":0,"stroke-opacity":1,"stroke":"#ff0000","ID":"29-34","REMARKS":"POLYGON ID-29"}},
{"type":"Feature","geometry":{"type":"Polygon","coordinates":[[[88.3145083182118,22.5259682719106],[88.3144904776505,22.5259650688408],[88.3144303996758,22.5259542825081],[88.3144263835955,22.5259535614647],[88.3144488295028,22.5258542014616],[88.314530459878,22.5258702584156],[88.3145083182118,22.5259682719106]]]},"properties": {
    "floor": "ground","fill-opacity":0,"stroke-opacity":1,"stroke":"#ff0000","ID":"29-31","REMARKS":"POLYGON ID-29"}},
{"type":"Feature","geometry":{"type":"Polygon","coordinates":[[[88.3143107292311,22.5257107116424],[88.3142855688027,22.5258220874265],[88.3142039384776,22.5258060303455],[88.314229018847,22.5256950092451],[88.3143107292311,22.5257107116424]]]},"properties": {
    "floor": "ground","fill-opacity":0,"stroke-opacity":1,"stroke":"#ff0000","ID":"29-9","REMARKS":"POLYGON ID-29"}},
{"type":"Feature","geometry":{"type":"Polygon","coordinates":[[[88.3142039384776,22.5258060303455],[88.3142855688027,22.5258220874265],[88.3142625144085,22.5259241404452],[88.3142501658004,22.5259219233729],[88.3141932734161,22.525911708886],[88.3141805798377,22.5259094298716],[88.3142039384776,22.5258060303455]]]},"properties": {
    "floor": "ground","fill-opacity":0,"stroke-opacity":1,"stroke":"#ff0000","ID":"29-8","REMARKS":"POLYGON ID-29"}},
{"type":"Feature","geometry":{"type":"Polygon","coordinates":[[[88.3143924396315,22.5257264139973],[88.3143671991444,22.5258381444652],[88.3142855688027,22.5258220874265],[88.3143107292311,22.5257107116424],[88.3143924396315,22.5257264139973]]]},"properties": {
    "floor": "ground","fill-opacity":0,"stroke-opacity":1,"stroke":"#ff0000","ID":"29-16","REMARKS":"POLYGON ID-29"}},
{"type":"Feature","geometry":{"type":"Polygon","coordinates":[[[88.3142855688027,22.5258220874265],[88.3143671991444,22.5258381444652],[88.3143444489944,22.5259388509763],[88.3143102437507,22.5259327097742],[88.3142625144085,22.5259241404452],[88.3142855688027,22.5258220874265]]]},"properties": {
    "floor": "ground","fill-opacity":0,"stroke-opacity":1,"stroke":"#ff0000","ID":"29-15","REMARKS":"POLYGON ID-29"}},
{"type":"Feature","geometry":{"type":"Polygon","coordinates":[[[88.314229018847,22.5256950092451],[88.3142039384776,22.5258060303455],[88.3141223081693,22.5257899732221],[88.31414934825,22.5256796987928],[88.314229018847,22.5256950092451]]]},"properties": {
    "floor": "ground","fill-opacity":0,"stroke-opacity":1,"stroke":"#ff0000","ID":"29-2","REMARKS":"POLYGON ID-29"}},
{"type":"Feature","geometry":{"type":"Polygon","coordinates":[[[88.3141805798377,22.5259094298716],[88.3140967089034,22.5258943715955],[88.3141223081693,22.5257899732221],[88.3142039384776,22.5258060303455],[88.3141805798377,22.5259094298716]]]},"properties": {
    "floor": "ground","fill-opacity":0,"stroke-opacity":1,"stroke":"#ff0000","ID":"29-1","REMARKS":"POLYGON ID-29"}},
{"type":"Feature","geometry":{"type":"Polygon","coordinates":[[[88.314530459878,22.5258702584156],[88.3145352905523,22.5258712086231],[88.3146109823688,22.5258905483566],[88.314598569151,22.525984475407],[88.3145505556333,22.5259758551505],[88.3145083182118,22.5259682719106],[88.314530459878,22.5258702584156]]]},"properties": {
    "floor": "ground","fill-opacity":0,"stroke-opacity":1,"stroke":"#ff0000","ID":"29-39","REMARKS":"POLYGON ID-29"}},
{"type":"Feature","geometry":{"type":"Polygon","coordinates":[[[88.3145400292865,22.525766797766],[88.3145352905523,22.5258712086231],[88.314530459878,22.5258702584156],[88.3144488295028,22.5258542014616],[88.3144711846271,22.525755243195],[88.3145400292865,22.525766797766]]]},"properties": {
    "floor": "ground","fill-opacity":0,"stroke-opacity":1,"stroke":"#ff0000","ID":"29-32","REMARKS":"POLYGON ID-29"}},
{"type":"Feature","geometry":{"type":"Polygon","coordinates":[[[88.3144424397635,22.5255050810966],[88.3144652731427,22.5254040055905],[88.3145462362982,22.5254230149327],[88.3145241500528,22.52552078339],[88.3144424397635,22.5255050810966]]]},"properties": {
    "floor": "ground","fill-opacity":0,"stroke-opacity":1,"stroke":"#ff0000","ID":"29-28","REMARKS":"POLYGON ID-29"}},
{"type":"Feature","geometry":{"type":"Polygon","coordinates":[[[88.3142790192336,22.5254736763825],[88.3143033468917,22.5253659867806],[88.3143843100072,22.5253849962065],[88.3143607294904,22.5254893787607],[88.3142790192336,22.5254736763825]]]},"properties": {
    "floor": "ground","fill-opacity":0,"stroke-opacity":1,"stroke":"#ff0000","ID":"29-12","REMARKS":"POLYGON ID-29"}},
{"type":"Feature","geometry":{"type":"Polygon","coordinates":[[[88.3143607294904,22.5254893787607],[88.3143843100072,22.5253849962065],[88.3144652731427,22.5254040055905],[88.3144424397635,22.5255050810966],[88.3143607294904,22.5254893787607]]]},"properties": {
    "floor": "ground","fill-opacity":0,"stroke-opacity":1,"stroke":"#ff0000","ID":"29-19","REMARKS":"POLYGON ID-29"}},
{"type":"Feature","geometry":{"type":"Polygon","coordinates":[[[88.3142034282965,22.5254591499222],[88.3142304682622,22.525348875481],[88.3143033468917,22.5253659867806],[88.3142790192336,22.5254736763825],[88.3142034282965,22.5254591499222]]]},"properties": {
    "floor": "ground","fill-opacity":0,"stroke-opacity":1,"stroke":"#ff0000","ID":"29-5","REMARKS":"POLYGON ID-29"}},
{"type":"Feature","geometry":{"type":"Polygon","coordinates":[[[88.3144991500682,22.5256314498516],[88.3144741500483,22.5257421163098],[88.3143924396315,22.5257264139973],[88.3144174397151,22.5256157475487],[88.3144991500682,22.5256314498516]]]},"properties": {
    "floor": "ground","fill-opacity":0,"stroke-opacity":1,"stroke":"#ff0000","ID":"29-26","REMARKS":"POLYGON ID-29"}},
{"type":"Feature","geometry":{"type":"Polygon","coordinates":[[[88.3143357293784,22.5256000452033],[88.3143107292311,22.5257107116424],[88.314229018847,22.5256950092451],[88.3142540190579,22.5255843428155],[88.3143357293784,22.5256000452033]]]},"properties": {
    "floor": "ground","fill-opacity":0,"stroke-opacity":1,"stroke":"#ff0000","ID":"29-10","REMARKS":"POLYGON ID-29"}},
{"type":"Feature","geometry":{"type":"Polygon","coordinates":[[[88.3144174397151,22.5256157475487],[88.3143924396315,22.5257264139973],[88.3143107292311,22.5257107116424],[88.3143357293784,22.5256000452033],[88.3144174397151,22.5256157475487]]]},"properties": {
    "floor": "ground","fill-opacity":0,"stroke-opacity":1,"stroke":"#ff0000","ID":"29-17","REMARKS":"POLYGON ID-29"}},
{"type":"Feature","geometry":{"type":"Polygon","coordinates":[[[88.3142540190579,22.5255843428155],[88.314229018847,22.5256950092451],[88.31414934825,22.5256796987928],[88.3141763882924,22.5255694243595],[88.3142540190579,22.5255843428155]]]},"properties": {
    "floor": "ground","fill-opacity":0,"stroke-opacity":1,"stroke":"#ff0000","ID":"29-3","REMARKS":"POLYGON ID-29"}},
{"type":"Feature","geometry":{"type":"Polygon","coordinates":[[[88.3145458473862,22.525638604633],[88.3145400292865,22.525766797766],[88.3144711846271,22.525755243195],[88.3144741500483,22.5257421163098],[88.3144991500682,22.5256314498516],[88.3145458473862,22.525638604633]]]},"properties": {
    "floor": "ground","fill-opacity":0,"stroke-opacity":1,"stroke":"#ff0000","ID":"29-33","REMARKS":"POLYGON ID-29"}},
{"type":"Feature","geometry":{"type":"Polygon","coordinates":[[[88.3145241500528,22.52552078339],[88.3144991500682,22.5256314498516],[88.3144174397151,22.5256157475487],[88.3144424397635,22.5255050810966],[88.3145241500528,22.52552078339]]]},"properties": {
    "floor": "ground","fill-opacity":0,"stroke-opacity":1,"stroke":"#ff0000","ID":"29-27","REMARKS":"POLYGON ID-29"}},
{"type":"Feature","geometry":{"type":"Polygon","coordinates":[[[88.3143607294904,22.5254893787607],[88.3143357293784,22.5256000452033],[88.3142540190579,22.5255843428155],[88.3142790192336,22.5254736763825],[88.3143607294904,22.5254893787607]]]},"properties": {
    "floor": "ground","fill-opacity":0,"stroke-opacity":1,"stroke":"#ff0000","ID":"29-11","REMARKS":"POLYGON ID-29"}},
{"type":"Feature","geometry":{"type":"Polygon","coordinates":[[[88.3144424397635,22.5255050810966],[88.3144174397151,22.5256157475487],[88.3143357293784,22.5256000452033],[88.3143607294904,22.5254893787607],[88.3144424397635,22.5255050810966]]]},"properties": {
    "floor": "ground","fill-opacity":0,"stroke-opacity":1,"stroke":"#ff0000","ID":"29-18","REMARKS":"POLYGON ID-29"}},
{"type":"Feature","geometry":{"type":"Polygon","coordinates":[[[88.3142790192336,22.5254736763825],[88.3142540190579,22.5255843428155],[88.3141763882924,22.5255694243595],[88.3142034282965,22.5254591499222],[88.3142790192336,22.5254736763825]]]},"properties": {
    "floor": "ground","fill-opacity":0,"stroke-opacity":1,"stroke":"#ff0000","ID":"29-4","REMARKS":"POLYGON ID-29"}},
{"type":"Feature","geometry":{"type":"Polygon","coordinates":[[[88.3143993167805,22.5260952339865],[88.3144594813966,22.5261056277058],[88.3144284636501,22.5262462837782],[88.3143682184517,22.5262362551936],[88.3143993167805,22.5260952339865]]]},"properties": {
    "floor": "ground","fill-opacity":0,"stroke-opacity":1,"stroke":"#ff0000","ID":"29-29","REMARKS":"POLYGON ID-29"}},
{"type":"Feature","geometry":{"type":"Polygon","coordinates":[[[88.3144303996758,22.5259542825081],[88.3144904776505,22.5259650688408],[88.3144594813966,22.5261056277058],[88.3143993167805,22.5260952339865],[88.3144303996758,22.5259542825081]]]},"properties": {
    "floor": "ground","fill-opacity":0,"stroke-opacity":1,"stroke":"#ff0000","ID":"29-30","REMARKS":"POLYGON ID-29"}},
{"type":"Feature","geometry":{"type":"Polygon","coordinates":[[[88.3144594813966,22.5261056277058],[88.3145196460206,22.5261160214023],[88.3144887088559,22.5262563123398],[88.3144284636501,22.5262462837782],[88.3144594813966,22.5261056277058]]]},"properties": {
    "floor": "ground","fill-opacity":0,"stroke-opacity":1,"stroke":"#ff0000","ID":"29-35","REMARKS":"POLYGON ID-29"}},
{"type":"Feature","geometry":{"type":"Polygon","coordinates":[[[88.3144904776505,22.5259650688408],[88.3145083182118,22.5259682719106],[88.3145505556333,22.5259758551505],[88.3145196460206,22.5261160214023],[88.3144594813966,22.5261056277058],[88.3144904776505,22.5259650688408]]]},"properties": {
    "floor": "ground","fill-opacity":0,"stroke-opacity":1,"stroke":"#ff0000","ID":"29-36","REMARKS":"POLYGON ID-29"}},
{"type":"Feature","geometry":{"type":"Polygon","coordinates":[[[88.3142789875715,22.5260744464789],[88.3143391521721,22.5260848402441],[88.3143079732608,22.526226226586],[88.3142477280774,22.5262161979555],[88.3142789875715,22.5260744464789]]]},"properties": {
    "floor": "ground","fill-opacity":0,"stroke-opacity":1,"stroke":"#ff0000","ID":"29-20","REMARKS":"POLYGON ID-29"}},
{"type":"Feature","geometry":{"type":"Polygon","coordinates":[[[88.3143102437507,22.5259327097742],[88.3143444489944,22.5259388509763],[88.3143703217092,22.5259434961526],[88.3143391521721,22.5260848402441],[88.3142789875715,22.5260744464789],[88.3143102437507,22.5259327097742]]]},"properties": {
    "floor": "ground","fill-opacity":0,"stroke-opacity":1,"stroke":"#ff0000","ID":"29-21","REMARKS":"POLYGON ID-29"}},
{"type":"Feature","geometry":{"type":"Polygon","coordinates":[[[88.3143391521721,22.5260848402441],[88.3143993167805,22.5260952339865],[88.3143682184517,22.5262362551936],[88.3143079732608,22.526226226586],[88.3143391521721,22.5260848402441]]]},"properties": {
    "floor": "ground","fill-opacity":0,"stroke-opacity":1,"stroke":"#ff0000","ID":"29-22","REMARKS":"POLYGON ID-29"}},
{"type":"Feature","geometry":{"type":"Polygon","coordinates":[[[88.3143703217092,22.5259434961526],[88.3144263835955,22.5259535614647],[88.3144303996758,22.5259542825081],[88.3143993167805,22.5260952339865],[88.3143391521721,22.5260848402441],[88.3143703217092,22.5259434961526]]]},"properties": {
    "floor": "ground","fill-opacity":0,"stroke-opacity":1,"stroke":"#ff0000","ID":"29-23","REMARKS":"POLYGON ID-29"}},
{"type":"Feature","geometry":{"type":"Polygon","coordinates":[[[88.3141878200127,22.5262062254189],[88.3141240433084,22.5261956088667],[88.3141586583938,22.5260536588796],[88.3142189913176,22.5260640817723],[88.3141878200127,22.5262062254189]]]},"properties": {
    "floor": "ground","fill-opacity":0,"stroke-opacity":1,"stroke":"#ff0000","ID":"29-6","REMARKS":"POLYGON ID-29"}},
{"type":"Feature","geometry":{"type":"Polygon","coordinates":[[[88.3142189913176,22.5260640817723],[88.3141586583938,22.5260536588796],[88.3141932734161,22.525911708886],[88.3142501658004,22.5259219233729],[88.3142189913176,22.5260640817723]]]},"properties": {
    "floor": "ground","fill-opacity":0,"stroke-opacity":1,"stroke":"#ff0000","ID":"29-7","REMARKS":"POLYGON ID-29"}},
{"type":"Feature","geometry":{"type":"Polygon","coordinates":[[[88.3142189913176,22.5260640817723],[88.3142789875715,22.5260744464789],[88.3142477280774,22.5262161979555],[88.3141878200127,22.5262062254189],[88.3142189913176,22.5260640817723]]]},"properties": {
    "floor": "ground","fill-opacity":0,"stroke-opacity":1,"stroke":"#ff0000","ID":"29-13","REMARKS":"POLYGON ID-29"}},
{"type":"Feature","geometry":{"type":"Polygon","coordinates":[[[88.3142501658004,22.5259219233729],[88.3142625144085,22.5259241404452],[88.3143102437507,22.5259327097742],[88.3142789875715,22.5260744464789],[88.3142189913176,22.5260640817723],[88.3142501658004,22.5259219233729]]]},"properties": {
    "floor": "ground","fill-opacity":0,"stroke-opacity":1,"stroke":"#ff0000","ID":"29-14","REMARKS":"POLYGON ID-29"}}
]}