{
    "type": "FeatureCollection", 
    "features": [
        {
            "type": "Feature", 
            "geometry": {
                "type": "Polygon", 
                "coordinates": [
                    [
                        [88.3143424885933, 22.5264054583226], 
                        [88.314320142993 , 22.5265009720793], 
                        [88.3145497535407, 22.5265444780926], 
                        [88.3145725966368, 22.5264546514647], 
                        [88.3143424885933, 22.5264054583226]  
                    ]
                ]
            }, 
            "properties": {
    "floor": "ground",
                "fill-opacity": 0, 
                "stroke-opacity": 1, 
                "stroke": "#ff0000", 
                "ID": "29S-B3-H1", 
                "REMARKS": "POLYGON-61"
            }, 
            "id": "polygon61.1"
        }, 
        {
            "type": "Feature", 
            "geometry": {
                "type": "Polygon", 
                "coordinates": [
                    [
                        [88.3142958235985, 22.5266049225974], 
                        [88.3142675827094, 22.5267256351034], 
                        [88.3144848268024, 22.5267655030313], 
                        [88.3144962235223, 22.5267549758731], 
                        [88.3145237659956, 22.5266466697362], 
                        [88.3142958235985, 22.5266049225974]  
                    ]
                ]
            }, 
            "properties": {
    "floor": "ground",
                "fill-opacity": 0, 
                "stroke-opacity": 1, 
                "stroke": "#ff0000", 
                "ID": "29S-B1-H1", 
                "REMARKS": "POLYGON-61"
            }, 
            "id": "polygon61.2"
        }, 
        {
            "type": "Feature", 
            "geometry": {
                "type": "Polygon", 
                "coordinates": [
                    [
                        [88.314320142993 , 22.5265009720793], 
                        [88.3142958235985, 22.5266049225974], 
                        [88.3145237659956, 22.5266466697362], 
                        [88.3145497535407, 22.5265444780926], 
                        [88.314320142993 , 22.5265009720793]  
                    ]
                ]
            }, 
            "properties": {
    "floor": "ground",
                "fill-opacity": 0, 
                "stroke-opacity": 1, 
                "stroke": "#ff0000", 
                "ID": "29S-B2-H1", 
                "REMARKS": "POLYGON-61"
            }, 
            "id": "polygon61.3"
        }, 
        {
            "type": "Feature", 
            "geometry": {
                "type": "Polygon", 
                "coordinates": [
                    [
                        [88.3143638582538, 22.5263141161105], 
                        [88.3143424885933, 22.5264054583226], 
                        [88.3145725966368, 22.5264546514647], 
                        [88.3145959448221, 22.526362838659 ], 
                        [88.3143638582538, 22.5263141161105]  
                    ]
                ]
            }, 
            "properties": {
    "floor": "ground",
                "fill-opacity": 0, 
                "stroke-opacity": 1, 
                "stroke": "#ff0000", 
                "ID": "29S-B4-H1", 
                "REMARKS": "POLYGON-61"
            }, 
            "id": "polygon61.4"
        }, 
        {
            "type": "Feature", 
            "geometry": {
                "type": "Polygon", 
                "coordinates": [
                    [
                        [88.3140824247775, 22.5265658390821], 
                        [88.3140671234092, 22.5266166253585], 
                        [88.3140659973435, 22.526623386328 ], 
                        [88.3140546006235, 22.5266865493253], 
                        [88.3142675827094, 22.5267256351034], 
                        [88.3142958235985, 22.5266049225974], 
                        [88.3140824247775, 22.5265658390821]  
                    ]
                ]
            }, 
            "properties": {
    "floor": "ground",
                "fill-opacity": 0, 
                "stroke-opacity": 1, 
                "stroke": "#ff0000", 
                "ID": "29S-B1-H2", 
                "REMARKS": "POLYGON-61"
            }, 
            "id": "polygon61.5"
        }, 
        {
            "type": "Feature", 
            "geometry": {
                "type": "Polygon", 
                "coordinates": [
                    [
                        [88.3141137509353, 22.5264618654455], 
                        [88.3140824247775, 22.5265658390821], 
                        [88.3142958235985, 22.5266049225974], 
                        [88.314320142993 , 22.5265009720793], 
                        [88.3141137509353, 22.5264618654455]  
                    ]
                ]
            }, 
            "properties": {
    "floor": "ground",
                "fill-opacity": 0, 
                "stroke-opacity": 1, 
                "stroke": "#ff0000", 
                "ID": "29S-B2-H2", 
                "REMARKS": "POLYGON-61"
            }, 
            "id": "polygon61.6"
        }, 
        {
            "type": "Feature", 
            "geometry": {
                "type": "Polygon", 
                "coordinates": [
                    [
                        [88.3141704964753, 22.5262735231598], 
                        [88.3141435589619, 22.5263629305889], 
                        [88.3143424885933, 22.5264054583226], 
                        [88.3143638582538, 22.5263141161105], 
                        [88.3141704964753, 22.5262735231598]  
                    ]
                ]
            }, 
            "properties": {
    "floor": "ground",
                "fill-opacity": 0, 
                "stroke-opacity": 1, 
                "stroke": "#ff0000", 
                "ID": "29S-B4-H2", 
                "REMARKS": "POLYGON-61"
            }, 
            "id": "polygon61.7"
        }, 
        {
            "type": "Feature", 
            "geometry": {
                "type": "Polygon", 
                "coordinates": [
                    [
                        [88.3141435589619, 22.5263629305889], 
                        [88.3141137509353, 22.5264618654455], 
                        [88.314320142993 , 22.5265009720793], 
                        [88.3143424885933, 22.5264054583226], 
                        [88.3141435589619, 22.5263629305889]  
                    ]
                ]
            }, 
            "properties": {
    "floor": "ground",
                "fill-opacity": 0, 
                "stroke-opacity": 1, 
                "stroke": "#ff0000", 
                "ID": "29S-B3-H2", 
                "REMARKS": "POLYGON-61"
            }, 
            "id": "polygon61.8"
        }
    ]
}
