{
    "type": "FeatureCollection", 
    "features": [
        {
            "type": "Feature", 
            "geometry": {
                "type": "Polygon", 
                "coordinates": [
                    [
                        [88.3142476269424, 22.5268122460041], 
                        [88.3142217589798, 22.5269117328162], 
                        [88.3144505545992, 22.526953418838 ], 
                        [88.3144762792624, 22.5268602474189], 
                        [88.3142476269424, 22.5268122460041]  
                    ]
                ]
            }, 
            "properties": {
    "floor": "ground",
                "fill-opacity": 0, 
                "stroke-opacity": 1, 
                "stroke": "#ff0000", 
                "ID": "29N-B4-H1", 
                "REMARKS": "POLYGON-60"
            }, 
            "id": "p60.1"
        }, 
        {
            "type": "Feature", 
            "geometry": {
                "type": "Polygon", 
                "coordinates": [
                    [
                        [88.3141702225   , 22.5271099393845], 
                        [88.3141434578273, 22.5272128748961], 
                        [88.3143680104227, 22.527252383221 ], 
                        [88.3143976713733, 22.5271449550756], 
                        [88.3141702225   , 22.5271099393845]  
                    ]
                ]
            }, 
            "properties": {
    "floor": "ground",
                "fill-opacity": 0, 
                "stroke-opacity": 1, 
                "stroke": "#ff0000", 
                "ID": "29N-B1-H1", 
                "REMARKS": "POLYGON-60"
            }, 
            "id": "p60.2"
        }, 
        {
            "type": "Feature", 
            "geometry": {
                "type": "Polygon", 
                "coordinates": [
                    [
                        [88.3141959225324, 22.5270110984228], 
                        [88.3141702225   , 22.5271099393845], 
                        [88.3143976713733, 22.5271449550756], 
                        [88.3144248965645, 22.5270463489372], 
                        [88.3141959225324, 22.5270110984228]  
                    ]
                ]
            }, 
            "properties": {
    "floor": "ground",
                "fill-opacity": 0, 
                "stroke-opacity": 1, 
                "stroke": "#ff0000", 
                "ID": "29N-B2-H1", 
                "REMARKS": "POLYGON-60"
            }, 
            "id": "p60.3"
        }, 
        {
            "type": "Feature", 
            "geometry": {
                "type": "Polygon", 
                "coordinates": [
                    [
                        [88.3142217589798, 22.5269117328162], 
                        [88.3141959225324, 22.5270110984228], 
                        [88.3144248965645, 22.5270463489372], 
                        [88.3144505545992, 22.526953418838 ], 
                        [88.3142217589798, 22.5269117328162]  
                    ]
                ]
            }, 
            "properties": {
    "floor": "ground",
                "fill-opacity": 0, 
                "stroke-opacity": 1, 
                "stroke": "#ff0000", 
                "ID": "29N-B3-H1", 
                "REMARKS": "POLYGON-60"
            }, 
            "id": "p60.4"
        }, 
        {
            "type": "Feature", 
            "geometry": {
                "type": "Polygon", 
                "coordinates": [
                    [
                        [88.3141434578273, 22.5272128748961], 
                        [88.3141702225   , 22.5271099393845], 
                        [88.3139738537508, 22.5270797084699], 
                        [88.3139548793237, 22.5271418484095], 
                        [88.3139491809637, 22.5271786933565], 
                        [88.3141434578273, 22.5272128748961]  
                    ]
                ]
            }, 
            "properties": {
    "floor": "ground",
                "fill-opacity": 0, 
                "stroke-opacity": 1, 
                "stroke": "#ff0000", 
                "ID": "29N-B1-H2", 
                "REMARKS": "POLYGON-60"
            }, 
            "id": "p60.5"
        }, 
        {
            "type": "Feature", 
            "geometry": {
                "type": "Polygon", 
                "coordinates": [
                    [
                        [88.3141702225   , 22.5271099393845], 
                        [88.3141959225324, 22.5270110984228], 
                        [88.3139973230413, 22.526980524064 ], 
                        [88.3139862203036, 22.5270392088626], 
                        [88.3139738537508, 22.5270797084699], 
                        [88.3141702225   , 22.5271099393845]  
                    ]
                ]
            }, 
            "properties": {
    "floor": "ground",
                "fill-opacity": 0, 
                "stroke-opacity": 1, 
                "stroke": "#ff0000", 
                "ID": "29N-B2-H2", 
                "REMARKS": "POLYGON-60"
            }, 
            "id": "p60.6"
        }, 
        {
            "type": "Feature", 
            "geometry": {
                "type": "Polygon", 
                "coordinates": [
                    [
                        [88.3141959225324, 22.5270110984228], 
                        [88.3142217589798, 22.5269117328162], 
                        [88.3140173827891, 22.5268744959567], 
                        [88.3139973230413, 22.526980524064 ], 
                        [88.3141959225324, 22.5270110984228]  
                    ]
                ]
            }, 
            "properties": {
    "floor": "ground",
                "fill-opacity": 0, 
                "stroke-opacity": 1, 
                "stroke": "#ff0000", 
                "ID": "29N-B3-H2", 
                "REMARKS": "POLYGON-60"
            }, 
            "id": "p60.7"
        }, 
        {
            "type": "Feature", 
            "geometry": {
                "type": "Polygon", 
                "coordinates": [
                    [
                        [88.3142217589798, 22.5269117328162], 
                        [88.3142476269424, 22.5268122460041], 
                        [88.3140375055435, 22.5267681348207], 
                        [88.3140173827891, 22.5268744959567], 
                        [88.3142217589798, 22.5269117328162]  
                    ]
                ]
            }, 
            "properties": {
    "floor": "ground",
                "fill-opacity": 0, 
                "stroke-opacity": 1, 
                "stroke": "#ff0000", 
                "ID": "29N-B4-H2", 
                "REMARKS": "POLYGON-60"
            }, 
            "id": "p60.8"
        }
    ]
}
