{
    "type": "FeatureCollection", 
    "features": [
        {
            "type": "Feature", 
            "geometry": {
                "type": "Polygon", 
                "coordinates": [
                    [
                        [88.3145298656011, 22.5369996955676], 
                        [88.3145303561573, 22.5369448714532], 
                        [88.3143295464928, 22.5369475210868], 
                        [88.3143291670626, 22.5369976358827], 
                        [88.3145298656011, 22.5369996955676]  
                    ]
                ]
            }, 
            "properties": {
    "floor": "ground",
                "fill-opacity": 0, 
                "stroke-opacity": 1, 
                "stroke": "#ff0000", 
                "ID": "22G-B20-H2", 
                "REMARKS": "POLYGON-45"
            }, 
            "id": "p45.1"
        }, 
        {
            "type": "Feature", 
            "geometry": {
                "type": "Polygon", 
                "coordinates": [
                    [
                        [88.3145205124011, 22.5380450007577], 
                        [88.3145210247261, 22.5379877437791], 
                        [88.3143238481328, 22.5379877437791], 
                        [88.3143238481328, 22.5380027868191], 
                        [88.3143238481328, 22.5380475235921], 
                        [88.3145205124011, 22.5380450007577]  
                    ]
                ]
            }, 
            "properties": {
    "floor": "ground",
                "fill-opacity": 0, 
                "stroke-opacity": 1, 
                "stroke": "#ff0000", 
                "ID": "22G-B1-H2", 
                "REMARKS": "POLYGON-45"
            }, 
            "id": "p45.2"
        }, 
        {
            "type": "Feature", 
            "geometry": {
                "type": "Polygon", 
                "coordinates": [
                    [
                        [88.314521566374 , 22.5379272096996], 
                        [88.3145210247261, 22.5379877437791], 
                        [88.3147222021205, 22.5379877437791], 
                        [88.3147217104545, 22.5379230321113], 
                        [88.314521566374 , 22.5379272096996]  
                    ]
                ]
            }, 
            "properties": {
    "floor": "ground",
                "fill-opacity": 0, 
                "stroke-opacity": 1, 
                "stroke": "#ff0000", 
                "ID": "22G-B2-H1", 
                "REMARKS": "POLYGON-45"
            }, 
            "id": "p45.3"
        }, 
        {
            "type": "Feature", 
            "geometry": {
                "type": "Polygon", 
                "coordinates": [
                    [
                        [88.314521566374 , 22.5379272096996], 
                        [88.3145220624478, 22.5378717689418], 
                        [88.3143238481328, 22.5378747377413], 
                        [88.3143238481328, 22.5379313366535], 
                        [88.314521566374 , 22.5379272096996]  
                    ]
                ]
            }, 
            "properties": {
    "floor": "ground",
                "fill-opacity": 0, 
                "stroke-opacity": 1, 
                "stroke": "#ff0000", 
                "ID": "22G-B3-H2", 
                "REMARKS": "POLYGON-45"
            }, 
            "id": "p45.4"
        }, 
        {
            "type": "Feature", 
            "geometry": {
                "type": "Polygon", 
                "coordinates": [
                    [
                        [88.3145220624478, 22.5378717689418], 
                        [88.3145226464104, 22.5378065058038], 
                        [88.3143238481328, 22.5378091414319], 
                        [88.3143238481328, 22.5378747377413], 
                        [88.3145220624478, 22.5378717689418]  
                    ]
                ]
            }, 
            "properties": {
    "floor": "ground",
                "fill-opacity": 0, 
                "stroke-opacity": 1, 
                "stroke": "#ff0000", 
                "ID": "22G-B4-H2", 
                "REMARKS": "POLYGON-45"
            }, 
            "id": "p45.5"
        }, 
        {
            "type": "Feature", 
            "geometry": {
                "type": "Polygon", 
                "coordinates": [
                    [
                        [88.3145226464104, 22.5378065058038], 
                        [88.3145231444196, 22.5377508487483], 
                        [88.3143238481328, 22.5377529054575], 
                        [88.3143238481328, 22.5378091414319], 
                        [88.3145226464104, 22.5378065058038]  
                    ]
                ]
            }, 
            "properties": {
    "floor": "ground",
                "fill-opacity": 0, 
                "stroke-opacity": 1, 
                "stroke": "#ff0000", 
                "ID": "22G-B5-H2", 
                "REMARKS": "POLYGON-45"
            }, 
            "id": "p45.6"
        }, 
        {
            "type": "Feature", 
            "geometry": {
                "type": "Polygon", 
                "coordinates": [
                    [
                        [88.3145231444196, 22.5377508487483], 
                        [88.3145236890215, 22.5376899845341], 
                        [88.3143239110975, 22.5376918390105], 
                        [88.3143238481328, 22.5377001553267], 
                        [88.3143238481328, 22.5377529054575], 
                        [88.3145231444196, 22.5377508487483]  
                    ]
                ]
            }, 
            "properties": {
    "floor": "ground",
                "fill-opacity": 0, 
                "stroke-opacity": 1, 
                "stroke": "#ff0000", 
                "ID": "22G-B6-H2", 
                "REMARKS": "POLYGON-45"
            }, 
            "id": "p45.7"
        }, 
        {
            "type": "Feature", 
            "geometry": {
                "type": "Polygon", 
                "coordinates": [
                    [
                        [88.3145241880882, 22.5376342092881], 
                        [88.3145236890215, 22.5376899845341], 
                        [88.3147199259665, 22.5376881629275], 
                        [88.3147194898074, 22.5376307569219], 
                        [88.3145241880882, 22.5376342092881]  
                    ]
                ]
            }, 
            "properties": {
    "floor": "ground",
                "fill-opacity": 0, 
                "stroke-opacity": 1, 
                "stroke": "#ff0000", 
                "ID": "22G-B7-H1", 
                "REMARKS": "POLYGON-45"
            }, 
            "id": "p45.8"
        }, 
        {
            "type": "Feature", 
            "geometry": {
                "type": "Polygon", 
                "coordinates": [
                    [
                        [88.3145241880882, 22.5376342092881], 
                        [88.3145246782564, 22.5375794285298], 
                        [88.314324762182 , 22.5375794285298], 
                        [88.3143243206751, 22.5376377423624], 
                        [88.3145241880882, 22.5376342092881]  
                    ]
                ]
            }, 
            "properties": {
    "floor": "ground",
                "fill-opacity": 0, 
                "stroke-opacity": 1, 
                "stroke": "#ff0000", 
                "ID": "22G-B8-H2", 
                "REMARKS": "POLYGON-45"
            }, 
            "id": "p45.9"
        }, 
        {
            "type": "Feature", 
            "geometry": {
                "type": "Polygon", 
                "coordinates": [
                    [
                        [88.3145246782564, 22.5375794285298], 
                        [88.3145252557095, 22.5375148928933], 
                        [88.3143252757681, 22.53751159455  ], 
                        [88.314324762182 , 22.5375794285298], 
                        [88.3145246782564, 22.5375794285298]  
                    ]
                ]
            }, 
            "properties": {
    "floor": "ground",
                "fill-opacity": 0, 
                "stroke-opacity": 1, 
                "stroke": "#ff0000", 
                "ID": "22G-B9-H2", 
                "REMARKS": "POLYGON-45"
            }, 
            "id": "p45.10"
        }, 
        {
            "type": "Feature", 
            "geometry": {
                "type": "Polygon", 
                "coordinates": [
                    [
                        [88.3145252557095, 22.5375148928933], 
                        [88.3145258009787, 22.5374539541012], 
                        [88.3143257379258, 22.5374505531674], 
                        [88.3143252757681, 22.53751159455  ], 
                        [88.3145252557095, 22.5375148928933]  
                    ]
                ]
            }, 
            "properties": {
    "floor": "ground",
                "fill-opacity": 0, 
                "stroke-opacity": 1, 
                "stroke": "#ff0000", 
                "ID": "22G-B10-H2", 
                "REMARKS": "POLYGON-45"
            }, 
            "id": "p45.11"
        }, 
        {
            "type": "Feature", 
            "geometry": {
                "type": "Polygon", 
                "coordinates": [
                    [
                        [88.3145262112628, 22.5374081011171], 
                        [88.3145258009787, 22.5374539541012], 
                        [88.3147181713417, 22.5374572242647], 
                        [88.3147177822046, 22.5374060071459], 
                        [88.3145262112628, 22.5374081011171]  
                    ]
                ]
            }, 
            "properties": {
    "floor": "ground",
                "fill-opacity": 0, 
                "stroke-opacity": 1, 
                "stroke": "#ff0000", 
                "ID": "22G-B11-H1", 
                "REMARKS": "POLYGON-45"
            }, 
            "id": "p45.12"
        }, 
        {
            "type": "Feature", 
            "geometry": {
                "type": "Polygon", 
                "coordinates": [
                    [
                        [88.3145262112628, 22.5374081011171], 
                        [88.3145266623202, 22.5373576913543], 
                        [88.3143264666123, 22.5373543089142], 
                        [88.3143260427743, 22.5374102890641], 
                        [88.3145262112628, 22.5374081011171]  
                    ]
                ]
            }, 
            "properties": {
    "floor": "ground",
                "fill-opacity": 0, 
                "stroke-opacity": 1, 
                "stroke": "#ff0000", 
                "ID": "22G-B12-H2", 
                "REMARKS": "POLYGON-45"
            }, 
            "id": "p45.13"
        }, 
        {
            "type": "Feature", 
            "geometry": {
                "type": "Polygon", 
                "coordinates": [
                    [
                        [88.3145271139493, 22.5373072176927], 
                        [88.3145266623202, 22.5373576913543], 
                        [88.3147174396011, 22.5373609146638], 
                        [88.3147170316225, 22.5373072176927], 
                        [88.3145271139493, 22.5373072176927]  
                    ]
                ]
            }, 
            "properties": {
    "floor": "ground",
                "fill-opacity": 0, 
                "stroke-opacity": 1, 
                "stroke": "#ff0000", 
                "ID": "22G-B13-H1", 
                "REMARKS": "POLYGON-45"
            }, 
            "id": "p45.14"
        }, 
        {
            "type": "Feature", 
            "geometry": {
                "type": "Polygon", 
                "coordinates": [
                    [
                        [88.3145271139493, 22.5373072176927], 
                        [88.3145275548942, 22.5372579380873], 
                        [88.3143271962571, 22.5372579380873], 
                        [88.3143268231504, 22.5373072176927], 
                        [88.3145271139493, 22.5373072176927]  
                    ]
                ]
            }, 
            "properties": {
    "floor": "ground",
                "fill-opacity": 0, 
                "stroke-opacity": 1, 
                "stroke": "#ff0000", 
                "ID": "22G-B14-H2", 
                "REMARKS": "POLYGON-45"
            }, 
            "id": "p45.15"
        }, 
        {
            "type": "Feature", 
            "geometry": {
                "type": "Polygon", 
                "coordinates": [
                    [
                        [88.3145275548942, 22.5372579380873], 
                        [88.3145279851651, 22.5372098514002], 
                        [88.3143275525017, 22.5372108856225], 
                        [88.3143271962571, 22.5372579380873], 
                        [88.3145275548942, 22.5372579380873]  
                    ]
                ]
            }, 
            "properties": {
    "floor": "ground",
                "fill-opacity": 0, 
                "stroke-opacity": 1, 
                "stroke": "#ff0000", 
                "ID": "22G-B15-H2", 
                "REMARKS": "POLYGON-45"
            }, 
            "id": "p45.16"
        }, 
        {
            "type": "Feature", 
            "geometry": {
                "type": "Polygon", 
                "coordinates": [
                    [
                        [88.3145284238732, 22.5371608217793], 
                        [88.3145279851651, 22.5372098514002], 
                        [88.3147162844712, 22.5372088797855], 
                        [88.3147158658032, 22.5371537759047], 
                        [88.3145284238732, 22.5371608217793]  
                    ]
                ]
            }, 
            "properties": {
    "floor": "ground",
                "fill-opacity": 0, 
                "stroke-opacity": 1, 
                "stroke": "#ff0000", 
                "ID": "22G-B16-H1", 
                "REMARKS": "POLYGON-45"
            }, 
            "id": "p45.17"
        }, 
        {
            "type": "Feature", 
            "geometry": {
                "type": "Polygon", 
                "coordinates": [
                    [
                        [88.3145284238732, 22.5371608217793], 
                        [88.3145289407221, 22.5371030592127], 
                        [88.3143283688793, 22.5371030592127], 
                        [88.3143278744699, 22.537168360359 ], 
                        [88.3145284238732, 22.5371608217793]  
                    ]
                ]
            }, 
            "properties": {
    "floor": "ground",
                "fill-opacity": 0, 
                "stroke-opacity": 1, 
                "stroke": "#ff0000", 
                "ID": "22G-B17-H2", 
                "REMARKS": "POLYGON-45"
            }, 
            "id": "p45.18"
        }, 
        {
            "type": "Feature", 
            "geometry": {
                "type": "Polygon", 
                "coordinates": [
                    [
                        [88.3145289407221, 22.5371030592127], 
                        [88.3145294026651, 22.5370514328826], 
                        [88.3143287597536, 22.5370514328826], 
                        [88.3143283688793, 22.5371030592127], 
                        [88.3145289407221, 22.5371030592127]  
                    ]
                ]
            }, 
            "properties": {
    "floor": "ground",
                "fill-opacity": 0, 
                "stroke-opacity": 1, 
                "stroke": "#ff0000", 
                "ID": "22G-B18-H2", 
                "REMARKS": "POLYGON-45"
            }, 
            "id": "p45.19"
        }, 
        {
            "type": "Feature", 
            "geometry": {
                "type": "Polygon", 
                "coordinates": [
                    [
                        [88.3145294026651, 22.5370514328826], 
                        [88.3145298656011, 22.5369996955676], 
                        [88.3143291670626, 22.5369976358827], 
                        [88.3143287597536, 22.5370514328826], 
                        [88.3145294026651, 22.5370514328826]  
                    ]
                ]
            }, 
            "properties": {
    "floor": "ground",
                "fill-opacity": 0, 
                "stroke-opacity": 1, 
                "stroke": "#ff0000", 
                "ID": "22G-B19-H2", 
                "REMARKS": "POLYGON-45"
            }, 
            "id": "p45.20"
        }, 
        {
            "type": "Feature", 
            "geometry": {
                "type": "Polygon", 
                "coordinates": [
                    [
                        [88.3145210247261, 22.5379877437791], 
                        [88.3145205124011, 22.5380450007577], 
                        [88.314722617449 , 22.5380424081283], 
                        [88.3147222021205, 22.5379877437791], 
                        [88.3145210247261, 22.5379877437791]  
                    ]
                ]
            }, 
            "properties": {
    "floor": "ground",
                "fill-opacity": 0, 
                "stroke-opacity": 1, 
                "stroke": "#ff0000", 
                "ID": "22G-B1-H1", 
                "REMARKS": "POLYGON-45"
            }, 
            "id": "p45.21"
        }, 
        {
            "type": "Feature", 
            "geometry": {
                "type": "Polygon", 
                "coordinates": [
                    [
                        [88.3145210247261, 22.5379877437791], 
                        [88.314521566374 , 22.5379272096996], 
                        [88.3143238481328, 22.5379313366535], 
                        [88.3143238481328, 22.5379877437791], 
                        [88.3145210247261, 22.5379877437791]  
                    ]
                ]
            }, 
            "properties": {
    "floor": "ground",
                "fill-opacity": 0, 
                "stroke-opacity": 1, 
                "stroke": "#ff0000", 
                "ID": "22G-B2-H2", 
                "REMARKS": "POLYGON-45"
            }, 
            "id": "p45.22"
        }, 
        {
            "type": "Feature", 
            "geometry": {
                "type": "Polygon", 
                "coordinates": [
                    [
                        [88.3145220624478, 22.5378717689418], 
                        [88.314521566374 , 22.5379272096996], 
                        [88.3147217104545, 22.5379230321113], 
                        [88.3147212982948, 22.537868784842 ], 
                        [88.3145220624478, 22.5378717689418]  
                    ]
                ]
            }, 
            "properties": {
    "floor": "ground",
                "fill-opacity": 0, 
                "stroke-opacity": 1, 
                "stroke": "#ff0000", 
                "ID": "22G-B3-H1", 
                "REMARKS": "POLYGON-45"
            }, 
            "id": "p45.23"
        }, 
        {
            "type": "Feature", 
            "geometry": {
                "type": "Polygon", 
                "coordinates": [
                    [
                        [88.3145226464104, 22.5378065058038], 
                        [88.3145220624478, 22.5378717689418], 
                        [88.3147212982948, 22.537868784842 ], 
                        [88.3147208051509, 22.5378038786546], 
                        [88.3145226464104, 22.5378065058038]  
                    ]
                ]
            }, 
            "properties": {
    "floor": "ground",
                "fill-opacity": 0, 
                "stroke-opacity": 1, 
                "stroke": "#ff0000", 
                "ID": "22G-B4-H1", 
                "REMARKS": "POLYGON-45"
            }, 
            "id": "p45.24"
        }, 
        {
            "type": "Feature", 
            "geometry": {
                "type": "Polygon", 
                "coordinates": [
                    [
                        [88.3145231444196, 22.5377508487483], 
                        [88.3145226464104, 22.5378065058038], 
                        [88.3147208051509, 22.5378038786546], 
                        [88.3147203867751, 22.5377488132355], 
                        [88.3145231444196, 22.5377508487483]  
                    ]
                ]
            }, 
            "properties": {
    "floor": "ground",
                "fill-opacity": 0, 
                "stroke-opacity": 1, 
                "stroke": "#ff0000", 
                "ID": "22G-B5-H1", 
                "REMARKS": "POLYGON-45"
            }, 
            "id": "p45.25"
        }, 
        {
            "type": "Feature", 
            "geometry": {
                "type": "Polygon", 
                "coordinates": [
                    [
                        [88.3145236890215, 22.5376899845341], 
                        [88.3145231444196, 22.5377508487483], 
                        [88.3147203867751, 22.5377488132355], 
                        [88.3147199259665, 22.5376881629275], 
                        [88.3145236890215, 22.5376899845341]  
                    ]
                ]
            }, 
            "properties": {
    "floor": "ground",
                "fill-opacity": 0, 
                "stroke-opacity": 1, 
                "stroke": "#ff0000", 
                "ID": "22G-B6-H1", 
                "REMARKS": "POLYGON-45"
            }, 
            "id": "p45.26"
        }, 
        {
            "type": "Feature", 
            "geometry": {
                "type": "Polygon", 
                "coordinates": [
                    [
                        [88.3145236890215, 22.5376899845341], 
                        [88.3145241880882, 22.5376342092881], 
                        [88.3143243206751, 22.5376377423624], 
                        [88.3143239110975, 22.5376918390105], 
                        [88.3145236890215, 22.5376899845341]  
                    ]
                ]
            }, 
            "properties": {
    "floor": "ground",
                "fill-opacity": 0, 
                "stroke-opacity": 1, 
                "stroke": "#ff0000", 
                "ID": "22G-B7-H2", 
                "REMARKS": "POLYGON-45"
            }, 
            "id": "p45.27"
        }, 
        {
            "type": "Feature", 
            "geometry": {
                "type": "Polygon", 
                "coordinates": [
                    [
                        [88.3145246782564, 22.5375794285298], 
                        [88.3145241880882, 22.5376342092881], 
                        [88.3147194898074, 22.5376307569219], 
                        [88.3147190998248, 22.5375794285298], 
                        [88.3145246782564, 22.5375794285298]  
                    ]
                ]
            }, 
            "properties": {
    "floor": "ground",
                "fill-opacity": 0, 
                "stroke-opacity": 1, 
                "stroke": "#ff0000", 
                "ID": "22G-B8-H1", 
                "REMARKS": "POLYGON-45"
            }, 
            "id": "p45.28"
        }, 
        {
            "type": "Feature", 
            "geometry": {
                "type": "Polygon", 
                "coordinates": [
                    [
                        [88.3145252557095, 22.5375148928933], 
                        [88.3145246782564, 22.5375794285298], 
                        [88.3147190998248, 22.5375794285298], 
                        [88.314718633729 , 22.5375180823487], 
                        [88.3145252557095, 22.5375148928933]  
                    ]
                ]
            }, 
            "properties": {
    "floor": "ground",
                "fill-opacity": 0, 
                "stroke-opacity": 1, 
                "stroke": "#ff0000", 
                "ID": "22G-B9-H1", 
                "REMARKS": "POLYGON-45"
            }, 
            "id": "p45.29"
        }, 
        {
            "type": "Feature", 
            "geometry": {
                "type": "Polygon", 
                "coordinates": [
                    [
                        [88.3145258009787, 22.5374539541012], 
                        [88.3145252557095, 22.5375148928933], 
                        [88.314718633729 , 22.5375180823487], 
                        [88.3147181713417, 22.5374572242647], 
                        [88.3145258009787, 22.5374539541012]  
                    ]
                ]
            }, 
            "properties": {
    "floor": "ground",
                "fill-opacity": 0, 
                "stroke-opacity": 1, 
                "stroke": "#ff0000", 
                "ID": "22G-B10-H1", 
                "REMARKS": "POLYGON-45"
            }, 
            "id": "p45.30"
        }, 
        {
            "type": "Feature", 
            "geometry": {
                "type": "Polygon", 
                "coordinates": [
                    [
                        [88.3145258009787, 22.5374539541012], 
                        [88.3145262112628, 22.5374081011171], 
                        [88.3143260427743, 22.5374102890641], 
                        [88.3143257379258, 22.5374505531674], 
                        [88.3145258009787, 22.5374539541012]  
                    ]
                ]
            }, 
            "properties": {
    "floor": "ground",
                "fill-opacity": 0, 
                "stroke-opacity": 1, 
                "stroke": "#ff0000", 
                "ID": "22G-B11-H2", 
                "REMARKS": "POLYGON-45"
            }, 
            "id": "p45.31"
        }, 
        {
            "type": "Feature", 
            "geometry": {
                "type": "Polygon", 
                "coordinates": [
                    [
                        [88.3145266623202, 22.5373576913543], 
                        [88.3145262112628, 22.5374081011171], 
                        [88.3147177822046, 22.5374060071459], 
                        [88.3147174396011, 22.5373609146638], 
                        [88.3145266623202, 22.5373576913543]  
                    ]
                ]
            }, 
            "properties": {
    "floor": "ground",
                "fill-opacity": 0, 
                "stroke-opacity": 1, 
                "stroke": "#ff0000", 
                "ID": "22G-B12-H1", 
                "REMARKS": "POLYGON-45"
            }, 
            "id": "p45.32"
        }, 
        {
            "type": "Feature", 
            "geometry": {
                "type": "Polygon", 
                "coordinates": [
                    [
                        [88.3145266623202, 22.5373576913543], 
                        [88.3145271139493, 22.5373072176927], 
                        [88.3143268231504, 22.5373072176927], 
                        [88.3143264666123, 22.5373543089142], 
                        [88.3145266623202, 22.5373576913543]  
                    ]
                ]
            }, 
            "properties": {
    "floor": "ground",
                "fill-opacity": 0, 
                "stroke-opacity": 1, 
                "stroke": "#ff0000", 
                "ID": "22G-B13-H2", 
                "REMARKS": "POLYGON-45"
            }, 
            "id": "p45.33"
        }, 
        {
            "type": "Feature", 
            "geometry": {
                "type": "Polygon", 
                "coordinates": [
                    [
                        [88.3145275548942, 22.5372579380873], 
                        [88.3145271139493, 22.5373072176927], 
                        [88.3147170316225, 22.5373072176927], 
                        [88.3147166572061, 22.5372579380873], 
                        [88.3145275548942, 22.5372579380873]  
                    ]
                ]
            }, 
            "properties": {
    "floor": "ground",
                "fill-opacity": 0, 
                "stroke-opacity": 1, 
                "stroke": "#ff0000", 
                "ID": "22G-B14-H1", 
                "REMARKS": "POLYGON-45"
            }, 
            "id": "p45.34"
        }, 
        {
            "type": "Feature", 
            "geometry": {
                "type": "Polygon", 
                "coordinates": [
                    [
                        [88.3145279851651, 22.5372098514002], 
                        [88.3145275548942, 22.5372579380873], 
                        [88.3147166572061, 22.5372579380873], 
                        [88.3147162844712, 22.5372088797855], 
                        [88.3145279851651, 22.5372098514002]  
                    ]
                ]
            }, 
            "properties": {
    "floor": "ground",
                "fill-opacity": 0, 
                "stroke-opacity": 1, 
                "stroke": "#ff0000", 
                "ID": "22G-B15-H1", 
                "REMARKS": "POLYGON-45"
            }, 
            "id": "p45.35"
        }, 
        {
            "type": "Feature", 
            "geometry": {
                "type": "Polygon", 
                "coordinates": [
                    [
                        [88.3145279851651, 22.5372098514002], 
                        [88.3145284238732, 22.5371608217793], 
                        [88.3143278744699, 22.537168360359 ], 
                        [88.3143275525017, 22.5372108856225], 
                        [88.3145279851651, 22.5372098514002]  
                    ]
                ]
            }, 
            "properties": {
    "floor": "ground",
                "fill-opacity": 0, 
                "stroke-opacity": 1, 
                "stroke": "#ff0000", 
                "ID": "22G-B16-H2", 
                "REMARKS": "POLYGON-45"
            }, 
            "id": "p45.36"
        }, 
        {
            "type": "Feature", 
            "geometry": {
                "type": "Polygon", 
                "coordinates": [
                    [
                        [88.3145289407221, 22.5371030592127], 
                        [88.3145284238732, 22.5371608217793], 
                        [88.3147158658032, 22.5371537759047], 
                        [88.3147154804681, 22.5371030592127], 
                        [88.3145289407221, 22.5371030592127]  
                    ]
                ]
            }, 
            "properties": {
    "floor": "ground",
                "fill-opacity": 0, 
                "stroke-opacity": 1, 
                "stroke": "#ff0000", 
                "ID": "22G-B17-H1", 
                "REMARKS": "POLYGON-45"
            }, 
            "id": "p45.37"
        }, 
        {
            "type": "Feature", 
            "geometry": {
                "type": "Polygon", 
                "coordinates": [
                    [
                        [88.3145294026651, 22.5370514328826], 
                        [88.3145289407221, 22.5371030592127], 
                        [88.3147154804681, 22.5371030592127], 
                        [88.3147150882218, 22.5370514328826], 
                        [88.3145294026651, 22.5370514328826]  
                    ]
                ]
            }, 
            "properties": {
    "floor": "ground",
                "fill-opacity": 0, 
                "stroke-opacity": 1, 
                "stroke": "#ff0000", 
                "ID": "22G-B18-H1", 
                "REMARKS": "POLYGON-45"
            }, 
            "id": "p45.38"
        }, 
        {
            "type": "Feature", 
            "geometry": {
                "type": "Polygon", 
                "coordinates": [
                    [
                        [88.3145298656011, 22.5369996955676], 
                        [88.3145294026651, 22.5370514328826], 
                        [88.3147150882218, 22.5370514328826], 
                        [88.3147147095451, 22.5370015925434], 
                        [88.3145298656011, 22.5369996955676]  
                    ]
                ]
            }, 
            "properties": {
    "floor": "ground",
                "fill-opacity": 0, 
                "stroke-opacity": 1, 
                "stroke": "#ff0000", 
                "ID": "22G-B19-H1", 
                "REMARKS": "POLYGON-45"
            }, 
            "id": "p45.39"
        }, 
        {
            "type": "Feature", 
            "geometry": {
                "type": "Polygon", 
                "coordinates": [
                    [
                        [88.3145303561573, 22.5369448714532], 
                        [88.3145298656011, 22.5369996955676], 
                        [88.3147147095451, 22.5370015925434], 
                        [88.3147142601533, 22.5369424448857], 
                        [88.3145303561573, 22.5369448714532]  
                    ]
                ]
            }, 
            "properties": {
    "floor": "ground",
                "fill-opacity": 0, 
                "stroke-opacity": 1, 
                "stroke": "#ff0000", 
                "ID": "22G-B20-H1", 
                "REMARKS": "POLYGON-45"
            }, 
            "id": "p45.40"
        }
    ]
}
