{
    "type": "FeatureCollection", 
    "features": [
        {
            "type": "Feature", 
            "geometry": {
                "type": "Polygon", 
                "coordinates": [
                    [
                        [88.3137570719398, 22.5413174974034], 
                        [88.3137803327287, 22.5413582033622], 
                        [88.3139542107795, 22.5412683054613], 
                        [88.3139293886461, 22.5412277191917], 
                        [88.3137570719398, 22.5413174974034]  
                    ]
                ]
            }, 
            "properties": {
    "floor": "ground",
                "fill-opacity": 0, 
                "stroke-opacity": 1, 
                "stroke": "#ff0000", 
                "pkuid": 1, 
                "ID": "8-B15-H1", 
                "REMARKS": "POLYGON-64"
            }, 
            "id": "poly64f.1"
        }, 
        {
            "type": "Feature", 
            "geometry": {
                "type": "Polygon", 
                "coordinates": [
                    [
                        [88.3142454826309, 22.5419736509663], 
                        [88.3142804477668, 22.5420295104685], 
                        [88.3143880880056, 22.5419777311087], 
                        [88.3143529160005, 22.541920221931 ], 
                        [88.3142454826309, 22.5419736509663]  
                    ]
                ]
            }, 
            "properties": {
    "floor": "ground",
                "fill-opacity": 0, 
                "stroke-opacity": 1, 
                "stroke": "#ff0000", 
                "pkuid": 2, 
                "ID": "8-B1-H1", 
                "REMARKS": "POLYGON-64"
            }, 
            "id": "poly64f.2"
        }, 
        {
            "type": "Feature", 
            "geometry": {
                "type": "Polygon", 
                "coordinates": [
                    [
                        [88.3142153281029, 22.5419254767813], 
                        [88.3142454826309, 22.5419736509663], 
                        [88.3143529160005, 22.541920221931 ], 
                        [88.3143221273259, 22.5418698798662], 
                        [88.3142153281029, 22.5419254767813]  
                    ]
                ]
            }, 
            "properties": {
    "floor": "ground",
                "fill-opacity": 0, 
                "stroke-opacity": 1, 
                "stroke": "#ff0000", 
                "pkuid": 3, 
                "ID": "8-B2-H1", 
                "REMARKS": "POLYGON-64"
            }, 
            "id": "poly64f.3"
        }, 
        {
            "type": "Feature", 
            "geometry": {
                "type": "Polygon", 
                "coordinates": [
                    [
                        [88.3141856520105, 22.5418780669341], 
                        [88.3142153281029, 22.5419254767813], 
                        [88.3143221273259, 22.5418698798662], 
                        [88.314292177242 , 22.5418209089675], 
                        [88.3141856520105, 22.5418780669341]  
                    ]
                ]
            }, 
            "properties": {
    "floor": "ground",
                "fill-opacity": 0, 
                "stroke-opacity": 1, 
                "stroke": "#ff0000", 
                "pkuid": 4, 
                "ID": "8-B3-H1", 
                "REMARKS": "POLYGON-64"
            }, 
            "id": "poly64f.4"
        }, 
        {
            "type": "Feature", 
            "geometry": {
                "type": "Polygon", 
                "coordinates": [
                    [
                        [88.3140345873001, 22.5418031442528], 
                        [88.3140662201062, 22.5418585010899], 
                        [88.3142559642095, 22.5417616976228], 
                        [88.3142214876612, 22.5417053255753], 
                        [88.3140345873001, 22.5418031442528]  
                    ]
                ]
            }, 
            "properties": {
    "floor": "ground",
                "fill-opacity": 0, 
                "stroke-opacity": 1, 
                "stroke": "#ff0000", 
                "pkuid": 5, 
                "ID": "8-B5-H1", 
                "REMARKS": "POLYGON-64"
            }, 
            "id": "poly64f.5"
        }, 
        {
            "type": "Feature", 
            "geometry": {
                "type": "Polygon", 
                "coordinates": [
                    [
                        [88.314005247307 , 22.5417517997968], 
                        [88.3140345873001, 22.5418031442528], 
                        [88.3142214876612, 22.5417053255753], 
                        [88.3141907780244, 22.541655112744 ], 
                        [88.314005247307 , 22.5417517997968]  
                    ]
                ]
            }, 
            "properties": {
    "floor": "ground","fill-opacity": 0, "stroke-opacity": 1, "stroke": "#ff0000", "pkuid": 6, "ID": "8-B6-H1"}, 
            "id": "poly64f.6"
        }, 
        {
            "type": "Feature", 
            "geometry": {
                "type": "Polygon", 
                "coordinates": [
                    [
                        [88.3139729784175, 22.5416953298252], 
                        [88.314005247307 , 22.5417517997968], 
                        [88.3141907780244, 22.541655112744 ], 
                        [88.31415752735  , 22.5416007451031], 
                        [88.3139729784175, 22.5416953298252]  
                    ]
                ]
            }, 
            "properties": {
    "floor": "ground",
                "fill-opacity": 0, 
                "stroke-opacity": 1, 
                "stroke": "#ff0000", 
                "pkuid": 7, 
                "ID": "8-B7-H1", 
                "REMARKS": "POLYGON-64"
            }, 
            "id": "poly64f.7"
        }, 
        {
            "type": "Feature", 
            "geometry": {
                "type": "Polygon", 
                "coordinates": [
                    [
                        [88.3139437542911, 22.5416441881338], 
                        [88.3139729784175, 22.5416953298252], 
                        [88.31415752735  , 22.5416007451031], 
                        [88.3141263402742, 22.5415497516189], 
                        [88.3139437542911, 22.5416441881338]  
                    ]
                ]
            }, 
            "properties": {
    "floor": "ground",
                "fill-opacity": 0, 
                "stroke-opacity": 1, 
                "stroke": "#ff0000", 
                "pkuid": 8, 
                "ID": "8-B8-H1", 
                "REMARKS": "POLYGON-64"
            }, 
            "id": "poly64f.8"
        }, 
        {
            "type": "Feature", 
            "geometry": {
                "type": "Polygon", 
                "coordinates": [
                    [
                        [88.3139087420309, 22.5415829173132], 
                        [88.3139437542911, 22.5416441881338], 
                        [88.3141263402742, 22.5415497516189], 
                        [88.3140905160024, 22.5414911759305], 
                        [88.3139087420309, 22.5415829173132]  
                    ]
                ]
            }, 
            "properties": {
    "floor": "ground",
                "fill-opacity": 0, 
                "stroke-opacity": 1, 
                "stroke": "#ff0000", 
                "pkuid": 9, 
                "ID": "8-B9-H1", 
                "REMARKS": "POLYGON-64"
            }, 
            "id": "poly64f.9"
        }, 
        {
            "type": "Feature", 
            "geometry": {
                "type": "Polygon", 
                "coordinates": [
                    [
                        [88.3138852414142, 22.54154179166  ], 
                        [88.3139087420309, 22.5415829173132], 
                        [88.3140905160024, 22.5414911759305], 
                        [88.314064511403 , 22.5414486562299], 
                        [88.3138852414142, 22.54154179166  ]  
                    ]
                ]
            }, 
            "properties": {
    "floor": "ground",
                "fill-opacity": 0, 
                "stroke-opacity": 1, 
                "stroke": "#ff0000", 
                "pkuid": 10, 
                "ID": "8-B10-H1", 
                "REMARKS": "POLYGON-64"
            }, 
            "id": "poly64f.10"
        }, 
        {
            "type": "Feature", 
            "geometry": {
                "type": "Polygon", 
                "coordinates": [
                    [
                        [88.3138852414142, 22.54154179166  ], 
                        [88.3138580190317, 22.5414941529842], 
                        [88.3136872504118, 22.5415773471496], 
                        [88.313717461115 , 22.5416289578969], 
                        [88.3138852414142, 22.54154179166  ]  
                    ]
                ]
            }, 
            "properties": {
    "floor": "ground",
                "fill-opacity": 0, 
                "stroke-opacity": 1, 
                "stroke": "#ff0000", 
                "pkuid": 11, 
                "ID": "8-B11-H2", 
                "REMARKS": "POLYGON-64"
            }, 
            "id": "poly64f.11"
        }, 
        {
            "type": "Feature", 
            "geometry": {
                "type": "Polygon", 
                "coordinates": [
                    [
                        [88.3138310779331, 22.5414470065499], 
                        [88.3138580190317, 22.5414941529842], 
                        [88.314038547969 , 22.5414062038382], 
                        [88.3140103080879, 22.5413600292646], 
                        [88.3138310779331, 22.5414470065499]  
                    ]
                ]
            }, 
            "properties": {
    "floor": "ground",
                "fill-opacity": 0, 
                "stroke-opacity": 1, 
                "stroke": "#ff0000", 
                "pkuid": 12, 
                "ID": "8-B12-H1", 
                "REMARKS": "POLYGON-64"
            }, 
            "id": "poly64f.12"
        }, 
        {
            "type": "Feature", 
            "geometry": {
                "type": "Polygon", 
                "coordinates": [
                    [
                        [88.313803296678 , 22.5413983898573], 
                        [88.3138310779331, 22.5414470065499], 
                        [88.3140103080879, 22.5413600292646], 
                        [88.3139764372857, 22.5413046476627], 
                        [88.313803296678 , 22.5413983898573]  
                    ]
                ]
            }, 
            "properties": {
    "floor": "ground",
                "fill-opacity": 0, 
                "stroke-opacity": 1, 
                "stroke": "#ff0000", 
                "pkuid": 13, 
                "ID": "8-B13-H1", 
                "REMARKS": "POLYGON-64"
            }, 
            "id": "poly64f.13"
        }, 
        {
            "type": "Feature", 
            "geometry": {
                "type": "Polygon", 
                "coordinates": [
                    [
                        [88.313803296678 , 22.5413983898573], 
                        [88.3137803327287, 22.5413582033622], 
                        [88.3136104011055, 22.5414460608931], 
                        [88.3136356333002, 22.5414891665572], 
                        [88.313803296678 , 22.5413983898573]  
                    ]
                ]
            }, 
            "properties": {
    "floor": "ground",
                "fill-opacity": 0, 
                "stroke-opacity": 1, 
                "stroke": "#ff0000", 
                "pkuid": 14, 
                "ID": "8-B14-H2", 
                "REMARKS": "POLYGON-64"
            }, 
            "id": "poly64f.14"
        }, 
        {
            "type": "Feature", 
            "geometry": {
                "type": "Polygon", 
                "coordinates": [
                    [
                        [88.3141856520105, 22.5418780669341], 
                        [88.3141474609237, 22.5418170537265], 
                        [88.314046094843 , 22.5418687685776], 
                        [88.3140369306012, 22.5418500266647], 
                        [88.3139540080125, 22.5418916991459], 
                        [88.3139845212202, 22.5419496287658], 
                        [88.3140661479944, 22.5419097795442], 
                        [88.3140764358092, 22.5419047571552], 
                        [88.3140905354398, 22.5419291033852], 
                        [88.3141856520105, 22.5418780669341]  
                    ]
                ]
            }, 
            "properties": {
    "floor": "ground",
                "fill-opacity": 0, 
                "stroke-opacity": 1, 
                "stroke": "#ff0000", 
                "pkuid": 15, 
                "ID": "8-B4-H2", 
                "REMARKS": "POLYGON-64"
            }, 
            "id": "poly64f.15"
        }, 
        {
            "type": "Feature", 
            "geometry": {
                "type": "Polygon", 
                "coordinates": [
                    [
                        [88.3139845212202, 22.5419496287658], 
                        [88.3139540080125, 22.5418916991459], 
                        [88.3138900677532, 22.5419238321183], 
                        [88.3139228044448, 22.5419797581624], 
                        [88.3139845212202, 22.5419496287658]  
                    ]
                ]
            }, 
            "properties": {
    "floor": "ground",
                "fill-opacity": 0, 
                "stroke-opacity": 1, 
                "stroke": "#ff0000", 
                "pkuid": 16, 
                "ID": "METER BOX", 
                "REMARKS": "POLYGON-64"
            }, 
            "id": "poly64f.16"
        }, 
        {
            "type": "Feature", 
            "geometry": {
                "type": "Polygon", 
                "coordinates": [
                    [
                        [88.3142804477668, 22.5420295104685], 
                        [88.3142454826309, 22.5419736509663], 
                        [88.3141452132884, 22.5420235171695], 
                        [88.314177393563 , 22.5420790837579], 
                        [88.3142804477668, 22.5420295104685]  
                    ]
                ]
            }, 
            "properties": {
    "floor": "ground",
                "fill-opacity": 0, 
                "stroke-opacity": 1, 
                "stroke": "#ff0000", 
                "pkuid": 17, 
                "ID": "8-B1-H2", 
                "REMARKS": "POLYGON-64"
            }, 
            "id": "poly64f.17"
        }, 
        {
            "type": "Feature", 
            "geometry": {
                "type": "Polygon", 
                "coordinates": [
                    [
                        [88.3142454826309, 22.5419736509663], 
                        [88.3142153281029, 22.5419254767813], 
                        [88.3141178291551, 22.5419762322136], 
                        [88.3141452132884, 22.5420235171695], 
                        [88.3142454826309, 22.5419736509663]  
                    ]
                ]
            }, 
            "properties": {
    "floor": "ground",
                "fill-opacity": 0, 
                "stroke-opacity": 1, 
                "stroke": "#ff0000", 
                "pkuid": 18, 
                "ID": "8-B2-H2", 
                "REMARKS": "POLYGON-64"
            }, 
            "id": "poly64f.18"
        }, 
        {
            "type": "Feature", 
            "geometry": {
                "type": "Polygon", 
                "coordinates": [
                    [
                        [88.3142153281029, 22.5419254767813], 
                        [88.3141856520105, 22.5418780669341], 
                        [88.3140905354398, 22.5419291033852], 
                        [88.3141178291551, 22.5419762322136], 
                        [88.3142153281029, 22.5419254767813]  
                    ]
                ]
            }, 
            "properties": {
    "floor": "ground",
                "fill-opacity": 0, 
                "stroke-opacity": 1, 
                "stroke": "#ff0000", 
                "pkuid": 19, 
                "ID": "8-B3-H2", 
                "REMARKS": "POLYGON-64"
            }, 
            "id": "poly64f.19"
        }, 
        {
            "type": "Feature", 
            "geometry": {
                "type": "Polygon", 
                "coordinates": [
                    [
                        [88.3141474609237, 22.5418170537265], 
                        [88.3141856520105, 22.5418780669341], 
                        [88.314292177242 , 22.5418209089675], 
                        [88.3142559642095, 22.5417616976228], 
                        [88.3141474609237, 22.5418170537265]  
                    ]
                ]
            }, 
            "properties": {
    "floor": "ground",
                "fill-opacity": 0, 
                "stroke-opacity": 1, 
                "stroke": "#ff0000", 
                "pkuid": 20, 
                "ID": "8-B4-H1", 
                "REMARKS": "POLYGON-64"
            }, 
            "id": "poly64f.20"
        }, 
        {
            "type": "Feature", 
            "geometry": {
                "type": "Polygon", 
                "coordinates": [
                    [
                        [88.3137803327287, 22.5413582033622], 
                        [88.3137570719398, 22.5413174974034], 
                        [88.3135870101768, 22.5414061007737], 
                        [88.3136104011055, 22.5414460608931], 
                        [88.3137803327287, 22.5413582033622]  
                    ]
                ]
            }, 
            "properties": {
    "floor": "ground",
                "fill-opacity": 0, 
                "stroke-opacity": 1, 
                "stroke": "#ff0000", 
                "pkuid": 21, 
                "ID": "8-B15-H2", 
                "REMARKS": "POLYGON-64"
            }, 
            "id": "poly64f.21"
        }, 
        {
            "type": "Feature", 
            "geometry": {
                "type": "Polygon", 
                "coordinates": [
                    [
                        [88.3140662201062, 22.5418585010899], 
                        [88.3140345873001, 22.5418031442528], 
                        [88.3138698815674, 22.5418893468523], 
                        [88.3138900677532, 22.5419238321183], 
                        [88.3140369306012, 22.5418500266647], 
                        [88.314046094843 , 22.5418687685776], 
                        [88.3140662201062, 22.5418585010899]  
                    ]
                ]
            }, 
            "properties": {
    "floor": "ground",
                "fill-opacity": 0, 
                "stroke-opacity": 1, 
                "stroke": "#ff0000", 
                "pkuid": 22, 
                "ID": "8-B5-H2", 
                "REMARKS": "POLYGON-64"
            }, 
            "id": "poly64f.22"
        }, 
        {
            "type": "Feature", 
            "geometry": {
                "type": "Polygon", 
                "coordinates": [
                    [
                        [88.3140345873001, 22.5418031442528], 
                        [88.314005247307 , 22.5417517997968], 
                        [88.3138398286664, 22.541838005688 ], 
                        [88.3138698815674, 22.5418893468523], 
                        [88.3140345873001, 22.5418031442528]  
                    ]
                ]
            }, 
            "properties": {
    "floor": "ground",
                "fill-opacity": 0, 
                "stroke-opacity": 1, 
                "stroke": "#ff0000", 
                "pkuid": 23, 
                "ID": "8-B6-H2", 
                "REMARKS": "POLYGON-64"
            }, 
            "id": "poly64f.23"
        }, 
        {
            "type": "Feature", 
            "geometry": {
                "type": "Polygon", 
                "coordinates": [
                    [
                        [88.314005247307 , 22.5417517997968], 
                        [88.3139729784175, 22.5416953298252], 
                        [88.3138063130189, 22.5417807489072], 
                        [88.3138398286664, 22.541838005688 ], 
                        [88.314005247307 , 22.5417517997968]  
                    ]
                ]
            }, 
            "properties": {
    "floor": "ground",
                "fill-opacity": 0, 
                "stroke-opacity": 1, 
                "stroke": "#ff0000", 
                "pkuid": 24, 
                "ID": "8-B7-H2", 
                "REMARKS": "POLYGON-64"
            }, 
            "id": "poly64f.24"
        }, 
        {
            "type": "Feature", 
            "geometry": {
                "type": "Polygon", 
                "coordinates": [
                    [
                        [88.3139729784175, 22.5416953298252], 
                        [88.3139437542911, 22.5416441881338], 
                        [88.3137768941875, 22.5417304909616], 
                        [88.3138063130189, 22.5417807489072], 
                        [88.3139729784175, 22.5416953298252]  
                    ]
                ]
            }, 
            "properties": {
    "floor": "ground",
                "fill-opacity": 0, 
                "stroke-opacity": 1, 
                "stroke": "#ff0000", 
                "pkuid": 25, 
                "ID": "8-B8-H2", 
                "REMARKS": "POLYGON-64"
            }, 
            "id": "poly64f.25"
        }, 
        {
            "type": "Feature", 
            "geometry": {
                "type": "Polygon", 
                "coordinates": [
                    [
                        [88.3139437542911, 22.5416441881338], 
                        [88.3139087420309, 22.5415829173132], 
                        [88.3137402797267, 22.5416679402931], 
                        [88.3137768941875, 22.5417304909616], 
                        [88.3139437542911, 22.5416441881338]  
                    ]
                ]
            }, 
            "properties": {
    "floor": "ground",
                "fill-opacity": 0, 
                "stroke-opacity": 1, 
                "stroke": "#ff0000", 
                "pkuid": 26, 
                "ID": "8-B9-H2", 
                "REMARKS": "POLYGON-64"
            }, 
            "id": "poly64f.26"
        }, 
        {
            "type": "Feature", 
            "geometry": {
                "type": "Polygon", 
                "coordinates": [
                    [
                        [88.3139087420309, 22.5415829173132], 
                        [88.3138852414142, 22.54154179166  ], 
                        [88.313717461115 , 22.5416289578969], 
                        [88.3137402797267, 22.5416679402931], 
                        [88.3139087420309, 22.5415829173132]  
                    ]
                ]
            }, 
            "properties": {
    "floor": "ground",
                "fill-opacity": 0, 
                "stroke-opacity": 1, 
                "stroke": "#ff0000", 
                "pkuid": 27, 
                "ID": "8-B10-H2", 
                "REMARKS": "POLYGON-64"
            }, 
            "id": "poly64f.27"
        }, 
        {
            "type": "Feature", 
            "geometry": {
                "type": "Polygon", 
                "coordinates": [
                    [
                        [88.3138580190317, 22.5414941529842], 
                        [88.3138852414142, 22.54154179166  ], 
                        [88.314064511403 , 22.5414486562299], 
                        [88.314038547969 , 22.5414062038382], 
                        [88.3138580190317, 22.5414941529842]  
                    ]
                ]
            }, 
            "properties": {
    "floor": "ground",
                "fill-opacity": 0, 
                "stroke-opacity": 1, 
                "stroke": "#ff0000", 
                "pkuid": 28, 
                "ID": "8-B11-H1", 
                "REMARKS": "POLYGON-64"
            }, 
            "id": "poly64f.28"
        }, 
        {
            "type": "Feature", 
            "geometry": {
                "type": "Polygon", 
                "coordinates": [
                    [
                        [88.3138580190317, 22.5414941529842], 
                        [88.3138310779331, 22.5414470065499], 
                        [88.3136596508358, 22.5415301971468], 
                        [88.3136872504118, 22.5415773471496], 
                        [88.3138580190317, 22.5414941529842]  
                    ]
                ]
            }, 
            "properties": {
    "floor": "ground",
                "fill-opacity": 0, 
                "stroke-opacity": 1, 
                "stroke": "#ff0000", 
                "pkuid": 29, 
                "ID": "8-B12-H2", 
                "REMARKS": "POLYGON-64"
            }, 
            "id": "poly64f.29"
        }, 
        {
            "type": "Feature", 
            "geometry": {
                "type": "Polygon", 
                "coordinates": [
                    [
                        [88.3138310779331, 22.5414470065499], 
                        [88.313803296678 , 22.5413983898573], 
                        [88.3136356333002, 22.5414891665572], 
                        [88.3136596508358, 22.5415301971468], 
                        [88.3138310779331, 22.5414470065499]  
                    ]
                ]
            }, 
            "properties": {
    "floor": "ground",
                "fill-opacity": 0, 
                "stroke-opacity": 1, 
                "stroke": "#ff0000", 
                "pkuid": 30, 
                "ID": "8-B13-H2", 
                "REMARKS": "POLYGON-64"
            }, 
            "id": "poly64f.30"
        }, 
        {
            "type": "Feature", 
            "geometry": {
                "type": "Polygon", 
                "coordinates": [
                    [
                        [88.3137803327287, 22.5413582033622], 
                        [88.313803296678 , 22.5413983898573], 
                        [88.3139764372857, 22.5413046476627], 
                        [88.3139542107795, 22.5412683054613], 
                        [88.3137803327287, 22.5413582033622]  
                    ]
                ]
            }, 
            "properties": {
    "floor": "ground",
                "fill-opacity": 0, 
                "stroke-opacity": 1, 
                "stroke": "#ff0000", 
                "pkuid": 31, 
                "ID": "8-B14-H1", 
                "REMARKS": "POLYGON-64"
            }, 
            "id": "poly64f.31"
        }
    ]
}
