{"type":"FeatureCollection", "features": [
{"type":"Feature","geometry":{"type":"Polygon","coordinates":[[[88.298421982083,22.547838873522],[88.2983951044298,22.5477648789957],[88.2984826076731,22.5477232069282],[88.2984830294825,22.547724419035],[88.2985141153895,22.547809998793],[88.298421982083,22.547838873522]]]},"properties": {
    "floor": "ground","fill-opacity":0,"stroke-opacity":1,"stroke":"#ff0000","ID":"40-8","REMARKS":"POLYGON ID-40","AREA":93.935}},
{"type":"Feature","geometry":{"type":"Polygon","coordinates":[[[88.2984308718001,22.5478633470078],[88.2984530679825,22.5479244532912],[88.2984619577112,22.5479489267746],[88.2983698457498,22.5479778605251],[88.2983387783782,22.547892331645],[88.2984308718001,22.5478633470078]]]},"properties": {
    "floor": "ground","fill-opacity":0,"stroke-opacity":1,"stroke":"#ff0000","ID":"40-3","REMARKS":"POLYGON ID-40","AREA":99.97}},
{"type":"Feature","geometry":{"type":"Polygon","coordinates":[[[88.2983387783782,22.547892331645],[88.2983698457498,22.5479778605251],[88.2984619577112,22.5479489267746],[88.2984841539228,22.5480100330518],[88.2984983483282,22.5480491102855],[88.2982524739659,22.5479194942444],[88.2983387783782,22.547892331645]]]},"properties": {
    "floor": "ground","fill-opacity":0,"stroke-opacity":1,"stroke":"#ff0000","ID":"40-2","REMARKS":"POLYGON ID-40","AREA":110.272}},
{"type":"Feature","geometry":{"type":"Polygon","coordinates":[[[88.2983387783782,22.547892331645],[88.298307652617,22.547806641896],[88.2983076173881,22.5478065432762],[88.2983951044298,22.5477648789957],[88.298421982083,22.547838873522],[88.2984308718001,22.5478633470078],[88.2983387783782,22.547892331645]]]},"properties": {
    "floor": "ground","fill-opacity":0,"stroke-opacity":1,"stroke":"#ff0000","ID":"40-4","REMARKS":"POLYGON ID-40","AREA":107.652}},
{"type":"Feature","geometry":{"type":"Polygon","coordinates":[[[88.2982524739659,22.5479194942444],[88.2981660776816,22.547873949108],[88.2983076173881,22.5478065432762],[88.298307652617,22.547806641896],[88.2983387783782,22.547892331645],[88.2982524739659,22.5479194942444]]]},"properties": {
    "floor": "ground","fill-opacity":0,"stroke-opacity":1,"stroke":"#ff0000","ID":"40-1","REMARKS":"POLYGON ID-40","AREA":116.827}},
{"type":"Feature","geometry":{"type":"Polygon","coordinates":[[[88.2985141153895,22.547809998793],[88.2984830294825,22.547724419035],[88.2985751626997,22.5476955442748],[88.2986062486551,22.547781124013],[88.2985141153895,22.547809998793]]]},"properties": {
    "floor": "ground","fill-opacity":0,"stroke-opacity":1,"stroke":"#ff0000","ID":"40-13","REMARKS":"POLYGON ID-40","AREA":100}},
{"type":"Feature","geometry":{"type":"Polygon","coordinates":[[[88.2988537773926,22.5481800509589],[88.2987910209653,22.5482033958516],[88.2986733720354,22.5481413760457],[88.2987305930219,22.5481234432694],[88.2988227266729,22.5480945689836],[88.2988537773926,22.5481800509589]]]},"properties": {
    "floor": "ground","fill-opacity":0,"stroke-opacity":1,"stroke":"#ff0000","ID":"40-14","REMARKS":"POLYGON ID-40","AREA":118.756}},
{"type":"Feature","geometry":{"type":"Polygon","coordinates":[[[88.2994043643532,22.5474356674059],[88.2994964925091,22.5474067935546],[88.2995275879145,22.5474923977764],[88.2994354567668,22.5475212671023],[88.2994043643532,22.5474356674059]]]},"properties": {
    "floor": "ground","fill-opacity":0,"stroke-opacity":1,"stroke":"#ff0000","ID":"40-71","REMARKS":"POLYGON ID-40","AREA":100.022}},
{"type":"Feature","geometry":{"type":"Polygon","coordinates":[[[88.2986995061422,22.5480378614563],[88.2987305928857,22.5481234428788],[88.2987305930219,22.5481234432694],[88.2986733720354,22.5481413760457],[88.2986252750216,22.5481160211838],[88.2986073733558,22.5480667380151],[88.2986995061422,22.5480378614563]]]},"properties": {
    "floor": "ground","fill-opacity":0,"stroke-opacity":1,"stroke":"#ff0000","ID":"40-9","REMARKS":"POLYGON ID-40","AREA":91.965}},
{"type":"Feature","geometry":{"type":"Polygon","coordinates":[[[88.2995404372563,22.5477742911268],[88.2996208317562,22.5477490930589],[88.2997197285538,22.5477180957446],[88.2997283514215,22.5477418339349],[88.2997343350519,22.547739958602],[88.2997400626261,22.5477557535375],[88.2995591007929,22.5478238723516],[88.2995404490502,22.5477743068224],[88.2995404372563,22.5477742911268]]]},"properties": {
    "floor": "ground","fill-opacity":0,"stroke-opacity":1,"stroke":"#ff0000","ID":"40-67","REMARKS":"POLYGON ID-40","AREA":102.963}},
{"type":"Feature","geometry":{"type":"Polygon","coordinates":[[[88.2994038709058,22.5478170950401],[88.2994365669609,22.547806847147],[88.2995286993791,22.5477779701285],[88.2995404372563,22.5477742911268],[88.2995404490502,22.5477743068224],[88.2995591007929,22.5478238723516],[88.2994254178283,22.5478741939796],[88.2994038709058,22.5478170950401]]]},"properties": {
    "floor": "ground","fill-opacity":0,"stroke-opacity":1,"stroke":"#ff0000","ID":"40-61","REMARKS":"POLYGON ID-40","AREA":92.73}},
{"type":"Feature","geometry":{"type":"Polygon","coordinates":[[[88.2989436951272,22.5475800446187],[88.299035828122,22.5475511695705],[88.2990669143693,22.5476367493466],[88.2989747813083,22.5476656243821],[88.2989436951592,22.5475800447234],[88.2989436951272,22.5475800446187]]]},"properties": {
    "floor": "ground","fill-opacity":0,"stroke-opacity":1,"stroke":"#ff0000","ID":"40-43","REMARKS":"POLYGON ID-40","AREA":100}},
{"type":"Feature","geometry":{"type":"Polygon","coordinates":[[[88.2990680368787,22.5479223547104],[88.2991601694605,22.5478934778962],[88.2991859131073,22.5479643492134],[88.2990956351416,22.5479983318509],[88.2990680368787,22.5479223547104]]]},"properties": {
    "floor": "ground","fill-opacity":0,"stroke-opacity":1,"stroke":"#ff0000","ID":"40-39","REMARKS":"POLYGON ID-40","AREA":85.796}},
{"type":"Feature","geometry":{"type":"Polygon","coordinates":[[[88.2991280025798,22.5475222814635],[88.2991590819559,22.5476078688583],[88.2990669143693,22.5476367493466],[88.299035828122,22.5475511695705],[88.2991280025798,22.5475222814635]]]},"properties": {
    "floor": "ground","fill-opacity":0,"stroke-opacity":1,"stroke":"#ff0000","ID":"40-48","REMARKS":"POLYGON ID-40","AREA":100.043}},
{"type":"Feature","geometry":{"type":"Polygon","coordinates":[[[88.2986062486551,22.547781124013],[88.2985751626997,22.5476955442748],[88.2986672958759,22.5476666694636],[88.2986983818797,22.5477522491819],[88.2986062486551,22.547781124013]]]},"properties": {
    "floor": "ground","fill-opacity":0,"stroke-opacity":1,"stroke":"#ff0000","ID":"40-19","REMARKS":"POLYGON ID-40","AREA":100}},
{"type":"Feature","geometry":{"type":"Polygon","coordinates":[[[88.2988227266729,22.5480945689836],[88.2987305930219,22.5481234432694],[88.2987305928857,22.5481234428788],[88.2986995061422,22.5480378614563],[88.2987916388877,22.5480089848464],[88.2988227266729,22.5480945689836]]]},"properties": {
    "floor": "ground","fill-opacity":0,"stroke-opacity":1,"stroke":"#ff0000","ID":"40-15","REMARKS":"POLYGON ID-40","AREA":100.004}},
{"type":"Feature","geometry":{"type":"Polygon","coordinates":[[[88.2989441834458,22.5481464205689],[88.2988537773926,22.5481800509589],[88.2988227266729,22.5480945689836],[88.2989148602779,22.5480656946482],[88.2989441834458,22.5481464205689]]]},"properties": {
    "floor": "ground","fill-opacity":0,"stroke-opacity":1,"stroke":"#ff0000","ID":"40-21","REMARKS":"POLYGON ID-40","AREA":97.107}},
{"type":"Feature","geometry":{"type":"Polygon","coordinates":[[[88.2987594289828,22.547637794572],[88.2988512039322,22.5476090318648],[88.2988823670298,22.5476945874885],[88.2987905150635,22.5477233742997],[88.2987594290113,22.5476377946013],[88.2987594289828,22.547637794572]]]},"properties": {
    "floor": "ground","fill-opacity":0,"stroke-opacity":1,"stroke":"#ff0000","ID":"40-32","REMARKS":"POLYGON ID-40","AREA":99.653}},
{"type":"Feature","geometry":{"type":"Polygon","coordinates":[[[88.2988837715923,22.5479801081855],[88.2989758539901,22.5479512472281],[88.2990053793337,22.5480323060814],[88.2990072861275,22.5480367286603],[88.2989148602779,22.5480656946482],[88.2988837715923,22.5479801081855]]]},"properties": {
    "floor": "ground","fill-opacity":0,"stroke-opacity":1,"stroke":"#ff0000","ID":"40-28","REMARKS":"POLYGON ID-40","AREA":100.004}},
{"type":"Feature","geometry":{"type":"Polygon","coordinates":[[[88.2984530679825,22.5479244532912],[88.2984308718001,22.5478633470078],[88.298421982083,22.547838873522],[88.2985141153895,22.547809998793],[88.2985452031091,22.5478955834198],[88.2984530679825,22.5479244532912]]]},"properties": {
    "floor": "ground","fill-opacity":0,"stroke-opacity":1,"stroke":"#ff0000","ID":"40-7","REMARKS":"POLYGON ID-40","AREA":100.003}},
{"type":"Feature","geometry":{"type":"Polygon","coordinates":[[[88.2985452031091,22.5478955834198],[88.2985141153895,22.547809998793],[88.2986062486551,22.547781124013],[88.2986373381947,22.5478667134973],[88.2985452031091,22.5478955834198]]]},"properties": {
    "floor": "ground","fill-opacity":0,"stroke-opacity":1,"stroke":"#ff0000","ID":"40-12","REMARKS":"POLYGON ID-40","AREA":100.009}},
{"type":"Feature","geometry":{"type":"Polygon","coordinates":[[[88.2994665544444,22.5476068811693],[88.2994354567668,22.5475212671023],[88.2995275879145,22.5474923977764],[88.2995586868019,22.5475780114626],[88.2994665544444,22.5476068811693]]]},"properties": {
    "floor": "ground","fill-opacity":0,"stroke-opacity":1,"stroke":"#ff0000","ID":"40-70","REMARKS":"POLYGON ID-40","AREA":100.037}},
{"type":"Feature","geometry":{"type":"Polygon","coordinates":[[[88.2989747813083,22.5476656243821],[88.2990669143693,22.5476367493466],[88.2990980130096,22.5477223631186],[88.2990058781284,22.5477512332965],[88.2989747813083,22.5476656243821]]]},"properties": {
    "floor": "ground","fill-opacity":0,"stroke-opacity":1,"stroke":"#ff0000","ID":"40-42","REMARKS":"POLYGON ID-40","AREA":100.037}},
{"type":"Feature","geometry":{"type":"Polygon","coordinates":[[[88.2990980130096,22.5477223631186],[88.2990669143693,22.5476367493466],[88.2991590819559,22.5476078688583],[88.299190171939,22.5476934853413],[88.2990980130096,22.5477223631186]]]},"properties": {
    "floor": "ground","fill-opacity":0,"stroke-opacity":1,"stroke":"#ff0000","ID":"40-47","REMARKS":"POLYGON ID-40","AREA":100.071}},
{"type":"Feature","geometry":{"type":"Polygon","coordinates":[[[88.2986373381947,22.5478667134973],[88.2986062486551,22.547781124013],[88.2986983818797,22.5477522491819],[88.2987294732395,22.5478378435238],[88.2986373381947,22.5478667134973]]]},"properties": {
    "floor": "ground","fill-opacity":0,"stroke-opacity":1,"stroke":"#ff0000","ID":"40-18","REMARKS":"POLYGON ID-40","AREA":100.014}},
{"type":"Feature","geometry":{"type":"Polygon","coordinates":[[[88.2988216082434,22.5478089734991],[88.2987905150635,22.5477233742997],[88.2988823670298,22.5476945874885],[88.2989135390199,22.5477801674043],[88.2988216082434,22.5478089734991]]]},"properties": {
    "floor": "ground","fill-opacity":0,"stroke-opacity":1,"stroke":"#ff0000","ID":"40-31","REMARKS":"POLYGON ID-40","AREA":99.762}},
{"type":"Feature","geometry":{"type":"Polygon","coordinates":[[[88.2993729722662,22.5473492425635],[88.2994651913449,22.547320810632],[88.2994654062227,22.5473212143157],[88.2994964925091,22.5474067935546],[88.2994043643532,22.5474356674059],[88.2993729722662,22.5473492425635]]]},"properties": {
    "floor": "ground","fill-opacity":0,"stroke-opacity":1,"stroke":"#ff0000","ID":"40-72","REMARKS":"POLYGON ID-40","AREA":100.734}},
{"type":"Feature","geometry":{"type":"Polygon","coordinates":[[[88.2988512039322,22.5476090318648],[88.2988321565878,22.5475567389476],[88.2990075157383,22.5474732260765],[88.299035828122,22.5475511695705],[88.2989436951272,22.5475800446187],[88.2988512039322,22.5476090318648]]]},"properties": {
    "floor": "ground","fill-opacity":0,"stroke-opacity":1,"stroke":"#ff0000","ID":"40-38","REMARKS":"POLYGON ID-40","AREA":152.518}},
{"type":"Feature","geometry":{"type":"Polygon","coordinates":[[[88.299035828122,22.5475511695705],[88.2990075157383,22.5474732260765],[88.2990748679951,22.5474411502272],[88.2990961578985,22.5474345864208],[88.2991280025798,22.5475222814635],[88.299035828122,22.5475511695705]]]},"properties": {
    "floor": "ground","fill-opacity":0,"stroke-opacity":1,"stroke":"#ff0000","ID":"40-49","REMARKS":"POLYGON ID-40","AREA":98.192}},
{"type":"Feature","geometry":{"type":"Polygon","coordinates":[[[88.2986672958759,22.5476666694636],[88.2985751626997,22.5476955442748],[88.2984830294825,22.547724419035],[88.2984826076731,22.5477232069282],[88.2988321565878,22.5475567389476],[88.2988512039322,22.5476090318648],[88.2987594289828,22.547637794572],[88.2986672958759,22.5476666694636]]]},"properties": {
    "floor": "ground","fill-opacity":0,"stroke-opacity":1,"stroke":"#ff0000","ID":"40-20","REMARKS":"POLYGON ID-40","AREA":124.936}},
{"type":"Feature","geometry":{"type":"Polygon","coordinates":[[[88.2987905150635,22.5477233742997],[88.2986983818797,22.5477522491819],[88.2986672958759,22.5476666694636],[88.2987594289828,22.547637794572],[88.2987594290113,22.5476377946013],[88.2987905150635,22.5477233742997]]]},"properties": {
    "floor": "ground","fill-opacity":0,"stroke-opacity":1,"stroke":"#ff0000","ID":"40-26","REMARKS":"POLYGON ID-40","AREA":100}},
{"type":"Feature","geometry":{"type":"Polygon","coordinates":[[[88.2989148602779,22.5480656946482],[88.2988227266729,22.5480945689836],[88.2987916388877,22.5480089848464],[88.2988837715923,22.5479801081855],[88.2989148602779,22.5480656946482]]]},"properties": {
    "floor": "ground","fill-opacity":0,"stroke-opacity":1,"stroke":"#ff0000","ID":"40-22","REMARKS":"POLYGON ID-40","AREA":100.007}},
{"type":"Feature","geometry":{"type":"Polygon","coordinates":[[[88.2987294732395,22.5478378435238],[88.2986983818797,22.5477522491819],[88.2987905150635,22.5477233742997],[88.2988216082434,22.5478089734991],[88.2987294732395,22.5478378435238]]]},"properties": {
    "floor": "ground","fill-opacity":0,"stroke-opacity":1,"stroke":"#ff0000","ID":"40-25","REMARKS":"POLYGON ID-40","AREA":100.02}},
{"type":"Feature","geometry":{"type":"Polygon","coordinates":[[[88.2989148602779,22.5480656946482],[88.2990072861275,22.5480367286603],[88.2990393211402,22.5481110299717],[88.2989441834458,22.5481464205689],[88.2989148602779,22.5480656946482]]]},"properties": {
    "floor": "ground","fill-opacity":0,"stroke-opacity":1,"stroke":"#ff0000","ID":"40-27","REMARKS":"POLYGON ID-40","AREA":94.013}},
{"type":"Feature","geometry":{"type":"Polygon","coordinates":[[[88.298576289585,22.5479811645016],[88.2986073733558,22.5480667380151],[88.2986252750216,22.5481160211838],[88.2984983483282,22.5480491102855],[88.2984841539228,22.5480100330518],[88.298576289585,22.5479811645016]]]},"properties": {
    "floor": "ground","fill-opacity":0,"stroke-opacity":1,"stroke":"#ff0000","ID":"40-5","REMARKS":"POLYGON ID-40","AREA":101.621}},
{"type":"Feature","geometry":{"type":"Polygon","coordinates":[[[88.2986684252062,22.5479522959003],[88.2986995061422,22.5480378614563],[88.2986073733558,22.5480667380151],[88.298576289585,22.5479811645016],[88.2986684252062,22.5479522959003]]]},"properties": {
    "floor": "ground","fill-opacity":0,"stroke-opacity":1,"stroke":"#ff0000","ID":"40-10","REMARKS":"POLYGON ID-40","AREA":99.988}},
{"type":"Feature","geometry":{"type":"Polygon","coordinates":[[[88.2994976451159,22.5476924758267],[88.2995897791691,22.5476636070776],[88.2996208317562,22.5477490930589],[88.2995404372563,22.5477742911268],[88.2995286993791,22.5477779701285],[88.2994976451159,22.5476924758267]]]},"properties": {
    "floor": "ground","fill-opacity":0,"stroke-opacity":1,"stroke":"#ff0000","ID":"40-68","REMARKS":"POLYGON ID-40","AREA":99.895}},
{"type":"Feature","geometry":{"type":"Polygon","coordinates":[[[88.2990369672822,22.5478368209843],[88.2991291026989,22.5478079521276],[88.2991601694605,22.5478934778962],[88.2990680368787,22.5479223547104],[88.2990369672822,22.5478368209843]]]},"properties": {
    "floor": "ground","fill-opacity":0,"stroke-opacity":1,"stroke":"#ff0000","ID":"40-40","REMARKS":"POLYGON ID-40","AREA":99.942}},
{"type":"Feature","geometry":{"type":"Polygon","coordinates":[[[88.2992212534598,22.5477790783992],[88.2992523086894,22.5478645989347],[88.2991601694605,22.5478934778962],[88.2991291026989,22.5478079521276],[88.2992212534598,22.5477790783992]]]},"properties": {
    "floor": "ground","fill-opacity":0,"stroke-opacity":1,"stroke":"#ff0000","ID":"40-45","REMARKS":"POLYGON ID-40","AREA":99.944}},
{"type":"Feature","geometry":{"type":"Polygon","coordinates":[[[88.2987605607865,22.547923427248],[88.2987916388877,22.5480089848464],[88.2986995061422,22.5480378614563],[88.2986684252062,22.5479522959003],[88.2987605607865,22.547923427248]]]},"properties": {
    "floor": "ground","fill-opacity":0,"stroke-opacity":1,"stroke":"#ff0000","ID":"40-16","REMARKS":"POLYGON ID-40","AREA":99.979}},
{"type":"Feature","geometry":{"type":"Polygon","coordinates":[[[88.2989447046171,22.5478657296478],[88.2989758539901,22.5479512472281],[88.2988837715923,22.5479801081855],[88.298852696326,22.5478945585445],[88.2989447046171,22.5478657296478]]]},"properties": {
    "floor": "ground","fill-opacity":0,"stroke-opacity":1,"stroke":"#ff0000","ID":"40-29","REMARKS":"POLYGON ID-40","AREA":99.864}},
{"type":"Feature","geometry":{"type":"Polygon","coordinates":[[[88.298852696326,22.5478945585445],[88.2988837715923,22.5479801081855],[88.2987916388877,22.5480089848464],[88.2987605607865,22.547923427248],[88.298852696326,22.5478945585445]]]},"properties": {
    "floor": "ground","fill-opacity":0,"stroke-opacity":1,"stroke":"#ff0000","ID":"40-23","REMARKS":"POLYGON ID-40","AREA":99.97}},
{"type":"Feature","geometry":{"type":"Polygon","coordinates":[[[88.2994964925091,22.5474067935546],[88.2995902074636,22.5473774223199],[88.2996228875198,22.5474625355461],[88.2995275879145,22.5474923977764],[88.2994964925091,22.5474067935546]]]},"properties": {
    "floor": "ground","fill-opacity":0,"stroke-opacity":1,"stroke":"#ff0000","ID":"40-76","REMARKS":"POLYGON ID-40","AREA":102.609}},
{"type":"Feature","geometry":{"type":"Polygon","coordinates":[[[88.2995586868019,22.5475780114626],[88.2995275879145,22.5474923977764],[88.2996228875198,22.5474625355461],[88.2996555693298,22.5475476532194],[88.2995586868019,22.5475780114626]]]},"properties": {
    "floor": "ground","fill-opacity":0,"stroke-opacity":1,"stroke":"#ff0000","ID":"40-75","REMARKS":"POLYGON ID-40","AREA":104.336}},
{"type":"Feature","geometry":{"type":"Polygon","coordinates":[[[88.2994651913449,22.547320810632],[88.2995575389415,22.5472923390135],[88.2995902074636,22.5473774223199],[88.2994964925091,22.5474067935546],[88.2994654062227,22.5473212143157],[88.2994651913449,22.547320810632]]]},"properties": {
    "floor": "ground","fill-opacity":0,"stroke-opacity":1,"stroke":"#ff0000","ID":"40-77","REMARKS":"POLYGON ID-40","AREA":101.105}},
{"type":"Feature","geometry":{"type":"Polygon","coordinates":[[[88.3005458000925,22.547486975278],[88.3005579901845,22.5474831748424],[88.3006501227473,22.5474542989204],[88.3006190911198,22.547368872368],[88.3006476774064,22.5473599656792],[88.3006981327114,22.5474912227908],[88.3005634183701,22.5475336623737],[88.3005458000925,22.547486975278]]]},"properties": {
    "floor": "ground","fill-opacity":0,"stroke-opacity":1,"stroke":"#ff0000","ID":"40-82","REMARKS":"POLYGON ID-40","AREA":111.663}},
{"type":"Feature","geometry":{"type":"Polygon","coordinates":[[[88.2992201031746,22.5474934164419],[88.2993122332295,22.5474645421233],[88.2993433233833,22.5475501370649],[88.2992511907913,22.5475790067156],[88.2992201031746,22.5474934164419]]]},"properties": {
    "floor": "ground","fill-opacity":0,"stroke-opacity":1,"stroke":"#ff0000","ID":"40-59","REMARKS":"POLYGON ID-40","AREA":100.012}},
{"type":"Feature","geometry":{"type":"Polygon","coordinates":[[[88.2992822872356,22.5476646211723],[88.2992511907913,22.5475790067156],[88.2993433233833,22.5475501370649],[88.2993744205831,22.5476357512832],[88.2992822872356,22.5476646211723]]]},"properties": {
    "floor": "ground","fill-opacity":0,"stroke-opacity":1,"stroke":"#ff0000","ID":"40-58","REMARKS":"POLYGON ID-40","AREA":100.038}},
{"type":"Feature","geometry":{"type":"Polygon","coordinates":[[[88.2991884053209,22.5474061459418],[88.2992806881142,22.547377694494],[88.2993122332295,22.5474645421233],[88.2992201031746,22.5474934164419],[88.2991884053209,22.5474061459418]]]},"properties": {
    "floor": "ground","fill-opacity":0,"stroke-opacity":1,"stroke":"#ff0000","ID":"40-60","REMARKS":"POLYGON ID-40","AREA":101.725}},
{"type":"Feature","geometry":{"type":"Polygon","coordinates":[[[88.299313375702,22.5477502135426],[88.2994055102907,22.5477213447536],[88.2994365669609,22.547806847147],[88.2994038709058,22.5478170950401],[88.2993840484507,22.5478233079692],[88.2993444345019,22.5478357241144],[88.299313375702,22.5477502135426]]]},"properties": {
    "floor": "ground","fill-opacity":0,"stroke-opacity":1,"stroke":"#ff0000","ID":"40-56","REMARKS":"POLYGON ID-40","AREA":99.914}},
{"type":"Feature","geometry":{"type":"Polygon","coordinates":[[[88.2993122332295,22.5474645421233],[88.2994043643532,22.5474356674059],[88.2994354567668,22.5475212671023],[88.2993433233833,22.5475501370649],[88.2993122332295,22.5474645421233]]]},"properties": {
    "floor": "ground","fill-opacity":0,"stroke-opacity":1,"stroke":"#ff0000","ID":"40-65","REMARKS":"POLYGON ID-40","AREA":100.019}},
{"type":"Feature","geometry":{"type":"Polygon","coordinates":[[[88.2993744205831,22.5476357512832],[88.2993433233833,22.5475501370649],[88.2994354567668,22.5475212671023],[88.2994665544444,22.5476068811693],[88.2993744205831,22.5476357512832]]]},"properties": {
    "floor": "ground","fill-opacity":0,"stroke-opacity":1,"stroke":"#ff0000","ID":"40-64","REMARKS":"POLYGON ID-40","AREA":100.039}},
{"type":"Feature","geometry":{"type":"Polygon","coordinates":[[[88.2992806881142,22.547377694494],[88.2993729722662,22.5473492425635],[88.2994043643532,22.5474356674059],[88.2993122332295,22.5474645421233],[88.2992806881142,22.547377694494]]]},"properties": {
    "floor": "ground","fill-opacity":0,"stroke-opacity":1,"stroke":"#ff0000","ID":"40-66","REMARKS":"POLYGON ID-40","AREA":101.232}},
{"type":"Feature","geometry":{"type":"Polygon","coordinates":[[[88.2994055102907,22.5477213447536],[88.2994976451159,22.5476924758267],[88.2995286993791,22.5477779701285],[88.2994365669609,22.547806847147],[88.2994055102907,22.5477213447536]]]},"properties": {
    "floor": "ground","fill-opacity":0,"stroke-opacity":1,"stroke":"#ff0000","ID":"40-62","REMARKS":"POLYGON ID-40","AREA":99.904}},
{"type":"Feature","geometry":{"type":"Polygon","coordinates":[[[88.2992511907913,22.5475790067156],[88.2991590819559,22.5476078688583],[88.2991280025798,22.5475222814635],[88.2992201031746,22.5474934164419],[88.2992511907913,22.5475790067156]]]},"properties": {
    "floor": "ground","fill-opacity":0,"stroke-opacity":1,"stroke":"#ff0000","ID":"40-54","REMARKS":"POLYGON ID-40","AREA":99.977}},
{"type":"Feature","geometry":{"type":"Polygon","coordinates":[[[88.299190171939,22.5476934853413],[88.2991590819559,22.5476078688583],[88.2992511907913,22.5475790067156],[88.2992822872356,22.5476646211723],[88.299190171939,22.5476934853413]]]},"properties": {
    "floor": "ground","fill-opacity":0,"stroke-opacity":1,"stroke":"#ff0000","ID":"40-53","REMARKS":"POLYGON ID-40","AREA":100.015}},
{"type":"Feature","geometry":{"type":"Polygon","coordinates":[[[88.2992201031746,22.5474934164419],[88.2991280025798,22.5475222814635],[88.2990961578985,22.5474345864208],[88.2991884053209,22.5474061459418],[88.2992201031746,22.5474934164419]]]},"properties": {
    "floor": "ground","fill-opacity":0,"stroke-opacity":1,"stroke":"#ff0000","ID":"40-55","REMARKS":"POLYGON ID-40","AREA":102.182}},
{"type":"Feature","geometry":{"type":"Polygon","coordinates":[[[88.2993444345019,22.5478357241144],[88.299276640641,22.5478569726231],[88.2992669093589,22.5478600226786],[88.2992523086894,22.5478645989347],[88.2992212534598,22.5477790783992],[88.299313375702,22.5477502135426],[88.2993444345019,22.5478357241144]]]},"properties": {
    "floor": "ground","fill-opacity":0,"stroke-opacity":1,"stroke":"#ff0000","ID":"40-51","REMARKS":"POLYGON ID-40","AREA":99.912}},
{"type":"Feature","geometry":{"type":"Polygon","coordinates":[[[88.2985452031091,22.5478955834198],[88.298576289585,22.5479811645016],[88.2984841539228,22.5480100330518],[88.2984619577112,22.5479489267746],[88.2984530679825,22.5479244532912],[88.2985452031091,22.5478955834198]]]},"properties": {
    "floor": "ground","fill-opacity":0,"stroke-opacity":1,"stroke":"#ff0000","ID":"40-6","REMARKS":"POLYGON ID-40","AREA":100.001}},
{"type":"Feature","geometry":{"type":"Polygon","coordinates":[[[88.2986373381947,22.5478667134973],[88.2986684252062,22.5479522959003],[88.298576289585,22.5479811645016],[88.2985452031091,22.5478955834198],[88.2986373381947,22.5478667134973]]]},"properties": {
    "floor": "ground","fill-opacity":0,"stroke-opacity":1,"stroke":"#ff0000","ID":"40-11","REMARKS":"POLYGON ID-40","AREA":100.002}},
{"type":"Feature","geometry":{"type":"Polygon","coordinates":[[[88.2995586868019,22.5475780114626],[88.2995897791691,22.5476636070776],[88.2994976451159,22.5476924758267],[88.2994665544444,22.5476068811693],[88.2995586868019,22.5475780114626]]]},"properties": {
    "floor": "ground","fill-opacity":0,"stroke-opacity":1,"stroke":"#ff0000","ID":"40-69","REMARKS":"POLYGON ID-40","AREA":100.016}},
{"type":"Feature","geometry":{"type":"Polygon","coordinates":[[[88.2990058781284,22.5477512332965],[88.2990980130096,22.5477223631186],[88.2991291026989,22.5478079521276],[88.2990369672822,22.5478368209843],[88.2990058781284,22.5477512332965]]]},"properties": {
    "floor": "ground","fill-opacity":0,"stroke-opacity":1,"stroke":"#ff0000","ID":"40-41","REMARKS":"POLYGON ID-40","AREA":100.01}},
{"type":"Feature","geometry":{"type":"Polygon","coordinates":[[[88.299190171939,22.5476934853413],[88.2992212534598,22.5477790783992],[88.2991291026989,22.5478079521276],[88.2990980130096,22.5477223631186],[88.299190171939,22.5476934853413]]]},"properties": {
    "floor": "ground","fill-opacity":0,"stroke-opacity":1,"stroke":"#ff0000","ID":"40-46","REMARKS":"POLYGON ID-40","AREA":100.033}},
{"type":"Feature","geometry":{"type":"Polygon","coordinates":[[[88.2987294732395,22.5478378435238],[88.2987605607865,22.547923427248],[88.2986684252062,22.5479522959003],[88.2986373381947,22.5478667134973],[88.2987294732395,22.5478378435238]]]},"properties": {
    "floor": "ground","fill-opacity":0,"stroke-opacity":1,"stroke":"#ff0000","ID":"40-17","REMARKS":"POLYGON ID-40","AREA":100.004}},
{"type":"Feature","geometry":{"type":"Polygon","coordinates":[[[88.2989135390199,22.5477801674043],[88.2989447046171,22.5478657296478],[88.298852696326,22.5478945585445],[88.2988216082434,22.5478089734991],[88.2989135390199,22.5477801674043]]]},"properties": {
    "floor": "ground","fill-opacity":0,"stroke-opacity":1,"stroke":"#ff0000","ID":"40-30","REMARKS":"POLYGON ID-40","AREA":99.827}},
{"type":"Feature","geometry":{"type":"Polygon","coordinates":[[[88.2988216082434,22.5478089734991],[88.298852696326,22.5478945585445],[88.2987605607865,22.547923427248],[88.2987294732395,22.5478378435238],[88.2988216082434,22.5478089734991]]]},"properties": {
    "floor": "ground","fill-opacity":0,"stroke-opacity":1,"stroke":"#ff0000","ID":"40-24","REMARKS":"POLYGON ID-40","AREA":100.005}},
{"type":"Feature","geometry":{"type":"Polygon","coordinates":[[[88.2996555693298,22.5475476532194],[88.2996882448334,22.5476327543478],[88.2995897791691,22.5476636070776],[88.2995586868019,22.5475780114626],[88.2996555693298,22.5475476532194]]]},"properties": {
    "floor": "ground","fill-opacity":0,"stroke-opacity":1,"stroke":"#ff0000","ID":"40-74","REMARKS":"POLYGON ID-40","AREA":106.033}},
{"type":"Feature","geometry":{"type":"Polygon","coordinates":[[[88.2993744205831,22.5476357512832],[88.2994055102907,22.5477213447536],[88.299313375702,22.5477502135426],[88.2992822872356,22.5476646211723],[88.2993744205831,22.5476357512832]]]},"properties": {
    "floor": "ground","fill-opacity":0,"stroke-opacity":1,"stroke":"#ff0000","ID":"40-57","REMARKS":"POLYGON ID-40","AREA":100.014}},
{"type":"Feature","geometry":{"type":"Polygon","coordinates":[[[88.2994665544444,22.5476068811693],[88.2994976451159,22.5476924758267],[88.2994055102907,22.5477213447536],[88.2993744205831,22.5476357512832],[88.2994665544444,22.5476068811693]]]},"properties": {
    "floor": "ground","fill-opacity":0,"stroke-opacity":1,"stroke":"#ff0000","ID":"40-63","REMARKS":"POLYGON ID-40","AREA":100.016}},
{"type":"Feature","geometry":{"type":"Polygon","coordinates":[[[88.2992822872356,22.5476646211723],[88.299313375702,22.5477502135426],[88.2992212534598,22.5477790783992],[88.299190171939,22.5476934853413],[88.2992822872356,22.5476646211723]]]},"properties": {
    "floor": "ground","fill-opacity":0,"stroke-opacity":1,"stroke":"#ff0000","ID":"40-52","REMARKS":"POLYGON ID-40","AREA":99.996}},
{"type":"Feature","geometry":{"type":"Polygon","coordinates":[[[88.2989747813083,22.5476656243821],[88.2988823670298,22.5476945874885],[88.2988512039322,22.5476090318648],[88.2989436951272,22.5475800446187],[88.2989436951592,22.5475800447234],[88.2989747813083,22.5476656243821]]]},"properties": {
    "floor": "ground","fill-opacity":0,"stroke-opacity":1,"stroke":"#ff0000","ID":"40-37","REMARKS":"POLYGON ID-40","AREA":100.347}},
{"type":"Feature","geometry":{"type":"Polygon","coordinates":[[[88.2990956351416,22.5479983318509],[88.2990053793337,22.5480323060814],[88.2989758539901,22.5479512472281],[88.2990680368787,22.5479223547104],[88.2990956351416,22.5479983318509]]]},"properties": {
    "floor": "ground","fill-opacity":0,"stroke-opacity":1,"stroke":"#ff0000","ID":"40-33","REMARKS":"POLYGON ID-40","AREA":91.777}},
{"type":"Feature","geometry":{"type":"Polygon","coordinates":[[[88.2990058781284,22.5477512332965],[88.2989135390199,22.5477801674043],[88.2988823670298,22.5476945874885],[88.2989747813083,22.5476656243821],[88.2990058781284,22.5477512332965]]]},"properties": {
    "floor": "ground","fill-opacity":0,"stroke-opacity":1,"stroke":"#ff0000","ID":"40-36","REMARKS":"POLYGON ID-40","AREA":100.295}},
{"type":"Feature","geometry":{"type":"Polygon","coordinates":[[[88.2990680368787,22.5479223547104],[88.2989758539901,22.5479512472281],[88.2989447046171,22.5478657296478],[88.2990369672822,22.5478368209843],[88.2990680368787,22.5479223547104]]]},"properties": {
    "floor": "ground","fill-opacity":0,"stroke-opacity":1,"stroke":"#ff0000","ID":"40-34","REMARKS":"POLYGON ID-40","AREA":100.047}},
{"type":"Feature","geometry":{"type":"Polygon","coordinates":[[[88.2990369672822,22.5478368209843],[88.2989447046171,22.5478657296478],[88.2989135390199,22.5477801674043],[88.2990058781284,22.5477512332965],[88.2990369672822,22.5478368209843]]]},"properties": {
    "floor": "ground","fill-opacity":0,"stroke-opacity":1,"stroke":"#ff0000","ID":"40-35","REMARKS":"POLYGON ID-40","AREA":100.188}},
{"type":"Feature","geometry":{"type":"Polygon","coordinates":[[[88.2997197285538,22.5477180957446],[88.2996208317562,22.5477490930589],[88.2995897791691,22.5476636070776],[88.2996882448334,22.5476327543478],[88.2996972093139,22.547656101707],[88.2997197285538,22.5477180957446]]]},"properties": {
    "floor": "ground","fill-opacity":0,"stroke-opacity":1,"stroke":"#ff0000","ID":"40-73","REMARKS":"POLYGON ID-40","AREA":107.155}},
{"type":"Feature","geometry":{"type":"Polygon","coordinates":[[[88.3005269031225,22.5473975955321],[88.3006190911198,22.547368872368],[88.3006501227473,22.5474542989204],[88.3005579901845,22.5474831748424],[88.3005269031225,22.5473975955321]]]},"properties": {
    "floor": "ground","fill-opacity":0,"stroke-opacity":1,"stroke":"#ff0000","ID":"40-92","REMARKS":"POLYGON ID-40","AREA":99.911}},
{"type":"Feature","geometry":{"type":"Polygon","coordinates":[[[88.3002503388863,22.5474837647175],[88.3003425270057,22.5474550417068],[88.3003736286884,22.547540652057],[88.3002814479653,22.5475693905608],[88.3002813703202,22.5475691913494],[88.3002503388863,22.5474837647175]]]},"properties": {
    "floor": "ground","fill-opacity":0,"stroke-opacity":1,"stroke":"#ff0000","ID":"40-89","REMARKS":"POLYGON ID-40","AREA":100.048}},
{"type":"Feature","geometry":{"type":"Polygon","coordinates":[[[88.3005579901845,22.5474831748424],[88.3005458000925,22.547486975278],[88.3004658073078,22.5475119141453],[88.3004347150845,22.547426318645],[88.3005269031225,22.5473975955321],[88.3005579901845,22.5474831748424]]]},"properties": {
    "floor": "ground","fill-opacity":0,"stroke-opacity":1,"stroke":"#ff0000","ID":"40-91","REMARKS":"POLYGON ID-40","AREA":100.01}},
{"type":"Feature","geometry":{"type":"Polygon","coordinates":[[[88.3000313590451,22.547688681365],[88.2997400626261,22.5477557535375],[88.2997343350519,22.547739958602],[88.2998205309293,22.5477130863057],[88.2999127146902,22.5476843471742],[88.3000048960631,22.5476556087233],[88.3000168233297,22.5476518902758],[88.3000313590451,22.547688681365]]]},"properties": {
    "floor": "ground","fill-opacity":0,"stroke-opacity":1,"stroke":"#ff0000","ID":"40-78","REMARKS":"POLYGON ID-40","AREA":94.84}},
{"type":"Feature","geometry":{"type":"Polygon","coordinates":[[[88.2998205309293,22.5477130863057],[88.2997343350519,22.547739958602],[88.2997283514215,22.5477418339349],[88.2997197285538,22.5477180957446],[88.2996972093139,22.547656101707],[88.2997893976778,22.5476273790033],[88.2998205309293,22.5477130863057]]]},"properties": {
    "floor": "ground","fill-opacity":0,"stroke-opacity":1,"stroke":"#ff0000","ID":"40-83","REMARKS":"POLYGON ID-40","AREA":100.159}},
{"type":"Feature","geometry":{"type":"Polygon","coordinates":[[[88.2999127146902,22.5476843471742],[88.2998205309293,22.5477130863057],[88.2997893976778,22.5476273790033],[88.299881586001,22.5475986562485],[88.2999126172413,22.5476840829598],[88.2999127146902,22.5476843471742]]]},"properties": {
    "floor": "ground","fill-opacity":0,"stroke-opacity":1,"stroke":"#ff0000","ID":"40-84","REMARKS":"POLYGON ID-40","AREA":100.14}},
{"type":"Feature","geometry":{"type":"Polygon","coordinates":[[[88.3002195606641,22.5476419885836],[88.3001799462524,22.547654468337],[88.3000313590451,22.547688681365],[88.3000168233297,22.5476518902758],[88.3000970806803,22.547626869197],[88.3001892623256,22.5475981305335],[88.3002017147772,22.5475942483369],[88.3002195606641,22.5476419885836]]]},"properties": {
    "floor": "ground","fill-opacity":0,"stroke-opacity":1,"stroke":"#ff0000","ID":"40-79","REMARKS":"POLYGON ID-40","AREA":102.235}},
{"type":"Feature","geometry":{"type":"Polygon","coordinates":[[[88.3000048960631,22.5476556087233],[88.2999127146902,22.5476843471742],[88.2999126172413,22.5476840829598],[88.299881586001,22.5475986562485],[88.2999737742834,22.5475699334424],[88.3000048610544,22.5476555128722],[88.3000048960631,22.5476556087233]]]},"properties": {
    "floor": "ground","fill-opacity":0,"stroke-opacity":1,"stroke":"#ff0000","ID":"40-85","REMARKS":"POLYGON ID-40","AREA":100.121}},
{"type":"Feature","geometry":{"type":"Polygon","coordinates":[[[88.3000970806803,22.547626869197],[88.3000168233297,22.5476518902758],[88.3000048960631,22.5476556087233],[88.3000048610544,22.5476555128722],[88.2999737742834,22.5475699334424],[88.3000659625251,22.5475412105853],[88.3000969938622,22.5476266372569],[88.3000970806803,22.547626869197]]]},"properties": {
    "floor": "ground","fill-opacity":0,"stroke-opacity":1,"stroke":"#ff0000","ID":"40-86","REMARKS":"POLYGON ID-40","AREA":100.103}},
{"type":"Feature","geometry":{"type":"Polygon","coordinates":[[[88.3003912745739,22.5475878933041],[88.3002195606641,22.5476419885836],[88.3002017147772,22.5475942483369],[88.3002814479653,22.5475693905608],[88.3003736286884,22.547540652057],[88.3003912745739,22.5475878933041]]]},"properties": {
    "floor": "ground","fill-opacity":0,"stroke-opacity":1,"stroke":"#ff0000","ID":"40-80","REMARKS":"POLYGON ID-40","AREA":103.789}},
{"type":"Feature","geometry":{"type":"Polygon","coordinates":[[[88.3003736286884,22.547540652057],[88.3004658073078,22.5475119141453],[88.3005458000925,22.547486975278],[88.3005634183701,22.5475336623737],[88.3003912745739,22.5475878933041],[88.3003736286884,22.547540652057]]]},"properties": {
    "floor": "ground","fill-opacity":0,"stroke-opacity":1,"stroke":"#ff0000","ID":"40-81","REMARKS":"POLYGON ID-40","AREA":102.895}},
{"type":"Feature","geometry":{"type":"Polygon","coordinates":[[[88.3003425270057,22.5474550417068],[88.3004347150845,22.547426318645],[88.3004658073078,22.5475119141453],[88.3003736286884,22.547540652057],[88.3003425270057,22.5474550417068]]]},"properties": {
    "floor": "ground","fill-opacity":0,"stroke-opacity":1,"stroke":"#ff0000","ID":"40-90","REMARKS":"POLYGON ID-40","AREA":100.026}},
{"type":"Feature","geometry":{"type":"Polygon","coordinates":[[[88.3001892623256,22.5475981305335],[88.3000970806803,22.547626869197],[88.3000969938622,22.5476266372569],[88.3000659625251,22.5475412105853],[88.300158150726,22.5475124876769],[88.300189237594,22.5475980670669],[88.3001892623256,22.5475981305335]]]},"properties": {
    "floor": "ground","fill-opacity":0,"stroke-opacity":1,"stroke":"#ff0000","ID":"40-87","REMARKS":"POLYGON ID-40","AREA":100.084}},
{"type":"Feature","geometry":{"type":"Polygon","coordinates":[[[88.3002814479653,22.5475693905608],[88.3002017147772,22.5475942483369],[88.3001892623256,22.5475981305335],[88.300189237594,22.5475980670669],[88.300158150726,22.5475124876769],[88.3002503388863,22.5474837647175],[88.3002813703202,22.5475691913494],[88.3002814479653,22.5475693905608]]]},"properties": {
    "floor": "ground","fill-opacity":0,"stroke-opacity":1,"stroke":"#ff0000","ID":"40-88","REMARKS":"POLYGON ID-40","AREA":100.065}},
{"type":"Feature","geometry":{"type":"Polygon","coordinates":[[[88.299276640641,22.5478569726231],[88.2993444345019,22.5478357241144],[88.2993840484507,22.5478233079692],[88.2994038709058,22.5478170950401],[88.2994254178283,22.5478741939796],[88.299405978011,22.5478815116034],[88.2993023062068,22.5479205361599],[88.299276640641,22.5478569726231]]]},"properties": {
    "floor": "ground","fill-opacity":0,"stroke-opacity":1,"stroke":"#ff0000","ID":"40-50","REMARKS":"POLYGON ID-40","AREA":97.575}},
{"type":"Feature","geometry":{"type":"Polygon","coordinates":[[[88.2992523086894,22.5478645989347],[88.2992669093589,22.5478600226786],[88.299276640641,22.5478569726231],[88.2993023062068,22.5479205361599],[88.2992918705144,22.5479244644003],[88.2992761910264,22.5479303665272],[88.2991859131073,22.5479643492134],[88.2991601694605,22.5478934778962],[88.2992523086894,22.5478645989347]]]},"properties": {
    "floor": "ground","fill-opacity":0,"stroke-opacity":1,"stroke":"#ff0000","ID":"40-44","REMARKS":"POLYGON ID-40","AREA":100.868}}
]}