{"type":"FeatureCollection", "features": [
{"type":"Feature","geometry":{"type":"Polygon","coordinates":[[[88.3152449986191,22.5258466117403],[88.3153531173909,22.5258668208942],[88.3153386918482,22.5259416202157],[88.3152307586981,22.5259214457614],[88.3152449986191,22.5258466117403]]]},"properties": {
    "floor": "ground","fill-opacity":0,"stroke-opacity":1,"stroke":"#ff0000","ID":"30-16","REMARKS":"POLYGON ID-30"}},
{"type":"Feature","geometry":{"type":"Polygon","coordinates":[[[88.3152307586981,22.5259214457614],[88.3153386918482,22.5259416202157],[88.315324266292,22.5260164195359],[88.3152164564523,22.5259966072421],[88.3152307586981,22.5259214457614]]]},"properties": {
    "floor": "ground","fill-opacity":0,"stroke-opacity":1,"stroke":"#ff0000","ID":"30-15","REMARKS":"POLYGON ID-30"}},
{"type":"Feature","geometry":{"type":"Polygon","coordinates":[[[88.3152739017647,22.5256947189257],[88.3152999780163,22.5257001489355],[88.3153819684364,22.5257172222477],[88.3153675429204,22.5257920215716],[88.315259238527,22.525771777718],[88.3152739017647,22.5256947189257]]]},"properties": {
    "floor": "ground","fill-opacity":0,"stroke-opacity":1,"stroke":"#ff0000","ID":"30-18","REMARKS":"POLYGON ID-30"}},
{"type":"Feature","geometry":{"type":"Polygon","coordinates":[[[88.315259238527,22.525771777718],[88.3153675429204,22.5257920215716],[88.3153531173909,22.5258668208942],[88.3152449986191,22.5258466117403],[88.315259238527,22.525771777718]]]},"properties": {
    "floor": "ground","fill-opacity":0,"stroke-opacity":1,"stroke":"#ff0000","ID":"30-17","REMARKS":"POLYGON ID-30"}},
{"type":"Feature","geometry":{"type":"Polygon","coordinates":[[[88.3152179876141,22.5256830755805],[88.3151658351242,22.5256722155294],[88.3151359972299,22.5256660021828],[88.3151626957853,22.5255513191606],[88.3152428505554,22.5255699923556],[88.3152179876141,22.5256830755805]]]},"properties": {
    "floor": "ground","fill-opacity":0,"stroke-opacity":1,"stroke":"#ff0000","ID":"30-14","REMARKS":"POLYGON ID-30"}},
{"type":"Feature","geometry":{"type":"Polygon","coordinates":[[[88.3151359972299,22.5256660021828],[88.3150540068637,22.5256489287423],[88.3150825410347,22.5255326459245],[88.3151626957853,22.5255513191606],[88.3151359972299,22.5256660021828]]]},"properties": {
    "floor": "ground","fill-opacity":0,"stroke-opacity":1,"stroke":"#ff0000","ID":"30-9","REMARKS":"POLYGON ID-30"}},
{"type":"Feature","geometry":{"type":"Polygon","coordinates":[[[88.3153230053449,22.5255886655097],[88.3154031601539,22.5256073386228],[88.3153819684364,22.5257172222477],[88.3152999780163,22.5257001489355],[88.3153230053449,22.5255886655097]]]},"properties": {
    "floor": "ground","fill-opacity":0,"stroke-opacity":1,"stroke":"#ff0000","ID":"30-20","REMARKS":"POLYGON ID-30"}},
{"type":"Feature","geometry":{"type":"Polygon","coordinates":[[[88.3152999780163,22.5257001489355],[88.3152739017647,22.5256947189257],[88.3152179876141,22.5256830755805],[88.3152428505554,22.5255699923556],[88.3153230053449,22.5255886655097],[88.3152999780163,22.5257001489355]]]},"properties": {
    "floor": "ground","fill-opacity":0,"stroke-opacity":1,"stroke":"#ff0000","ID":"30-19","REMARKS":"POLYGON ID-30"}},
{"type":"Feature","geometry":{"type":"Polygon","coordinates":[[[88.3150242420516,22.5258053485071],[88.3151365085172,22.525826333099],[88.3151222685386,22.5259011671134],[88.3150100020135,22.5258801825145],[88.3150242420516,22.5258053485071]]]},"properties": {
    "floor": "ground","fill-opacity":0,"stroke-opacity":1,"stroke":"#ff0000","ID":"30-6","REMARKS":"POLYGON ID-30"}},
{"type":"Feature","geometry":{"type":"Polygon","coordinates":[[[88.3150100020135,22.5258801825145],[88.3151222685386,22.5259011671134],[88.3151079034938,22.5259766583052],[88.3149955719831,22.5259560148943],[88.3150100020135,22.5258801825145]]]},"properties": {
    "floor": "ground","fill-opacity":0,"stroke-opacity":1,"stroke":"#ff0000","ID":"30-5","REMARKS":"POLYGON ID-30"}},
{"type":"Feature","geometry":{"type":"Polygon","coordinates":[[[88.3150540068637,22.5256489287423],[88.3151359972299,22.5256660021828],[88.3151658351242,22.5256722155294],[88.3151507484826,22.5257514990834],[88.3150384820765,22.5257305144985],[88.3150540068637,22.5256489287423]]]},"properties": {
    "floor": "ground","fill-opacity":0,"stroke-opacity":1,"stroke":"#ff0000","ID":"30-8","REMARKS":"POLYGON ID-30"}},
{"type":"Feature","geometry":{"type":"Polygon","coordinates":[[[88.3150384820765,22.5257305144985],[88.3151507484826,22.5257514990834],[88.3151365085172,22.525826333099],[88.3150242420516,22.5258053485071],[88.3150384820765,22.5257305144985]]]},"properties": {
    "floor": "ground","fill-opacity":0,"stroke-opacity":1,"stroke":"#ff0000","ID":"30-7","REMARKS":"POLYGON ID-30"}},
{"type":"Feature","geometry":{"type":"Polygon","coordinates":[[[88.3151365085172,22.525826333099],[88.3152449986191,22.5258466117403],[88.3152307586981,22.5259214457614],[88.3151222685386,22.5259011671134],[88.3151365085172,22.525826333099]]]},"properties": {
    "floor": "ground","fill-opacity":0,"stroke-opacity":1,"stroke":"#ff0000","ID":"30-11","REMARKS":"POLYGON ID-30"}},
{"type":"Feature","geometry":{"type":"Polygon","coordinates":[[[88.3151222685386,22.5259011671134],[88.3152307586981,22.5259214457614],[88.3152164564523,22.5259966072421],[88.3151079034938,22.5259766583052],[88.3151222685386,22.5259011671134]]]},"properties": {
    "floor": "ground","fill-opacity":0,"stroke-opacity":1,"stroke":"#ff0000","ID":"30-10","REMARKS":"POLYGON ID-30"}},
{"type":"Feature","geometry":{"type":"Polygon","coordinates":[[[88.3151658351242,22.5256722155294],[88.3152179876141,22.5256830755805],[88.3152739017647,22.5256947189257],[88.315259238527,22.525771777718],[88.3151507484826,22.5257514990834],[88.3151658351242,22.5256722155294]]]},"properties": {
    "floor": "ground","fill-opacity":0,"stroke-opacity":1,"stroke":"#ff0000","ID":"30-13","REMARKS":"POLYGON ID-30"}},
{"type":"Feature","geometry":{"type":"Polygon","coordinates":[[[88.3151507484826,22.5257514990834],[88.315259238527,22.525771777718],[88.3152449986191,22.5258466117403],[88.3151365085172,22.525826333099],[88.3151507484826,22.5257514990834]]]},"properties": {
    "floor": "ground","fill-opacity":0,"stroke-opacity":1,"stroke":"#ff0000","ID":"30-12","REMARKS":"POLYGON ID-30"}},
{"type":"Feature","geometry":{"type":"Polygon","coordinates":[[[88.3150100020135,22.5258801825145],[88.3149222271625,22.525863775783],[88.3149309222303,22.5257879053136],[88.3150242420516,22.5258053485071],[88.3150100020135,22.5258801825145]]]},"properties": {
    "floor": "ground","fill-opacity":0,"stroke-opacity":1,"stroke":"#ff0000","ID":"30-2","REMARKS":"POLYGON ID-30"}},
{"type":"Feature","geometry":{"type":"Polygon","coordinates":[[[88.3149955719831,22.5259560148943],[88.3149133870803,22.5259409115382],[88.3149222271625,22.525863775783],[88.3150100020135,22.5258801825145],[88.3149955719831,22.5259560148943]]]},"properties": {
    "floor": "ground","fill-opacity":0,"stroke-opacity":1,"stroke":"#ff0000","ID":"30-1","REMARKS":"POLYGON ID-30"}},
{"type":"Feature","geometry":{"type":"Polygon","coordinates":[[[88.3150384820765,22.5257305144985],[88.3149396172908,22.5257120348435],[88.3149487887279,22.5256320075865],[88.3150540068637,22.5256489287423],[88.3150384820765,22.5257305144985]]]},"properties": {
    "floor": "ground","fill-opacity":0,"stroke-opacity":1,"stroke":"#ff0000","ID":"30-4","REMARKS":"POLYGON ID-30"}},
{"type":"Feature","geometry":{"type":"Polygon","coordinates":[[[88.3150242420516,22.5258053485071],[88.3149309222303,22.5257879053136],[88.3149396172908,22.5257120348435],[88.3150384820765,22.5257305144985],[88.3150242420516,22.5258053485071]]]},"properties": {
    "floor": "ground","fill-opacity":0,"stroke-opacity":1,"stroke":"#ff0000","ID":"30-3","REMARKS":"POLYGON ID-30"}}
]}