{"type":"FeatureCollection", "features": [
{"type":"Feature","geometry":{"type":"Polygon","coordinates":[[[88.3016150104689,22.5454300439255],[88.3015482797065,22.5453642691787],[88.3016188656348,22.5453021502978],[88.3016858048108,22.5453680759608],[88.3016857294335,22.5453680561454],[88.3016150104689,22.5454300439255]]]},"properties": {
    "floor": "ground","fill-opacity":0,"stroke-opacity":1,"stroke":"#ff0000","ID":"35-53","REMARKS":"POLYGON ID-35","AREA":100.187}},
{"type":"Feature","geometry":{"type":"Polygon","coordinates":[[[88.3005542183942,22.5463598571967],[88.3004894831759,22.5462960489767],[88.3005600700549,22.5462339305228],[88.3006249826548,22.5462979135556],[88.3005542183942,22.5463598571967]]]},"properties": {
    "floor": "ground","fill-opacity":0,"stroke-opacity":1,"stroke":"#ff0000","ID":"35-3","REMARKS":"POLYGON ID-35","AREA":97.207}},
{"type":"Feature","geometry":{"type":"Polygon","coordinates":[[[88.3018803487789,22.5456905285235],[88.3019543449009,22.5456325491908],[88.3019085546319,22.5455874524921],[88.3019406729707,22.5455582876862],[88.3020348377899,22.5456332363526],[88.30179716994,22.5457507719381],[88.3018803487789,22.5456905285235]]]},"properties": {
    "floor": "ground","fill-opacity":0,"stroke-opacity":1,"stroke":"#ff0000","ID":"35-54","REMARKS":"POLYGON ID-35","AREA":102.544}},
{"type":"Feature","geometry":{"type":"Polygon","coordinates":[[[88.3019085546319,22.5455874524921],[88.3018859068275,22.5455651477103],[88.3018191914707,22.5454994427585],[88.3017525061414,22.545433767286],[88.3016858048108,22.5453680759608],[88.3016188656348,22.5453021502978],[88.3019406729707,22.5455582876862],[88.3019085546319,22.5455874524921]]]},"properties": {
    "floor": "ground","fill-opacity":0,"stroke-opacity":1,"stroke":"#ff0000","ID":"35-55","REMARKS":"POLYGON ID-35","AREA":100.272}},
{"type":"Feature","geometry":{"type":"Polygon","coordinates":[[[88.3004798384867,22.5464251414968],[88.3004168257942,22.5463599894436],[88.3004894831759,22.5462960489767],[88.3005542183942,22.5463598571967],[88.3004798384867,22.5464251414968]]]},"properties": {
    "floor": "ground","fill-opacity":0,"stroke-opacity":1,"stroke":"#ff0000","ID":"35-2","REMARKS":"POLYGON ID-35","AREA":100.971}},
{"type":"Feature","geometry":{"type":"Polygon","coordinates":[[[88.3006249826548,22.5462979135556],[88.3005600700549,22.5462339305228],[88.3006306568706,22.5461718120404],[88.300695746852,22.5462359698859],[88.300631425284,22.5462922739827],[88.3006249826548,22.5462979135556]]]},"properties": {
    "floor": "ground","fill-opacity":0,"stroke-opacity":1,"stroke":"#ff0000","ID":"35-5","REMARKS":"POLYGON ID-35","AREA":97.473}},
{"type":"Feature","geometry":{"type":"Polygon","coordinates":[[[88.3006612332623,22.5463226043931],[88.3005109978301,22.5464573587064],[88.3004798384867,22.5464251414968],[88.3005542183942,22.5463598571967],[88.3006249826548,22.5462979135556],[88.300631425284,22.5462922739827],[88.3006314687848,22.5462923187113],[88.3006612332623,22.5463226043931]]]},"properties": {
    "floor": "ground","fill-opacity":0,"stroke-opacity":1,"stroke":"#ff0000","ID":"35-1","REMARKS":"POLYGON ID-35","AREA":100.264}},
{"type":"Feature","geometry":{"type":"Polygon","coordinates":[[[88.3014776937147,22.5454263880312],[88.3015482797065,22.5453642691787],[88.3016150104689,22.5454300439255],[88.301544309179,22.545492049161],[88.3014776937147,22.5454263880312]]]},"properties": {
    "floor": "ground","fill-opacity":0,"stroke-opacity":1,"stroke":"#ff0000","ID":"35-48","REMARKS":"POLYGON ID-35","AREA":99.98}},
{"type":"Feature","geometry":{"type":"Polygon","coordinates":[[[88.300695746852,22.5462359698859],[88.3006306568706,22.5461718120404],[88.3007012436228,22.5461096935296],[88.3007665109858,22.5461740261876],[88.3007541600364,22.5461848445878],[88.300695746852,22.5462359698859]]]},"properties": {
    "floor": "ground","fill-opacity":0,"stroke-opacity":1,"stroke":"#ff0000","ID":"35-6","REMARKS":"POLYGON ID-35","AREA":97.742}},
{"type":"Feature","geometry":{"type":"Polygon","coordinates":[[[88.3008129231801,22.5462433121964],[88.3006677972872,22.546316716754],[88.3006612332623,22.5463226043931],[88.3006314687848,22.5462923187113],[88.300631425284,22.5462922739827],[88.300695746852,22.5462359698859],[88.3007541600364,22.5461848445878],[88.3008129231801,22.5462433121964]]]},"properties": {
    "floor": "ground","fill-opacity":0,"stroke-opacity":1,"stroke":"#ff0000","ID":"35-4","REMARKS":"POLYGON ID-35","AREA":114.328}},
{"type":"Feature","geometry":{"type":"Polygon","coordinates":[[[88.3010308957976,22.546066370787],[88.301045312102,22.546053751347],[88.3011158986015,22.5459916326648],[88.3011818963501,22.5460566849481],[88.3010765779967,22.5461099552828],[88.3010308957976,22.546066370787]]]},"properties": {
    "floor": "ground","fill-opacity":0,"stroke-opacity":1,"stroke":"#ff0000","ID":"35-14","REMARKS":"POLYGON ID-35","AREA":99.526}},
{"type":"Feature","geometry":{"type":"Polygon","coordinates":[[[88.3009130034994,22.5459233378262],[88.3009835899981,22.5458612192015],[88.3010492564703,22.5459259451372],[88.3009785369353,22.54598793266],[88.3009130034994,22.5459233378262]]]},"properties": {
    "floor": "ground","fill-opacity":0,"stroke-opacity":1,"stroke":"#ff0000","ID":"35-16","REMARKS":"POLYGON ID-35","AREA":98.371}},
{"type":"Feature","geometry":{"type":"Polygon","coordinates":[[[88.3010765779967,22.5461099552828],[88.300828705218,22.5462353296422],[88.3008218074156,22.5462285306376],[88.3008944078634,22.5461683969601],[88.3009037841501,22.5461776389447],[88.3009745481578,22.5461156951602],[88.3010308957976,22.546066370787],[88.3010765779967,22.5461099552828]]]},"properties": {
    "floor": "ground","fill-opacity":0,"stroke-opacity":1,"stroke":"#ff0000","ID":"35-9","REMARKS":"POLYGON ID-35","AREA":100.506}},
{"type":"Feature","geometry":{"type":"Polygon","coordinates":[[[88.3007665109858,22.5461740261876],[88.3007012436228,22.5461096935296],[88.3007718303117,22.5460475749902],[88.3008370976751,22.5461119076199],[88.3007665109858,22.5461740261876]]]},"properties": {
    "floor": "ground","fill-opacity":0,"stroke-opacity":1,"stroke":"#ff0000","ID":"35-8","REMARKS":"POLYGON ID-35","AREA":97.872}},
{"type":"Feature","geometry":{"type":"Polygon","coordinates":[[[88.3008944078634,22.5461683969601],[88.3008218074156,22.5462285306376],[88.300828705218,22.5462353296422],[88.3008129231801,22.5462433121964],[88.3007541600364,22.5461848445878],[88.3007665109858,22.5461740261876],[88.3008370976751,22.5461119076199],[88.3008944078634,22.5461683969601]]]},"properties": {
    "floor": "ground","fill-opacity":0,"stroke-opacity":1,"stroke":"#ff0000","ID":"35-7","REMARKS":"POLYGON ID-35","AREA":100.495}},
{"type":"Feature","geometry":{"type":"Polygon","coordinates":[[[88.3009785369353,22.54598793266],[88.3010492564703,22.5459259451372],[88.3011158986015,22.5459916326648],[88.301045312102,22.546053751347],[88.3009785369353,22.54598793266]]]},"properties": {
    "floor": "ground","fill-opacity":0,"stroke-opacity":1,"stroke":"#ff0000","ID":"35-15","REMARKS":"POLYGON ID-35","AREA":100.033}},
{"type":"Feature","geometry":{"type":"Polygon","coordinates":[[[88.3016816920221,22.5454957700745],[88.3016151435048,22.5454301750554],[88.3016150104689,22.5454300439255],[88.3016857294335,22.5453680561454],[88.3016858048108,22.5453680759608],[88.3017525061414,22.545433767286],[88.3017524159145,22.5454337871221],[88.3016816920221,22.5454957700745]]]},"properties": {
    "floor": "ground","fill-opacity":0,"stroke-opacity":1,"stroke":"#ff0000","ID":"35-52","REMARKS":"POLYGON ID-35","AREA":100.058}},
{"type":"Feature","geometry":{"type":"Polygon","coordinates":[[[88.301544309179,22.545492049161],[88.3016150104689,22.5454300439255],[88.3016151435048,22.5454301750554],[88.3016816920221,22.5454957700745],[88.3016109680664,22.5455577529984],[88.301544309179,22.545492049161]]]},"properties": {
    "floor": "ground","fill-opacity":0,"stroke-opacity":1,"stroke":"#ff0000","ID":"35-47","REMARKS":"POLYGON ID-35","AREA":99.976}},
{"type":"Feature","geometry":{"type":"Polygon","coordinates":[[[88.3011199759419,22.5458639575858],[88.3010492564703,22.5459259451372],[88.3009835899981,22.5458612192015],[88.3010541764335,22.5457991005483],[88.3011199759419,22.5458639575858]]]},"properties": {
    "floor": "ground","fill-opacity":0,"stroke-opacity":1,"stroke":"#ff0000","ID":"35-19","REMARKS":"POLYGON ID-35","AREA":98.57}},
{"type":"Feature","geometry":{"type":"Polygon","coordinates":[[[88.3011906953502,22.5458019700058],[88.3011199759419,22.5458639575858],[88.3010541764335,22.5457991005483],[88.3011247628055,22.5457369818666],[88.3011906953502,22.5458019700058]]]},"properties": {
    "floor": "ground","fill-opacity":0,"stroke-opacity":1,"stroke":"#ff0000","ID":"35-23","REMARKS":"POLYGON ID-35","AREA":98.77}},
{"type":"Feature","geometry":{"type":"Polygon","coordinates":[[[88.3012615033857,22.5457400698173],[88.3011906953502,22.5458019700058],[88.3011247628055,22.5457369818666],[88.3011953491141,22.5456748631565],[88.3012615033857,22.5457400698173]]]},"properties": {
    "floor": "ground","fill-opacity":0,"stroke-opacity":1,"stroke":"#ff0000","ID":"35-26","REMARKS":"POLYGON ID-35","AREA":99.036}},
{"type":"Feature","geometry":{"type":"Polygon","coordinates":[[[88.3013322049291,22.5456780646961],[88.3013321516499,22.5456781114219],[88.3012615033857,22.5457400698173],[88.3011953491141,22.5456748631565],[88.3012659353593,22.5456127444179],[88.3013322049291,22.5456780646961]]]},"properties": {
    "floor": "ground","fill-opacity":0,"stroke-opacity":1,"stroke":"#ff0000","ID":"35-30","REMARKS":"POLYGON ID-35","AREA":99.288}},
{"type":"Feature","geometry":{"type":"Polygon","coordinates":[[[88.3014029064091,22.5456160595463],[88.3013322049291,22.5456780646961],[88.3012659353593,22.5456127444179],[88.3013365215412,22.5455506256508],[88.3014029064091,22.5456160595463]]]},"properties": {
    "floor": "ground","fill-opacity":0,"stroke-opacity":1,"stroke":"#ff0000","ID":"35-34","REMARKS":"POLYGON ID-35","AREA":99.461}},
{"type":"Feature","geometry":{"type":"Polygon","coordinates":[[[88.3014736078257,22.545554054368],[88.3014029064091,22.5456160595463],[88.3013365215412,22.5455506256508],[88.3014071076597,22.5454885068552],[88.3014736078257,22.545554054368]]]},"properties": {
    "floor": "ground","fill-opacity":0,"stroke-opacity":1,"stroke":"#ff0000","ID":"35-39","REMARKS":"POLYGON ID-35","AREA":99.634}},
{"type":"Feature","geometry":{"type":"Polygon","coordinates":[[[88.301544309179,22.545492049161],[88.3014736078257,22.545554054368],[88.3014071076597,22.5454885068552],[88.3014776937147,22.5454263880312],[88.301544309179,22.545492049161]]]},"properties": {
    "floor": "ground","fill-opacity":0,"stroke-opacity":1,"stroke":"#ff0000","ID":"35-43","REMARKS":"POLYGON ID-35","AREA":99.807}},
{"type":"Feature","geometry":{"type":"Polygon","coordinates":[[[88.3009078173369,22.5460499201543],[88.3008370976751,22.5461119076199],[88.3007718303117,22.5460475749902],[88.3008424169372,22.5459854564224],[88.3008424169372,22.5459854564225],[88.3009078173369,22.5460499201543]]]},"properties": {
    "floor": "ground","fill-opacity":0,"stroke-opacity":1,"stroke":"#ff0000","ID":"35-11","REMARKS":"POLYGON ID-35","AREA":97.972}},
{"type":"Feature","geometry":{"type":"Polygon","coordinates":[[[88.3009785369353,22.54598793266],[88.3009078173369,22.5460499201543],[88.3008424169372,22.5459854564225],[88.3008424169372,22.5459854564224],[88.3009130034994,22.5459233378262],[88.3009785369353,22.54598793266]]]},"properties": {
    "floor": "ground","fill-opacity":0,"stroke-opacity":1,"stroke":"#ff0000","ID":"35-13","REMARKS":"POLYGON ID-35","AREA":98.171}},
{"type":"Feature","geometry":{"type":"Polygon","coordinates":[[[88.3017483746242,22.5455614971637],[88.3016818299854,22.545495906061],[88.3016816920221,22.5454957700745],[88.3017524159145,22.5454337871221],[88.3017525061414,22.545433767286],[88.3018191914707,22.5454994427585],[88.3018191024589,22.5454995180675],[88.3017483746242,22.5455614971637]]]},"properties": {
    "floor": "ground","fill-opacity":0,"stroke-opacity":1,"stroke":"#ff0000","ID":"35-51","REMARKS":"POLYGON ID-35","AREA":100.1}},
{"type":"Feature","geometry":{"type":"Polygon","coordinates":[[[88.3016109680664,22.5455577529984],[88.3016816920221,22.5454957700745],[88.3016818299854,22.545495906061],[88.3017483746242,22.5455614971637],[88.3016776467262,22.5456234762312],[88.3016109680664,22.5455577529984]]]},"properties": {
    "floor": "ground","fill-opacity":0,"stroke-opacity":1,"stroke":"#ff0000","ID":"35-46","REMARKS":"POLYGON ID-35","AREA":99.991}},
{"type":"Feature","geometry":{"type":"Polygon","coordinates":[[[88.3018859068275,22.5455651477103],[88.3019085546319,22.5455874524921],[88.301908436574,22.5455875596936],[88.3019543449009,22.5456325491908],[88.3018803487789,22.5456905285235],[88.3018152031369,22.5456273679787],[88.301815114446,22.5456272805589],[88.3018857890667,22.5455652489818],[88.3018859068275,22.5455651477103]]]},"properties": {
    "floor": "ground","fill-opacity":0,"stroke-opacity":1,"stroke":"#ff0000","ID":"35-49","REMARKS":"POLYGON ID-35","AREA":99.498}},
{"type":"Feature","geometry":{"type":"Polygon","coordinates":[[[88.3017402014964,22.5456930221548],[88.301744439762,22.5456893121073],[88.301815114446,22.5456272805589],[88.3018152031369,22.5456273679787],[88.3018803487789,22.5456905285235],[88.30179716994,22.5457507719381],[88.3017402014964,22.5456930221548]]]},"properties": {
    "floor": "ground","fill-opacity":0,"stroke-opacity":1,"stroke":"#ff0000","ID":"35-44","REMARKS":"POLYGON ID-35","AREA":98.275}},
{"type":"Feature","geometry":{"type":"Polygon","coordinates":[[[88.301815114446,22.5456272805589],[88.3017483746242,22.5455614971637],[88.3018191024589,22.5454995180675],[88.3018191914707,22.5454994427585],[88.3018859068275,22.5455651477103],[88.3018857890667,22.5455652489818],[88.301815114446,22.5456272805589]]]},"properties": {
    "floor": "ground","fill-opacity":0,"stroke-opacity":1,"stroke":"#ff0000","ID":"35-50","REMARKS":"POLYGON ID-35","AREA":100.184}},
{"type":"Feature","geometry":{"type":"Polygon","coordinates":[[[88.3016776467262,22.5456234762312],[88.3017483746242,22.5455614971637],[88.301815114446,22.5456272805589],[88.301744439762,22.5456893121073],[88.3016776467262,22.5456234762312]]]},"properties": {
    "floor": "ground","fill-opacity":0,"stroke-opacity":1,"stroke":"#ff0000","ID":"35-45","REMARKS":"POLYGON ID-35","AREA":100.12}},
{"type":"Feature","geometry":{"type":"Polygon","coordinates":[[[88.3009745481578,22.5461156951602],[88.3009037841501,22.5461776389447],[88.3008944078634,22.5461683969601],[88.3008370976751,22.5461119076199],[88.3009078173369,22.5460499201543],[88.3009745481578,22.5461156951602]]]},"properties": {
    "floor": "ground","fill-opacity":0,"stroke-opacity":1,"stroke":"#ff0000","ID":"35-10","REMARKS":"POLYGON ID-35","AREA":100.033}},
{"type":"Feature","geometry":{"type":"Polygon","coordinates":[[[88.301045312102,22.546053751347],[88.3010308957976,22.546066370787],[88.3009745481578,22.5461156951602],[88.3009078173369,22.5460499201543],[88.3009785369353,22.54598793266],[88.301045312102,22.546053751347]]]},"properties": {
    "floor": "ground","fill-opacity":0,"stroke-opacity":1,"stroke":"#ff0000","ID":"35-12","REMARKS":"POLYGON ID-35","AREA":100.1}},
{"type":"Feature","geometry":{"type":"Polygon","coordinates":[[[88.3014736078257,22.545554054368],[88.301544309179,22.545492049161],[88.3016109680664,22.5455577529984],[88.3015402440472,22.5456197358936],[88.3014736078257,22.545554054368]]]},"properties": {
    "floor": "ground","fill-opacity":0,"stroke-opacity":1,"stroke":"#ff0000","ID":"35-42","REMARKS":"POLYGON ID-35","AREA":99.942}},
{"type":"Feature","geometry":{"type":"Polygon","coordinates":[[[88.3015402440472,22.5456197358936],[88.3016109680664,22.5455577529984],[88.3016776467262,22.5456234762312],[88.3016069187647,22.5456854552701],[88.3015402440472,22.5456197358936]]]},"properties": {
    "floor": "ground","fill-opacity":0,"stroke-opacity":1,"stroke":"#ff0000","ID":"35-41","REMARKS":"POLYGON ID-35","AREA":99.985}},
{"type":"Feature","geometry":{"type":"Polygon","coordinates":[[[88.3016069187647,22.5456854552701],[88.3016776467262,22.5456234762312],[88.301744439762,22.5456893121073],[88.3017402014964,22.5456930221548],[88.3016736763237,22.5457512562074],[88.3016069187647,22.5456854552701]]]},"properties": {
    "floor": "ground","fill-opacity":0,"stroke-opacity":1,"stroke":"#ff0000","ID":"35-40","REMARKS":"POLYGON ID-35","AREA":100.133}},
{"type":"Feature","geometry":{"type":"Polygon","coordinates":[[[88.30179716994,22.5457507719381],[88.301429103029,22.5459327936406],[88.3015271454911,22.5458702122575],[88.3015321492569,22.5458751443216],[88.301602912822,22.5458132002788],[88.3016736763237,22.5457512562074],[88.3017402014964,22.5456930221548],[88.30179716994,22.5457507719381]]]},"properties": {
    "floor": "ground","fill-opacity":0,"stroke-opacity":1,"stroke":"#ff0000","ID":"35-35","REMARKS":"POLYGON ID-35","AREA":146.029}},
{"type":"Feature","geometry":{"type":"Polygon","coordinates":[[[88.3014029064091,22.5456160595463],[88.3014736078257,22.545554054368],[88.3015402440472,22.5456197358936],[88.3014695199647,22.5456817187603],[88.3014029064091,22.5456160595463]]]},"properties": {
    "floor": "ground","fill-opacity":0,"stroke-opacity":1,"stroke":"#ff0000","ID":"35-38","REMARKS":"POLYGON ID-35","AREA":99.908}},
{"type":"Feature","geometry":{"type":"Polygon","coordinates":[[[88.3014695199647,22.5456817187603],[88.3015402440472,22.5456197358936],[88.3016069187647,22.5456854552701],[88.3015361907399,22.5457474342805],[88.3014695199647,22.5456817187603]]]},"properties": {
    "floor": "ground","fill-opacity":0,"stroke-opacity":1,"stroke":"#ff0000","ID":"35-37","REMARKS":"POLYGON ID-35","AREA":99.979}},
{"type":"Feature","geometry":{"type":"Polygon","coordinates":[[[88.3015361907399,22.5457474342805],[88.3016069187647,22.5456854552701],[88.3016736763237,22.5457512562074],[88.301602912822,22.5458132002788],[88.3015361907399,22.5457474342805]]]},"properties": {
    "floor": "ground","fill-opacity":0,"stroke-opacity":1,"stroke":"#ff0000","ID":"35-36","REMARKS":"POLYGON ID-35","AREA":100.08}},
{"type":"Feature","geometry":{"type":"Polygon","coordinates":[[[88.3013321516499,22.5456781114219],[88.3013322049291,22.5456780646961],[88.3014029064091,22.5456160595463],[88.3014695199647,22.5456817187603],[88.3013987958188,22.5457437015984],[88.3013322670125,22.5456781258902],[88.3013321516499,22.5456781114219]]]},"properties": {
    "floor": "ground","fill-opacity":0,"stroke-opacity":1,"stroke":"#ff0000","ID":"35-33","REMARKS":"POLYGON ID-35","AREA":99.874}},
{"type":"Feature","geometry":{"type":"Polygon","coordinates":[[[88.3013987958188,22.5457437015984],[88.3014695199647,22.5456817187603],[88.3015361907399,22.5457474342805],[88.3014654626517,22.5458094132622],[88.3013987958188,22.5457437015984]]]},"properties": {
    "floor": "ground","fill-opacity":0,"stroke-opacity":1,"stroke":"#ff0000","ID":"35-32","REMARKS":"POLYGON ID-35","AREA":99.973}},
{"type":"Feature","geometry":{"type":"Polygon","coordinates":[[[88.3014654626517,22.5458094132622],[88.3015361907399,22.5457474342805],[88.301602912822,22.5458132002788],[88.3015321492569,22.5458751443216],[88.3015271454911,22.5458702122575],[88.3014654626517,22.5458094132622]]]},"properties": {
    "floor": "ground","fill-opacity":0,"stroke-opacity":1,"stroke":"#ff0000","ID":"35-31","REMARKS":"POLYGON ID-35","AREA":100.027}},
{"type":"Feature","geometry":{"type":"Polygon","coordinates":[[[88.3011906953502,22.5458019700058],[88.3012615033857,22.5457400698173],[88.3013280716096,22.5458056844079],[88.3012573473369,22.5458676671888],[88.3011906953502,22.5458019700058]]]},"properties": {
    "floor": "ground","fill-opacity":0,"stroke-opacity":1,"stroke":"#ff0000","ID":"35-25","REMARKS":"POLYGON ID-35","AREA":99.885}},
{"type":"Feature","geometry":{"type":"Polygon","coordinates":[[[88.3012573473369,22.5458676671888],[88.3013280716096,22.5458056844079],[88.3013948764053,22.5458715320875],[88.3013804513568,22.5458841592561],[88.301324112714,22.5459334760441],[88.3012573473369,22.5458676671888]]]},"properties": {
    "floor": "ground","fill-opacity":0,"stroke-opacity":1,"stroke":"#ff0000","ID":"35-24","REMARKS":"POLYGON ID-35","AREA":100.148}},
{"type":"Feature","geometry":{"type":"Polygon","coordinates":[[[88.3013804513568,22.5458841592561],[88.3013948764053,22.5458715320875],[88.3014654626517,22.5458094132622],[88.3015271454911,22.5458702122575],[88.301429103029,22.5459327936406],[88.3013804513568,22.5458841592561]]]},"properties": {
    "floor": "ground","fill-opacity":0,"stroke-opacity":1,"stroke":"#ff0000","ID":"35-27","REMARKS":"POLYGON ID-35","AREA":100.13}},
{"type":"Feature","geometry":{"type":"Polygon","coordinates":[[[88.3012615033857,22.5457400698173],[88.3013321516499,22.5456781114219],[88.3013322670125,22.5456781258902],[88.3013987958188,22.5457437015984],[88.3013280716096,22.5458056844079],[88.3012615033857,22.5457400698173]]]},"properties": {
    "floor": "ground","fill-opacity":0,"stroke-opacity":1,"stroke":"#ff0000","ID":"35-29","REMARKS":"POLYGON ID-35","AREA":99.84}},
{"type":"Feature","geometry":{"type":"Polygon","coordinates":[[[88.3013280716096,22.5458056844079],[88.3013987958188,22.5457437015984],[88.3014654626517,22.5458094132622],[88.3013948764053,22.5458715320875],[88.3013280716096,22.5458056844079]]]},"properties": {
    "floor": "ground","fill-opacity":0,"stroke-opacity":1,"stroke":"#ff0000","ID":"35-28","REMARKS":"POLYGON ID-35","AREA":100.074}},
{"type":"Feature","geometry":{"type":"Polygon","coordinates":[[[88.3011866230009,22.5459296499411],[88.3011158986015,22.5459916326648],[88.3010492564703,22.5459259451372],[88.3011199759419,22.5458639575858],[88.3011866230009,22.5459296499411]]]},"properties": {
    "floor": "ground","fill-opacity":0,"stroke-opacity":1,"stroke":"#ff0000","ID":"35-18","REMARKS":"POLYGON ID-35","AREA":99.937}},
{"type":"Feature","geometry":{"type":"Polygon","coordinates":[[[88.3012533489594,22.5459954199721],[88.3011853649993,22.5460549304933],[88.3011818963501,22.5460566849481],[88.3011158986015,22.5459916326648],[88.3011866230009,22.5459296499411],[88.3012533489594,22.5459954199721]]]},"properties": {
    "floor": "ground","fill-opacity":0,"stroke-opacity":1,"stroke":"#ff0000","ID":"35-17","REMARKS":"POLYGON ID-35","AREA":100.009}},
{"type":"Feature","geometry":{"type":"Polygon","coordinates":[[[88.3012573473369,22.5458676671888],[88.3011866230009,22.5459296499411],[88.3011199759419,22.5458639575858],[88.3011906953502,22.5458019700058],[88.3012573473369,22.5458676671888]]]},"properties": {
    "floor": "ground","fill-opacity":0,"stroke-opacity":1,"stroke":"#ff0000","ID":"35-22","REMARKS":"POLYGON ID-35","AREA":99.945}},
{"type":"Feature","geometry":{"type":"Polygon","coordinates":[[[88.301324112714,22.5459334760441],[88.3012533489594,22.5459954199721],[88.3011866230009,22.5459296499411],[88.3012573473369,22.5458676671888],[88.301324112714,22.5459334760441]]]},"properties": {
    "floor": "ground","fill-opacity":0,"stroke-opacity":1,"stroke":"#ff0000","ID":"35-21","REMARKS":"POLYGON ID-35","AREA":100.089}},
{"type":"Feature","geometry":{"type":"Polygon","coordinates":[[[88.301429103029,22.5459327936406],[88.3013273599585,22.5459831088476],[88.3011853649993,22.5460549304933],[88.3012533489594,22.5459954199721],[88.301324112714,22.5459334760441],[88.3013804513568,22.5458841592561],[88.301429103029,22.5459327936406]]]},"properties": {
    "floor": "ground","fill-opacity":0,"stroke-opacity":1,"stroke":"#ff0000","ID":"35-20","REMARKS":"POLYGON ID-35","AREA":100.392}}
]}