{"type":"FeatureCollection", "features": [
{"type":"Feature","geometry":{"type":"Polygon","coordinates":[[[88.3015353752169,22.5469946105547],[88.3015697833528,22.5470782631374],[88.3014807879448,22.5471103675993],[88.3014477510731,22.5470258196797],[88.3015353752169,22.5469946105547]]]},"properties": {
    "floor": "ground","fill-opacity":0,"stroke-opacity":1,"stroke":"#ff0000","ID":"38-30","REMARKS":"POLYGON ID-38","AREA":96.722}},
{"type":"Feature","geometry":{"type":"Polygon","coordinates":[[[88.3013601268876,22.5470570287586],[88.3013933009299,22.5471419278576],[88.301305813873,22.5471734880701],[88.3012725026604,22.5470882377915],[88.3013601268876,22.5470570287586]]]},"properties": {
    "floor": "ground","fill-opacity":0,"stroke-opacity":1,"stroke":"#ff0000","ID":"38-24","REMARKS":"POLYGON ID-38","AREA":96.696}},
{"type":"Feature","geometry":{"type":"Polygon","coordinates":[[[88.3014477510731,22.5470258196797],[88.3014807879448,22.5471103675993],[88.3013933009299,22.5471419278576],[88.3013601268876,22.5470570287586],[88.3014477510731,22.5470258196797]]]},"properties": {
    "floor": "ground","fill-opacity":0,"stroke-opacity":1,"stroke":"#ff0000","ID":"38-27","REMARKS":"POLYGON ID-38","AREA":96.296}},
{"type":"Feature","geometry":{"type":"Polygon","coordinates":[[[88.3011848783916,22.5471194467784],[88.301218326774,22.5472050482367],[88.3011308396331,22.5472366083575],[88.3010972540812,22.5471506557192],[88.3011848783916,22.5471194467784]]]},"properties": {
    "floor": "ground","fill-opacity":0,"stroke-opacity":1,"stroke":"#ff0000","ID":"38-18","REMARKS":"POLYGON ID-38","AREA":97.494}},
{"type":"Feature","geometry":{"type":"Polygon","coordinates":[[[88.3012725026604,22.5470882377915],[88.301305813873,22.5471734880701],[88.301218326774,22.5472050482367],[88.3011848783916,22.5471194467784],[88.3012725026604,22.5470882377915]]]},"properties": {
    "floor": "ground","fill-opacity":0,"stroke-opacity":1,"stroke":"#ff0000","ID":"38-21","REMARKS":"POLYGON ID-38","AREA":97.095}},
{"type":"Feature","geometry":{"type":"Polygon","coordinates":[[[88.3010096297291,22.5471818646141],[88.3010433524501,22.5472681684324],[88.3009558652251,22.5472997284615],[88.3009220053353,22.547213073463],[88.3010096297291,22.5471818646141]]]},"properties": {
    "floor": "ground","fill-opacity":0,"stroke-opacity":1,"stroke":"#ff0000","ID":"38-12","REMARKS":"POLYGON ID-38","AREA":98.292}},
{"type":"Feature","geometry":{"type":"Polygon","coordinates":[[[88.3010972540812,22.5471506557192],[88.3011308396331,22.5472366083575],[88.3010433524501,22.5472681684324],[88.3010096297291,22.5471818646141],[88.3010972540812,22.5471506557192]]]},"properties": {
    "floor": "ground","fill-opacity":0,"stroke-opacity":1,"stroke":"#ff0000","ID":"38-15","REMARKS":"POLYGON ID-38","AREA":97.893}},
{"type":"Feature","geometry":{"type":"Polygon","coordinates":[[[88.3008343808999,22.5472442822658],[88.3008683779581,22.5473312884448],[88.3007808906491,22.5473628483822],[88.3007467564228,22.5472754910227],[88.3008343808999,22.5472442822658]]]},"properties": {
    "floor": "ground","fill-opacity":0,"stroke-opacity":1,"stroke":"#ff0000","ID":"38-6","REMARKS":"POLYGON ID-38","AREA":99.09}},
{"type":"Feature","geometry":{"type":"Polygon","coordinates":[[[88.3009220053353,22.547213073463],[88.3009558652251,22.5472997284615],[88.3008683779581,22.5473312884448],[88.3008343808999,22.5472442822658],[88.3009220053353,22.547213073463]]]},"properties": {
    "floor": "ground","fill-opacity":0,"stroke-opacity":1,"stroke":"#ff0000","ID":"38-9","REMARKS":"POLYGON ID-38","AREA":98.691}},
{"type":"Feature","geometry":{"type":"Polygon","coordinates":[[[88.3007467564228,22.5472754910227],[88.3007808906491,22.5473628483822],[88.300693403298,22.5473944082737],[88.3006591319041,22.5473066997335],[88.3007467564228,22.5472754910227]]]},"properties": {
    "floor": "ground","fill-opacity":0,"stroke-opacity":1,"stroke":"#ff0000","ID":"38-3","REMARKS":"POLYGON ID-38","AREA":99.489}},
{"type":"Feature","geometry":{"type":"Polygon","coordinates":[[[88.3007276048867,22.5474819380386],[88.3006981327114,22.5474912227908],[88.3005972222027,22.5472287085452],[88.3006248605562,22.547218991183],[88.3006591319041,22.5473066997335],[88.300693403298,22.5473944082737],[88.3007276048867,22.5474819380386]]]},"properties": {
    "floor": "ground","fill-opacity":0,"stroke-opacity":1,"stroke":"#ff0000","ID":"38-1","REMARKS":"POLYGON ID-38","AREA":96.442}},
{"type":"Feature","geometry":{"type":"Polygon","coordinates":[[[88.3015697833528,22.5470782631374],[88.3016041915325,22.5471619157098],[88.3015146508776,22.5471970294498],[88.3014807879448,22.5471103675993],[88.3015697833528,22.5470782631374]]]},"properties": {
    "floor": "ground","fill-opacity":0,"stroke-opacity":1,"stroke":"#ff0000","ID":"38-29","REMARKS":"POLYGON ID-38","AREA":99.622}},
{"type":"Feature","geometry":{"type":"Polygon","coordinates":[[[88.3013933009299,22.5471419278576],[88.3014280949411,22.5472309726567],[88.3013415389603,22.5472649158189],[88.301305813873,22.5471734880701],[88.3013933009299,22.5471419278576]]]},"properties": {
    "floor": "ground","fill-opacity":0,"stroke-opacity":1,"stroke":"#ff0000","ID":"38-23","REMARKS":"POLYGON ID-38","AREA":102.562}},
{"type":"Feature","geometry":{"type":"Polygon","coordinates":[[[88.3014807879448,22.5471103675993],[88.3015146508776,22.5471970294498],[88.3014280949411,22.5472309726567],[88.3013933009299,22.5471419278576],[88.3014807879448,22.5471103675993]]]},"properties": {
    "floor": "ground","fill-opacity":0,"stroke-opacity":1,"stroke":"#ff0000","ID":"38-26","REMARKS":"POLYGON ID-38","AREA":99.854}},
{"type":"Feature","geometry":{"type":"Polygon","coordinates":[[[88.301218326774,22.5472050482367],[88.3012549692166,22.5472988238281],[88.3011683964868,22.5473327242644],[88.3011308396331,22.5472366083575],[88.301218326774,22.5472050482367]]]},"properties": {
    "floor": "ground","fill-opacity":0,"stroke-opacity":1,"stroke":"#ff0000","ID":"38-17","REMARKS":"POLYGON ID-38","AREA":107.915}},
{"type":"Feature","geometry":{"type":"Polygon","coordinates":[[[88.301305813873,22.5471734880701],[88.3013415389603,22.5472649158189],[88.301326256338,22.5472709089342],[88.3012549692166,22.5472988238281],[88.301218326774,22.5472050482367],[88.301305813873,22.5471734880701]]]},"properties": {
    "floor": "ground","fill-opacity":0,"stroke-opacity":1,"stroke":"#ff0000","ID":"38-20","REMARKS":"POLYGON ID-38","AREA":105.254}},
{"type":"Feature","geometry":{"type":"Polygon","coordinates":[[[88.3010433524501,22.5472681684324],[88.3010818237127,22.547366624656],[88.3010332023818,22.5473856638958],[88.3009942401995,22.5473979384161],[88.3009558652251,22.5472997284615],[88.3010433524501,22.5472681684324]]]},"properties": {
    "floor": "ground","fill-opacity":0,"stroke-opacity":1,"stroke":"#ff0000","ID":"38-11","REMARKS":"POLYGON ID-38","AREA":112.59}},
{"type":"Feature","geometry":{"type":"Polygon","coordinates":[[[88.3011308396331,22.5472366083575],[88.3011683964868,22.5473327242644],[88.3010818237127,22.547366624656],[88.3010433524501,22.5472681684324],[88.3011308396331,22.5472366083575]]]},"properties": {
    "floor": "ground","fill-opacity":0,"stroke-opacity":1,"stroke":"#ff0000","ID":"38-14","REMARKS":"POLYGON ID-38","AREA":110.575}},
{"type":"Feature","geometry":{"type":"Polygon","coordinates":[[[88.3008683779581,22.5473312884448],[88.3009053618001,22.5474259383378],[88.3008164833626,22.547453938212],[88.3007808906491,22.5473628483822],[88.3008683779581,22.5473312884448]]]},"properties": {
    "floor": "ground","fill-opacity":0,"stroke-opacity":1,"stroke":"#ff0000","ID":"38-5","REMARKS":"POLYGON ID-38","AREA":105.555}},
{"type":"Feature","geometry":{"type":"Polygon","coordinates":[[[88.3009558652251,22.5472997284615],[88.3009942401995,22.5473979384161],[88.3009053618001,22.5474259383378],[88.3008683779581,22.5473312884448],[88.3009558652251,22.5472997284615]]]},"properties": {
    "floor": "ground","fill-opacity":0,"stroke-opacity":1,"stroke":"#ff0000","ID":"38-8","REMARKS":"POLYGON ID-38","AREA":109.602}},
{"type":"Feature","geometry":{"type":"Polygon","coordinates":[[[88.3007808906491,22.5473628483822],[88.3008164833626,22.547453938212],[88.3007276048867,22.5474819380386],[88.300693403298,22.5473944082737],[88.3007808906491,22.5473628483822]]]},"properties": {
    "floor": "ground","fill-opacity":0,"stroke-opacity":1,"stroke":"#ff0000","ID":"38-2","REMARKS":"POLYGON ID-38","AREA":101.509}},
{"type":"Feature","geometry":{"type":"Polygon","coordinates":[[[88.3014477510731,22.5470258196797],[88.3014147185099,22.5469412826676],[88.301500967125,22.5469109579619],[88.3015353752169,22.5469946105547],[88.3014477510731,22.5470258196797]]]},"properties": {
    "floor": "ground","fill-opacity":0,"stroke-opacity":1,"stroke":"#ff0000","ID":"38-31","REMARKS":"POLYGON ID-38","AREA":95.059}},
{"type":"Feature","geometry":{"type":"Polygon","coordinates":[[[88.3012725026604,22.5470882377915],[88.3012391948092,22.5470029959943],[88.3013269566802,22.546972139354],[88.3013601268876,22.5470570287586],[88.3012725026604,22.5470882377915]]]},"properties": {
    "floor": "ground","fill-opacity":0,"stroke-opacity":1,"stroke":"#ff0000","ID":"38-25","REMARKS":"POLYGON ID-38","AREA":96.685}},
{"type":"Feature","geometry":{"type":"Polygon","coordinates":[[[88.3013601268876,22.5470570287586],[88.3013269566802,22.546972139354],[88.3014147185099,22.5469412826676],[88.3014477510731,22.5470258196797],[88.3013601268876,22.5470570287586]]]},"properties": {
    "floor": "ground","fill-opacity":0,"stroke-opacity":1,"stroke":"#ff0000","ID":"38-28","REMARKS":"POLYGON ID-38","AREA":96.285}},
{"type":"Feature","geometry":{"type":"Polygon","coordinates":[[[88.3010972540812,22.5471506557192],[88.3010636709433,22.5470647091362],[88.3011514328969,22.5470338525883],[88.3011848783916,22.5471194467784],[88.3010972540812,22.5471506557192]]]},"properties": {
    "floor": "ground","fill-opacity":0,"stroke-opacity":1,"stroke":"#ff0000","ID":"38-19","REMARKS":"POLYGON ID-38","AREA":97.486}},
{"type":"Feature","geometry":{"type":"Polygon","coordinates":[[[88.3011848783916,22.5471194467784],[88.3011514328969,22.5470338525883],[88.3012391948092,22.5470029959943],[88.3012725026604,22.5470882377915],[88.3011848783916,22.5471194467784]]]},"properties": {
    "floor": "ground","fill-opacity":0,"stroke-opacity":1,"stroke":"#ff0000","ID":"38-22","REMARKS":"POLYGON ID-38","AREA":97.086}},
{"type":"Feature","geometry":{"type":"Polygon","coordinates":[[[88.3009220053353,22.547213073463],[88.3008881469123,22.5471264220935],[88.3009759089484,22.5470955656379],[88.3010096297291,22.5471818646141],[88.3009220053353,22.547213073463]]]},"properties": {
    "floor": "ground","fill-opacity":0,"stroke-opacity":1,"stroke":"#ff0000","ID":"38-13","REMARKS":"POLYGON ID-38","AREA":98.287}},
{"type":"Feature","geometry":{"type":"Polygon","coordinates":[[[88.3010096297291,22.5471818646141],[88.3009759089484,22.5470955656379],[88.3010636709433,22.5470647091362],[88.3010972540812,22.5471506557192],[88.3010096297291,22.5471818646141]]]},"properties": {
    "floor": "ground","fill-opacity":0,"stroke-opacity":1,"stroke":"#ff0000","ID":"38-16","REMARKS":"POLYGON ID-38","AREA":97.887}},
{"type":"Feature","geometry":{"type":"Polygon","coordinates":[[[88.3007467564228,22.5472754910227],[88.3007126227162,22.547188134866],[88.3008003848349,22.5471572785028],[88.3008343808999,22.5472442822658],[88.3007467564228,22.5472754910227]]]},"properties": {
    "floor": "ground","fill-opacity":0,"stroke-opacity":1,"stroke":"#ff0000","ID":"38-7","REMARKS":"POLYGON ID-38","AREA":99.088}},
{"type":"Feature","geometry":{"type":"Polygon","coordinates":[[[88.3008343808999,22.5472442822658],[88.3008003848349,22.5471572785028],[88.3008881469123,22.5471264220935],[88.3009220053353,22.547213073463],[88.3008343808999,22.5472442822658]]]},"properties": {
    "floor": "ground","fill-opacity":0,"stroke-opacity":1,"stroke":"#ff0000","ID":"38-10","REMARKS":"POLYGON ID-38","AREA":98.688}},
{"type":"Feature","geometry":{"type":"Polygon","coordinates":[[[88.3006591319041,22.5473066997335],[88.3006248605562,22.547218991183],[88.3007126227162,22.547188134866],[88.3007467564228,22.5472754910227],[88.3006591319041,22.5473066997335]]]},"properties": {
    "floor": "ground","fill-opacity":0,"stroke-opacity":1,"stroke":"#ff0000","ID":"38-4","REMARKS":"POLYGON ID-38","AREA":99.489}}
]}