{"type":"FeatureCollection", "features": [
{"type":"Feature","geometry":{"type":"Polygon","coordinates":[[[88.2971306872614,22.5430926404521],[88.2970968559936,22.5430079641574],[88.297188012368,22.5429765356207],[88.2972218436817,22.5430612118943],[88.2971306872614,22.5430926404521]]]},"properties": {
    "floor": "ground","fill-opacity":0,"stroke-opacity":1,"stroke":"#ff0000","ID":"33-24","REMARKS":"POLYGON ID-33","AREA":100}},
{"type":"Feature","geometry":{"type":"Polygon","coordinates":[[[88.2971702388253,22.5432716850392],[88.297090230111,22.5429947753458],[88.2976437935844,22.5428193921895],[88.2975526374286,22.5428508209754],[88.297461481229,22.5428822497115],[88.2973703249857,22.5429136783977],[88.2972791686988,22.5429451070341],[88.297188012368,22.5429765356207],[88.2970968559936,22.5430079641574],[88.2971306872614,22.5430926404521],[88.2971645189241,22.5431773166159],[88.2971983502441,22.5432619929029],[88.2971702388253,22.5432716850392]]]},"properties": {
    "floor": "ground","fill-opacity":0,"stroke-opacity":1,"stroke":"#ff0000","ID":"33-9","REMARKS":"POLYGON ID-33","AREA":98.879}},
{"type":"Feature","geometry":{"type":"Polygon","coordinates":[[[88.2979855948822,22.5441946454224],[88.2977087590742,22.5442788928146],[88.297695486663,22.544246678683],[88.2977866436818,22.5442152497798],[88.2978778006569,22.5441838208267],[88.2979687491571,22.5441524636866],[88.2979855948822,22.5441946454224]]]},"properties": {
    "floor": "ground","fill-opacity":0,"stroke-opacity":1,"stroke":"#ff0000","ID":"33-25","REMARKS":"POLYGON ID-33","AREA":131.802}},
{"type":"Feature","geometry":{"type":"Polygon","coordinates":[[[88.2975864689257,22.5429354971646],[88.2975526374286,22.5428508209754],[88.2976437935844,22.5428193921895],[88.2976776226687,22.5429040692053],[88.2975864689257,22.5429354971646]]]},"properties": {
    "floor": "ground","fill-opacity":0,"stroke-opacity":1,"stroke":"#ff0000","ID":"33-101","REMARKS":"POLYGON ID-33","AREA":99.999}},
{"type":"Feature","geometry":{"type":"Polygon","coordinates":[[[88.2979687491571,22.5441524636866],[88.2980601144759,22.5441209627711],[88.2981512344393,22.5440895463841],[88.2981707157249,22.5441383086481],[88.2979855948822,22.5441946454224],[88.2979687491571,22.5441524636866]]]},"properties": {
    "floor": "ground","fill-opacity":0,"stroke-opacity":1,"stroke":"#ff0000","ID":"33-71","REMARKS":"POLYGON ID-33","AREA":107.502}},
{"type":"Feature","geometry":{"type":"Polygon","coordinates":[[[88.297495298785,22.5429669307126],[88.297461481229,22.5428822497115],[88.2975526374286,22.5428508209754],[88.2975864689257,22.5429354971646],[88.297495298785,22.5429669307126]]]},"properties": {
    "floor": "ground","fill-opacity":0,"stroke-opacity":1,"stroke":"#ff0000","ID":"33-86","REMARKS":"POLYGON ID-33","AREA":100.008}},
{"type":"Feature","geometry":{"type":"Polygon","coordinates":[[[88.297695486663,22.544246678683],[88.2976043296005,22.5442781075364],[88.2975704976796,22.5441934312778],[88.2975705001794,22.5441934305329],[88.2976616547373,22.5441620025484],[88.297695486663,22.544246678683]]]},"properties": {
    "floor": "ground","fill-opacity":0,"stroke-opacity":1,"stroke":"#ff0000","ID":"33-10","REMARKS":"POLYGON ID-33","AREA":100}},
{"type":"Feature","geometry":{"type":"Polygon","coordinates":[[[88.298117404743,22.5440048695073],[88.2981512344393,22.5440895463841],[88.2980601144759,22.5441209627711],[88.2980262823667,22.5440362867208],[88.298117404743,22.5440048695073]]]},"properties": {
    "floor": "ground","fill-opacity":0,"stroke-opacity":1,"stroke":"#ff0000","ID":"33-87","REMARKS":"POLYGON ID-33","AREA":99.961}},
{"type":"Feature","geometry":{"type":"Polygon","coordinates":[[[88.2980262823667,22.5440362867208],[88.2980601144759,22.5441209627711],[88.2979687491571,22.5441524636866],[88.2979349309893,22.5440677828244],[88.2980262823667,22.5440362867208]]]},"properties": {
    "floor": "ground","fill-opacity":0,"stroke-opacity":1,"stroke":"#ff0000","ID":"33-72","REMARKS":"POLYGON ID-33","AREA":100.221}},
{"type":"Feature","geometry":{"type":"Polygon","coordinates":[[[88.2976278228553,22.5440773264038],[88.2975366658846,22.5441087552149],[88.2975028340907,22.5440240790358],[88.2975028361996,22.5440240783127],[88.2975939910171,22.5439926502493],[88.2976278228553,22.5440773264038]]]},"properties": {
    "floor": "ground","fill-opacity":0,"stroke-opacity":1,"stroke":"#ff0000","ID":"33-12","REMARKS":"POLYGON ID-33","AREA":100}},
{"type":"Feature","geometry":{"type":"Polygon","coordinates":[[[88.2974115605912,22.5440553739118],[88.2975028340907,22.5440240790358],[88.2975366658846,22.5441087552149],[88.2974455085188,22.5441401840973],[88.2974116739623,22.5440555088694],[88.2974115605912,22.5440553739118]]]},"properties": {
    "floor": "ground","fill-opacity":0,"stroke-opacity":1,"stroke":"#ff0000","ID":"33-2","REMARKS":"POLYGON ID-33","AREA":100.092}},
{"type":"Feature","geometry":{"type":"Polygon","coordinates":[[[88.2979924503012,22.5439516106607],[88.2979586182795,22.5438669345906],[88.2980497454814,22.5438355157239],[88.2980835750903,22.5439201926206],[88.2979924503012,22.5439516106607]]]},"properties": {
    "floor": "ground","fill-opacity":0,"stroke-opacity":1,"stroke":"#ff0000","ID":"33-89","REMARKS":"POLYGON ID-33","AREA":99.966}},
{"type":"Feature","geometry":{"type":"Polygon","coordinates":[[[88.2979011128651,22.5439831019523],[88.2978672947847,22.5438984210702],[88.2979586182795,22.5438669345906],[88.2979924503012,22.5439516106607],[88.2979011128651,22.5439831019523]]]},"properties": {
    "floor": "ground","fill-opacity":0,"stroke-opacity":1,"stroke":"#ff0000","ID":"33-74","REMARKS":"POLYGON ID-33","AREA":100.191}},
{"type":"Feature","geometry":{"type":"Polygon","coordinates":[[[88.2976616547373,22.5441620025484],[88.2975705001794,22.5441934305329],[88.2975704976796,22.5441934312778],[88.2975366658846,22.5441087552149],[88.2976278228553,22.5440773264038],[88.2976616547373,22.5441620025484]]]},"properties": {
    "floor": "ground","fill-opacity":0,"stroke-opacity":1,"stroke":"#ff0000","ID":"33-11","REMARKS":"POLYGON ID-33","AREA":100}},
{"type":"Feature","geometry":{"type":"Polygon","coordinates":[[[88.2975366658846,22.5441087552149],[88.2975704976796,22.5441934312778],[88.2976043296005,22.5442781075364],[88.297695486663,22.544246678683],[88.2977087590742,22.5442788928146],[88.2975823274802,22.5443173686158],[88.2975292713171,22.5441275452609],[88.2974248078065,22.5441527383752],[88.2973980171438,22.5440600175379],[88.2974115605912,22.5440553739118],[88.2974116739623,22.5440555088694],[88.2974455085188,22.5441401840973],[88.2975366658846,22.5441087552149]]]},"properties": {
    "floor": "ground","fill-opacity":0,"stroke-opacity":1,"stroke":"#ff0000","ID":"33-1","REMARKS":"POLYGON ID-33","AREA":125.776}},
{"type":"Feature","geometry":{"type":"Polygon","coordinates":[[[88.2980835750903,22.5439201926206],[88.298117404743,22.5440048695073],[88.2980262823667,22.5440362867208],[88.2979924503012,22.5439516106607],[88.2980835750903,22.5439201926206]]]},"properties": {
    "floor": "ground","fill-opacity":0,"stroke-opacity":1,"stroke":"#ff0000","ID":"33-88","REMARKS":"POLYGON ID-33","AREA":99.964}},
{"type":"Feature","geometry":{"type":"Polygon","coordinates":[[[88.2979924503012,22.5439516106607],[88.2980262823667,22.5440362867208],[88.2979349309893,22.5440677828244],[88.2979011128651,22.5439831019523],[88.2979924503012,22.5439516106607]]]},"properties": {
    "floor": "ground","fill-opacity":0,"stroke-opacity":1,"stroke":"#ff0000","ID":"33-73","REMARKS":"POLYGON ID-33","AREA":100.206}},
{"type":"Feature","geometry":{"type":"Polygon","coordinates":[[[88.2973130000583,22.5430297832867],[88.2972791686988,22.5429451070341],[88.2973703249857,22.5429136783977],[88.2974041563911,22.5429983546292],[88.2973130000583,22.5430297832867]]]},"properties": {
    "floor": "ground","fill-opacity":0,"stroke-opacity":1,"stroke":"#ff0000","ID":"33-55","REMARKS":"POLYGON ID-33","AREA":100}},
{"type":"Feature","geometry":{"type":"Polygon","coordinates":[[[88.2978778006569,22.5441838208267],[88.2977866436818,22.5442152497798],[88.2977528117103,22.5441305736663],[88.2978439686395,22.5440991447343],[88.2978778006569,22.5441838208267]]]},"properties": {
    "floor": "ground","fill-opacity":0,"stroke-opacity":1,"stroke":"#ff0000","ID":"33-41","REMARKS":"POLYGON ID-33","AREA":100}},
{"type":"Feature","geometry":{"type":"Polygon","coordinates":[[[88.2978101366657,22.5440144686319],[88.2977189797824,22.5440458975428],[88.2976851478982,22.5439612214094],[88.2977763047357,22.5439297925197],[88.2978101366657,22.5440144686319]]]},"properties": {
    "floor": "ground","fill-opacity":0,"stroke-opacity":1,"stroke":"#ff0000","ID":"33-43","REMARKS":"POLYGON ID-33","AREA":100}},
{"type":"Feature","geometry":{"type":"Polygon","coordinates":[[[88.2978439686395,22.5440991447343],[88.2977528117103,22.5441305736663],[88.2977189797824,22.5440458975428],[88.2978101366657,22.5440144686319],[88.2978439686395,22.5440991447343]]]},"properties": {
    "floor": "ground","fill-opacity":0,"stroke-opacity":1,"stroke":"#ff0000","ID":"33-42","REMARKS":"POLYGON ID-33","AREA":100}},
{"type":"Feature","geometry":{"type":"Polygon","coordinates":[[[88.2972218436817,22.5430612118943],[88.297188012368,22.5429765356207],[88.2972791686988,22.5429451070341],[88.2973130000583,22.5430297832867],[88.2972218436817,22.5430612118943]]]},"properties": {
    "floor": "ground","fill-opacity":0,"stroke-opacity":1,"stroke":"#ff0000","ID":"33-40","REMARKS":"POLYGON ID-33","AREA":100}},
{"type":"Feature","geometry":{"type":"Polygon","coordinates":[[[88.2977866436818,22.5442152497798],[88.297695486663,22.544246678683],[88.2976616547373,22.5441620025484],[88.2977528117103,22.5441305736663],[88.2977866436818,22.5442152497798]]]},"properties": {
    "floor": "ground","fill-opacity":0,"stroke-opacity":1,"stroke":"#ff0000","ID":"33-26","REMARKS":"POLYGON ID-33","AREA":100}},
{"type":"Feature","geometry":{"type":"Polygon","coordinates":[[[88.2977189797824,22.5440458975428],[88.2976278228553,22.5440773264038],[88.2975939910171,22.5439926502493],[88.2976851478982,22.5439612214094],[88.2977189797824,22.5440458975428]]]},"properties": {
    "floor": "ground","fill-opacity":0,"stroke-opacity":1,"stroke":"#ff0000","ID":"33-28","REMARKS":"POLYGON ID-33","AREA":100}},
{"type":"Feature","geometry":{"type":"Polygon","coordinates":[[[88.2977528117103,22.5441305736663],[88.2976616547373,22.5441620025484],[88.2976278228553,22.5440773264038],[88.2977189797824,22.5440458975428],[88.2977528117103,22.5441305736663]]]},"properties": {
    "floor": "ground","fill-opacity":0,"stroke-opacity":1,"stroke":"#ff0000","ID":"33-27","REMARKS":"POLYGON ID-33","AREA":100}},
{"type":"Feature","geometry":{"type":"Polygon","coordinates":[[[88.2974041563911,22.5429983546292],[88.2973703249857,22.5429136783977],[88.297461481229,22.5428822497115],[88.297495298785,22.5429669307126],[88.2974041563911,22.5429983546292]]]},"properties": {
    "floor": "ground","fill-opacity":0,"stroke-opacity":1,"stroke":"#ff0000","ID":"33-70","REMARKS":"POLYGON ID-33","AREA":99.992}},
{"type":"Feature","geometry":{"type":"Polygon","coordinates":[[[88.2978439686395,22.5440991447343],[88.2979349309893,22.5440677828244],[88.2979687491571,22.5441524636866],[88.2978778006569,22.5441838208267],[88.2978439686395,22.5440991447343]]]},"properties": {
    "floor": "ground","fill-opacity":0,"stroke-opacity":1,"stroke":"#ff0000","ID":"33-56","REMARKS":"POLYGON ID-33","AREA":99.779}},
{"type":"Feature","geometry":{"type":"Polygon","coordinates":[[[88.2977763047357,22.5439297925197],[88.2978672947847,22.5438984210702],[88.2979011128651,22.5439831019523],[88.2978101366657,22.5440144686319],[88.2977763047357,22.5439297925197]]]},"properties": {
    "floor": "ground","fill-opacity":0,"stroke-opacity":1,"stroke":"#ff0000","ID":"33-58","REMARKS":"POLYGON ID-33","AREA":99.809}},
{"type":"Feature","geometry":{"type":"Polygon","coordinates":[[[88.2978101366657,22.5440144686319],[88.2979011128651,22.5439831019523],[88.2979349309893,22.5440677828244],[88.2978439686395,22.5440991447343],[88.2978101366657,22.5440144686319]]]},"properties": {
    "floor": "ground","fill-opacity":0,"stroke-opacity":1,"stroke":"#ff0000","ID":"33-57","REMARKS":"POLYGON ID-33","AREA":99.794}},
{"type":"Feature","geometry":{"type":"Polygon","coordinates":[[[88.297198349928,22.5432619930119],[88.2971645185075,22.5431773165736],[88.2971645189241,22.5431773166159],[88.297255675039,22.5431458881581],[88.2972895064401,22.5432305644118],[88.2971983530892,22.543261991922],[88.297198349928,22.5432619930119]]]},"properties": {
    "floor": "ground","fill-opacity":0,"stroke-opacity":1,"stroke":"#ff0000","ID":"33-22","REMARKS":"POLYGON ID-33","AREA":100}},
{"type":"Feature","geometry":{"type":"Polygon","coordinates":[[[88.2976541320511,22.5431048495133],[88.2976203004665,22.5430201733439],[88.2977114517967,22.5429887462112],[88.2977452809685,22.5430734232071],[88.2976541320511,22.5431048495133]]]},"properties": {
    "floor": "ground","fill-opacity":0,"stroke-opacity":1,"stroke":"#ff0000","ID":"33-99","REMARKS":"POLYGON ID-33","AREA":99.993}},
{"type":"Feature","geometry":{"type":"Polygon","coordinates":[[[88.2975629340279,22.5431362926851],[88.2975291163846,22.5430516117038],[88.2976203004665,22.5430201733439],[88.2976541320511,22.5431048495133],[88.2975629340279,22.5431362926851]]]},"properties": {
    "floor": "ground","fill-opacity":0,"stroke-opacity":1,"stroke":"#ff0000","ID":"33-84","REMARKS":"POLYGON ID-33","AREA":100.038}},
{"type":"Feature","geometry":{"type":"Polygon","coordinates":[[[88.2973806629084,22.543199135762],[88.2973468314615,22.5431144595293],[88.2974379878402,22.5430830308507],[88.297471819333,22.5431677070623],[88.2973806629084,22.543199135762]]]},"properties": {
    "floor": "ground","fill-opacity":0,"stroke-opacity":1,"stroke":"#ff0000","ID":"33-53","REMARKS":"POLYGON ID-33","AREA":100}},
{"type":"Feature","geometry":{"type":"Polygon","coordinates":[[[88.2972895064401,22.5432305644118],[88.297255675039,22.5431458881581],[88.2973468314615,22.5431144595293],[88.2973806629084,22.543199135762],[88.2972895064401,22.5432305644118]]]},"properties": {
    "floor": "ground","fill-opacity":0,"stroke-opacity":1,"stroke":"#ff0000","ID":"33-38","REMARKS":"POLYGON ID-33","AREA":100}},
{"type":"Feature","geometry":{"type":"Polygon","coordinates":[[[88.297471819333,22.5431677070623],[88.2974379878402,22.5430830308507],[88.2975291163846,22.5430516117038],[88.2975629340279,22.5431362926851],[88.297471819333,22.5431677070623]]]},"properties": {
    "floor": "ground","fill-opacity":0,"stroke-opacity":1,"stroke":"#ff0000","ID":"33-68","REMARKS":"POLYGON ID-33","AREA":99.962}},
{"type":"Feature","geometry":{"type":"Polygon","coordinates":[[[88.2971645185075,22.5431773165736],[88.2971306872614,22.5430926404521],[88.2972218436817,22.5430612118943],[88.297255675039,22.5431458881581],[88.2971645189241,22.5431773166159],[88.2971645185075,22.5431773165736]]]},"properties": {
    "floor": "ground","fill-opacity":0,"stroke-opacity":1,"stroke":"#ff0000","ID":"33-23","REMARKS":"POLYGON ID-33","AREA":100}},
{"type":"Feature","geometry":{"type":"Polygon","coordinates":[[[88.2976203004665,22.5430201733439],[88.2975864689257,22.5429354971646],[88.2976776226687,22.5429040692053],[88.2977114517967,22.5429887462112],[88.2976203004665,22.5430201733439]]]},"properties": {
    "floor": "ground","fill-opacity":0,"stroke-opacity":1,"stroke":"#ff0000","ID":"33-100","REMARKS":"POLYGON ID-33","AREA":99.996}},
{"type":"Feature","geometry":{"type":"Polygon","coordinates":[[[88.2975291163846,22.5430516117038],[88.297495298785,22.5429669307126],[88.2975864689257,22.5429354971646],[88.2976203004665,22.5430201733439],[88.2975291163846,22.5430516117038]]]},"properties": {
    "floor": "ground","fill-opacity":0,"stroke-opacity":1,"stroke":"#ff0000","ID":"33-85","REMARKS":"POLYGON ID-33","AREA":100.023}},
{"type":"Feature","geometry":{"type":"Polygon","coordinates":[[[88.2973468314615,22.5431144595293],[88.2973130000583,22.5430297832867],[88.2974041563911,22.5429983546292],[88.2974379878402,22.5430830308507],[88.2973468314615,22.5431144595293]]]},"properties": {
    "floor": "ground","fill-opacity":0,"stroke-opacity":1,"stroke":"#ff0000","ID":"33-54","REMARKS":"POLYGON ID-33","AREA":100}},
{"type":"Feature","geometry":{"type":"Polygon","coordinates":[[[88.297255675039,22.5431458881581],[88.2972218436817,22.5430612118943],[88.2973130000583,22.5430297832867],[88.2973468314615,22.5431144595293],[88.297255675039,22.5431458881581]]]},"properties": {
    "floor": "ground","fill-opacity":0,"stroke-opacity":1,"stroke":"#ff0000","ID":"33-39","REMARKS":"POLYGON ID-33","AREA":100}},
{"type":"Feature","geometry":{"type":"Polygon","coordinates":[[[88.2974379878402,22.5430830308507],[88.2974041563911,22.5429983546292],[88.297495298785,22.5429669307126],[88.2975291163846,22.5430516117038],[88.2974379878402,22.5430830308507]]]},"properties": {
    "floor": "ground","fill-opacity":0,"stroke-opacity":1,"stroke":"#ff0000","ID":"33-69","REMARKS":"POLYGON ID-33","AREA":99.977}},
{"type":"Feature","geometry":{"type":"Polygon","coordinates":[[[88.2972296670469,22.5434773649482],[88.2971702388253,22.5432716850392],[88.2971983502441,22.5432619929029],[88.2972321820294,22.5433466690346],[88.297266013024,22.5434313461688],[88.297277905379,22.5434611113531],[88.2972296670469,22.5434773649482]]]},"properties": {
    "floor": "ground","fill-opacity":0,"stroke-opacity":1,"stroke":"#ff0000","ID":"33-8","REMARKS":"POLYGON ID-33","AREA":98.247}},
{"type":"Feature","geometry":{"type":"Polygon","coordinates":[[[88.297266013024,22.5434313461688],[88.2972321813609,22.5433466693617],[88.2972321820294,22.5433466690346],[88.2973233378849,22.5433152406557],[88.2973571693734,22.5433999168897],[88.297266016282,22.5434313443209],[88.297266013024,22.5434313461688]]]},"properties": {
    "floor": "ground","fill-opacity":0,"stroke-opacity":1,"stroke":"#ff0000","ID":"33-20","REMARKS":"POLYGON ID-33","AREA":100}},
{"type":"Feature","geometry":{"type":"Polygon","coordinates":[[[88.2977217953513,22.5432742018222],[88.2976879636794,22.5431895256727],[88.2977791101839,22.5431581001932],[88.2978129394431,22.5432427771692],[88.2977217953513,22.5432742018222]]]},"properties": {
    "floor": "ground","fill-opacity":0,"stroke-opacity":1,"stroke":"#ff0000","ID":"33-97","REMARKS":"POLYGON ID-33","AREA":99.988}},
{"type":"Feature","geometry":{"type":"Polygon","coordinates":[[[88.2976305694457,22.5433056546179],[88.297596751715,22.5432209736565],[88.2976879636794,22.5431895256727],[88.2977217953513,22.5432742018222],[88.2976305694457,22.5433056546179]]]},"properties": {
    "floor": "ground","fill-opacity":0,"stroke-opacity":1,"stroke":"#ff0000","ID":"33-82","REMARKS":"POLYGON ID-33","AREA":100.069}},
{"type":"Feature","geometry":{"type":"Polygon","coordinates":[[[88.2974483259334,22.5433684881976],[88.2974144943991,22.5432838119847],[88.2975056508696,22.5432523832639],[88.2975394824498,22.5433370594556],[88.2974483259334,22.5433684881976]]]},"properties": {
    "floor": "ground","fill-opacity":0,"stroke-opacity":1,"stroke":"#ff0000","ID":"33-51","REMARKS":"POLYGON ID-33","AREA":100}},
{"type":"Feature","geometry":{"type":"Polygon","coordinates":[[[88.2973571693734,22.5433999168897],[88.2973233378849,22.5433152406557],[88.2974144943991,22.5432838119847],[88.2974483259334,22.5433684881976],[88.2973571693734,22.5433999168897]]]},"properties": {
    "floor": "ground","fill-opacity":0,"stroke-opacity":1,"stroke":"#ff0000","ID":"33-36","REMARKS":"POLYGON ID-33","AREA":100}},
{"type":"Feature","geometry":{"type":"Polygon","coordinates":[[[88.2975394824498,22.5433370594556],[88.2975056508696,22.5432523832639],[88.297596751715,22.5432209736565],[88.2976305694457,22.5433056546179],[88.2975394824498,22.5433370594556]]]},"properties": {
    "floor": "ground","fill-opacity":0,"stroke-opacity":1,"stroke":"#ff0000","ID":"33-66","REMARKS":"POLYGON ID-33","AREA":99.931}},
{"type":"Feature","geometry":{"type":"Polygon","coordinates":[[[88.2972321813609,22.5433466693617],[88.297198349928,22.5432619930119],[88.2971983530892,22.543261991922],[88.2972895064401,22.5432305644118],[88.2973233378849,22.5433152406557],[88.2972321820294,22.5433466690346],[88.2972321813609,22.5433466693617]]]},"properties": {
    "floor": "ground","fill-opacity":0,"stroke-opacity":1,"stroke":"#ff0000","ID":"33-21","REMARKS":"POLYGON ID-33","AREA":100}},
{"type":"Feature","geometry":{"type":"Polygon","coordinates":[[[88.2976879636794,22.5431895256727],[88.2976541320511,22.5431048495133],[88.2977452809685,22.5430734232071],[88.2977791101839,22.5431581001932],[88.2976879636794,22.5431895256727]]]},"properties": {
    "floor": "ground","fill-opacity":0,"stroke-opacity":1,"stroke":"#ff0000","ID":"33-98","REMARKS":"POLYGON ID-33","AREA":99.991}},
{"type":"Feature","geometry":{"type":"Polygon","coordinates":[[[88.297596751715,22.5432209736565],[88.2975629340279,22.5431362926851],[88.2976541320511,22.5431048495133],[88.2976879636794,22.5431895256727],[88.297596751715,22.5432209736565]]]},"properties": {
    "floor": "ground","fill-opacity":0,"stroke-opacity":1,"stroke":"#ff0000","ID":"33-83","REMARKS":"POLYGON ID-33","AREA":100.053}},
{"type":"Feature","geometry":{"type":"Polygon","coordinates":[[[88.2974144943991,22.5432838119847],[88.2973806629084,22.543199135762],[88.297471819333,22.5431677070623],[88.2975056508696,22.5432523832639],[88.2974144943991,22.5432838119847]]]},"properties": {
    "floor": "ground","fill-opacity":0,"stroke-opacity":1,"stroke":"#ff0000","ID":"33-52","REMARKS":"POLYGON ID-33","AREA":100}},
{"type":"Feature","geometry":{"type":"Polygon","coordinates":[[[88.2973233378849,22.5433152406557],[88.2972895064401,22.5432305644118],[88.2973806629084,22.543199135762],[88.2974144943991,22.5432838119847],[88.2973233378849,22.5433152406557]]]},"properties": {
    "floor": "ground","fill-opacity":0,"stroke-opacity":1,"stroke":"#ff0000","ID":"33-37","REMARKS":"POLYGON ID-33","AREA":100}},
{"type":"Feature","geometry":{"type":"Polygon","coordinates":[[[88.2975056508696,22.5432523832639],[88.297471819333,22.5431677070623],[88.2975629340279,22.5431362926851],[88.297596751715,22.5432209736565],[88.2975056508696,22.5432523832639]]]},"properties": {
    "floor": "ground","fill-opacity":0,"stroke-opacity":1,"stroke":"#ff0000","ID":"33-67","REMARKS":"POLYGON ID-33","AREA":99.947}},
{"type":"Feature","geometry":{"type":"Polygon","coordinates":[[[88.2972998445273,22.5435160224564],[88.297277905379,22.5434611113531],[88.297266013024,22.5434313461688],[88.297266016282,22.5434313443209],[88.2973571693734,22.5433999168897],[88.2973910009056,22.5434845931137],[88.2972998453096,22.5435160214137],[88.2972998445273,22.5435160224564]]]},"properties": {
    "floor": "ground","fill-opacity":0,"stroke-opacity":1,"stroke":"#ff0000","ID":"33-19","REMARKS":"POLYGON ID-33","AREA":100}},
{"type":"Feature","geometry":{"type":"Polygon","coordinates":[[[88.297755627067,22.5433588779618],[88.2977217953513,22.5432742018222],[88.2978129394431,22.5432427771692],[88.297846768746,22.5433274541354],[88.297755627067,22.5433588779618]]]},"properties": {
    "floor": "ground","fill-opacity":0,"stroke-opacity":1,"stroke":"#ff0000","ID":"33-96","REMARKS":"POLYGON ID-33","AREA":99.985}},
{"type":"Feature","geometry":{"type":"Polygon","coordinates":[[[88.2976643872202,22.5433903355695],[88.2976305694457,22.5433056546179],[88.2977217953513,22.5432742018222],[88.297755627067,22.5433588779618],[88.2976643872202,22.5433903355695]]]},"properties": {
    "floor": "ground","fill-opacity":0,"stroke-opacity":1,"stroke":"#ff0000","ID":"33-81","REMARKS":"POLYGON ID-33","AREA":100.084}},
{"type":"Feature","geometry":{"type":"Polygon","coordinates":[[[88.2974821575115,22.5434531644005],[88.2974483259334,22.5433684881976],[88.2975394824498,22.5433370594556],[88.2975733140738,22.5434217356374],[88.2974821575115,22.5434531644005]]]},"properties": {
    "floor": "ground","fill-opacity":0,"stroke-opacity":1,"stroke":"#ff0000","ID":"33-50","REMARKS":"POLYGON ID-33","AREA":100}},
{"type":"Feature","geometry":{"type":"Polygon","coordinates":[[[88.2973910009056,22.5434845931137],[88.2973571693734,22.5433999168897],[88.2974483259334,22.5433684881976],[88.2974821575115,22.5434531644005],[88.2973910009056,22.5434845931137]]]},"properties": {
    "floor": "ground","fill-opacity":0,"stroke-opacity":1,"stroke":"#ff0000","ID":"33-35","REMARKS":"POLYGON ID-33","AREA":100}},
{"type":"Feature","geometry":{"type":"Polygon","coordinates":[[[88.2975733140738,22.5434217356374],[88.2975394824498,22.5433370594556],[88.2976305694457,22.5433056546179],[88.2976643872202,22.5433903355695],[88.2975733140738,22.5434217356374]]]},"properties": {
    "floor": "ground","fill-opacity":0,"stroke-opacity":1,"stroke":"#ff0000","ID":"33-65","REMARKS":"POLYGON ID-33","AREA":99.916}},
{"type":"Feature","geometry":{"type":"Polygon","coordinates":[[[88.2973727352501,22.5439725183271],[88.2973474403439,22.5438849739542],[88.2974351706385,22.5438547266582],[88.2974689799146,22.5439393467172],[88.2973727352501,22.5439725183271]]]},"properties": {
    "floor": "ground","fill-opacity":0,"stroke-opacity":1,"stroke":"#ff0000","ID":"33-4","REMARKS":"POLYGON ID-33","AREA":100.836}},
{"type":"Feature","geometry":{"type":"Polygon","coordinates":[[[88.2973675075561,22.5436853747289],[88.2973336747499,22.543600695419],[88.2973336786134,22.5436006940868],[88.2974248316181,22.5435692671666],[88.2974586641012,22.5436539455319],[88.2973675087648,22.5436853737531],[88.2973675075561,22.5436853747289]]]},"properties": {
    "floor": "ground","fill-opacity":0,"stroke-opacity":1,"stroke":"#ff0000","ID":"33-17","REMARKS":"POLYGON ID-33","AREA":100.003}},
{"type":"Feature","geometry":{"type":"Polygon","coordinates":[[[88.2978232906296,22.5435282302111],[88.2977894586538,22.5434435536592],[88.2978805980925,22.5434121310915],[88.2979144274829,22.5434968080379],[88.2978232906296,22.5435282302111]]]},"properties": {
    "floor": "ground","fill-opacity":0,"stroke-opacity":1,"stroke":"#ff0000","ID":"33-94","REMARKS":"POLYGON ID-33","AREA":99.98}},
{"type":"Feature","geometry":{"type":"Polygon","coordinates":[[[88.2977320229002,22.5435596974427],[88.2976982046929,22.5434750156461],[88.2977894586538,22.5434435536592],[88.2978232906296,22.5435282302111],[88.2977320229002,22.5435596974427]]]},"properties": {
    "floor": "ground","fill-opacity":0,"stroke-opacity":1,"stroke":"#ff0000","ID":"33-79","REMARKS":"POLYGON ID-33","AREA":100.115}},
{"type":"Feature","geometry":{"type":"Polygon","coordinates":[[[88.2975498207989,22.5436225167765],[88.2975159884426,22.5435378388645],[88.2976071452234,22.5435064105126],[88.2976409774529,22.5435910879712],[88.2975498207989,22.5436225167765]]]},"properties": {
    "floor": "ground","fill-opacity":0,"stroke-opacity":1,"stroke":"#ff0000","ID":"33-48","REMARKS":"POLYGON ID-33","AREA":100.002}},
{"type":"Feature","geometry":{"type":"Polygon","coordinates":[[[88.2974586641012,22.5436539455319],[88.2974248316181,22.5435692671666],[88.2975159884426,22.5435378388645],[88.2975498207989,22.5436225167765],[88.2974586641012,22.5436539455319]]]},"properties": {
    "floor": "ground","fill-opacity":0,"stroke-opacity":1,"stroke":"#ff0000","ID":"33-33","REMARKS":"POLYGON ID-33","AREA":100.002}},
{"type":"Feature","geometry":{"type":"Polygon","coordinates":[[[88.2976409774529,22.5435910879712],[88.2976071452234,22.5435064105126],[88.2976982046929,22.5434750156461],[88.2977320229002,22.5435596974427],[88.2976409774529,22.5435910879712]]]},"properties": {
    "floor": "ground","fill-opacity":0,"stroke-opacity":1,"stroke":"#ff0000","ID":"33-63","REMARKS":"POLYGON ID-33","AREA":99.887}},
{"type":"Feature","geometry":{"type":"Polygon","coordinates":[[[88.2972714966273,22.5436221358863],[88.2972296670469,22.5434773649482],[88.297277905379,22.5434611113531],[88.2972998445273,22.5435160224564],[88.2973336747499,22.543600695419],[88.2972714966273,22.5436221358863]]]},"properties": {
    "floor": "ground","fill-opacity":0,"stroke-opacity":1,"stroke":"#ff0000","ID":"33-7","REMARKS":"POLYGON ID-33","AREA":99.852}},
{"type":"Feature","geometry":{"type":"Polygon","coordinates":[[[88.2973336747499,22.543600695419],[88.2972998445273,22.5435160224564],[88.2972998453096,22.5435160214137],[88.2973910009056,22.5434845931137],[88.2974248316181,22.5435692671666],[88.2973336786134,22.5436006940868],[88.2973336747499,22.543600695419]]]},"properties": {
    "floor": "ground","fill-opacity":0,"stroke-opacity":1,"stroke":"#ff0000","ID":"33-18","REMARKS":"POLYGON ID-33","AREA":99.997}},
{"type":"Feature","geometry":{"type":"Polygon","coordinates":[[[88.2977894586538,22.5434435536592],[88.297755627067,22.5433588779618],[88.297846768746,22.5433274541354],[88.2978805980925,22.5434121310915],[88.2977894586538,22.5434435536592]]]},"properties": {
    "floor": "ground","fill-opacity":0,"stroke-opacity":1,"stroke":"#ff0000","ID":"33-95","REMARKS":"POLYGON ID-33","AREA":99.982}},
{"type":"Feature","geometry":{"type":"Polygon","coordinates":[[[88.2976982046929,22.5434750156461],[88.2976643872202,22.5433903355695],[88.297755627067,22.5433588779618],[88.2977894586538,22.5434435536592],[88.2976982046929,22.5434750156461]]]},"properties": {
    "floor": "ground","fill-opacity":0,"stroke-opacity":1,"stroke":"#ff0000","ID":"33-80","REMARKS":"POLYGON ID-33","AREA":100.098}},
{"type":"Feature","geometry":{"type":"Polygon","coordinates":[[[88.2975159884426,22.5435378388645],[88.2974821575115,22.5434531644005],[88.2975733140738,22.5434217356374],[88.2976071452234,22.5435064105126],[88.2975159884426,22.5435378388645]]]},"properties": {
    "floor": "ground","fill-opacity":0,"stroke-opacity":1,"stroke":"#ff0000","ID":"33-49","REMARKS":"POLYGON ID-33","AREA":99.998}},
{"type":"Feature","geometry":{"type":"Polygon","coordinates":[[[88.2974248316181,22.5435692671666],[88.2973910009056,22.5434845931137],[88.2974821575115,22.5434531644005],[88.2975159884426,22.5435378388645],[88.2974248316181,22.5435692671666]]]},"properties": {
    "floor": "ground","fill-opacity":0,"stroke-opacity":1,"stroke":"#ff0000","ID":"33-34","REMARKS":"POLYGON ID-33","AREA":99.998}},
{"type":"Feature","geometry":{"type":"Polygon","coordinates":[[[88.2976071452234,22.5435064105126],[88.2975733140738,22.5434217356374],[88.2976643872202,22.5433903355695],[88.2976982046929,22.5434750156461],[88.2976071452234,22.5435064105126]]]},"properties": {
    "floor": "ground","fill-opacity":0,"stroke-opacity":1,"stroke":"#ff0000","ID":"33-64","REMARKS":"POLYGON ID-33","AREA":99.9}},
{"type":"Feature","geometry":{"type":"Polygon","coordinates":[[[88.297401339259,22.5437700511579],[88.2973923867391,22.5437476441564],[88.2973675075561,22.5436853747289],[88.2973675087648,22.5436853737531],[88.2974586641012,22.5436539455319],[88.2974924957646,22.5437386217261],[88.2974013431922,22.5437700489996],[88.297401339259,22.5437700511579]]]},"properties": {
    "floor": "ground","fill-opacity":0,"stroke-opacity":1,"stroke":"#ff0000","ID":"33-16","REMARKS":"POLYGON ID-33","AREA":100}},
{"type":"Feature","geometry":{"type":"Polygon","coordinates":[[[88.2978571224765,22.5436129063209],[88.2978232906296,22.5435282302111],[88.2979144274829,22.5434968080379],[88.2979482569169,22.5435814849743],[88.2978571224765,22.5436129063209]]]},"properties": {
    "floor": "ground","fill-opacity":0,"stroke-opacity":1,"stroke":"#ff0000","ID":"33-93","REMARKS":"POLYGON ID-33","AREA":99.977}},
{"type":"Feature","geometry":{"type":"Polygon","coordinates":[[[88.2977658408058,22.5436443783645],[88.2977320229002,22.5435596974427],[88.2978232906296,22.5435282302111],[88.2978571224765,22.5436129063209],[88.2977658408058,22.5436443783645]]]},"properties": {
    "floor": "ground","fill-opacity":0,"stroke-opacity":1,"stroke":"#ff0000","ID":"33-78","REMARKS":"POLYGON ID-33","AREA":100.13}},
{"type":"Feature","geometry":{"type":"Polygon","coordinates":[[[88.2975836525082,22.5437071929496],[88.2975498207989,22.5436225167765],[88.2976409774529,22.5435910879712],[88.297674809208,22.5436757641232],[88.2975836525082,22.5437071929496]]]},"properties": {
    "floor": "ground","fill-opacity":0,"stroke-opacity":1,"stroke":"#ff0000","ID":"33-47","REMARKS":"POLYGON ID-33","AREA":100}},
{"type":"Feature","geometry":{"type":"Polygon","coordinates":[[[88.2974924957646,22.5437386217261],[88.2974586641012,22.5436539455319],[88.2975498207989,22.5436225167765],[88.2975836525082,22.5437071929496],[88.2974924957646,22.5437386217261]]]},"properties": {
    "floor": "ground","fill-opacity":0,"stroke-opacity":1,"stroke":"#ff0000","ID":"33-32","REMARKS":"POLYGON ID-33","AREA":100}},
{"type":"Feature","geometry":{"type":"Polygon","coordinates":[[[88.297674809208,22.5436757641232],[88.2976409774529,22.5435910879712],[88.2977320229002,22.5435596974427],[88.2977658408058,22.5436443783645],[88.297674809208,22.5436757641232]]]},"properties": {
    "floor": "ground","fill-opacity":0,"stroke-opacity":1,"stroke":"#ff0000","ID":"33-62","REMARKS":"POLYGON ID-33","AREA":99.87}},
{"type":"Feature","geometry":{"type":"Polygon","coordinates":[[[88.2973150241661,22.5437727830406],[88.2972714966273,22.5436221358863],[88.2973336747499,22.543600695419],[88.2973675075561,22.5436853747289],[88.2973923867391,22.5437476441564],[88.2973923864692,22.5437476446288],[88.2973150241661,22.5437727830406]]]},"properties": {
    "floor": "ground","fill-opacity":0,"stroke-opacity":1,"stroke":"#ff0000","ID":"33-6","REMARKS":"POLYGON ID-33","AREA":131.771}},
{"type":"Feature","geometry":{"type":"Polygon","coordinates":[[[88.2974689799146,22.5439393467172],[88.2974351706385,22.5438547266582],[88.2975263274717,22.5438232979104],[88.2975601405317,22.5439079273043],[88.2974689799146,22.5439393467172]]]},"properties": {
    "floor": "ground","fill-opacity":0,"stroke-opacity":1,"stroke":"#ff0000","ID":"33-14","REMARKS":"POLYGON ID-33","AREA":99.939}},
{"type":"Feature","geometry":{"type":"Polygon","coordinates":[[[88.2979247825631,22.5437822491542],[88.2978909543671,22.5436975824207],[88.2979820863947,22.5436661619008],[88.2980159159149,22.5437508388141],[88.2979247825631,22.5437822491542]]]},"properties": {
    "floor": "ground","fill-opacity":0,"stroke-opacity":1,"stroke":"#ff0000","ID":"33-91","REMARKS":"POLYGON ID-33","AREA":99.966}},
{"type":"Feature","geometry":{"type":"Polygon","coordinates":[[[88.2978334692684,22.543813721449],[88.2977996587551,22.5437290592763],[88.2978909543671,22.5436975824207],[88.2979247825631,22.5437822491542],[88.2978334692684,22.543813721449]]]},"properties": {
    "floor": "ground","fill-opacity":0,"stroke-opacity":1,"stroke":"#ff0000","ID":"33-76","REMARKS":"POLYGON ID-33","AREA":100.143}},
{"type":"Feature","geometry":{"type":"Polygon","coordinates":[[[88.2976513011051,22.5438765078416],[88.2976174842611,22.5437918691128],[88.2977086410068,22.5437604402653],[88.2977424616348,22.543845088329],[88.2976513011051,22.5438765078416]]]},"properties": {
    "floor": "ground","fill-opacity":0,"stroke-opacity":1,"stroke":"#ff0000","ID":"33-45","REMARKS":"POLYGON ID-33","AREA":99.961}},
{"type":"Feature","geometry":{"type":"Polygon","coordinates":[[[88.2975601405317,22.5439079273043],[88.2975263274717,22.5438232979104],[88.2976174842611,22.5437918691128],[88.2976513011051,22.5438765078416],[88.2975601405317,22.5439079273043]]]},"properties": {
    "floor": "ground","fill-opacity":0,"stroke-opacity":1,"stroke":"#ff0000","ID":"33-30","REMARKS":"POLYGON ID-33","AREA":99.95}},
{"type":"Feature","geometry":{"type":"Polygon","coordinates":[[[88.2977424616348,22.543845088329],[88.2977086410068,22.5437604402653],[88.2977996587551,22.5437290592763],[88.2978334692684,22.543813721449],[88.2977424616348,22.543845088329]]]},"properties": {
    "floor": "ground","fill-opacity":0,"stroke-opacity":1,"stroke":"#ff0000","ID":"33-60","REMARKS":"POLYGON ID-33","AREA":99.812}},
{"type":"Feature","geometry":{"type":"Polygon","coordinates":[[[88.2973474403439,22.5438849739542],[88.2973150241661,22.5437727830406],[88.2973923864692,22.5437476446288],[88.2973923867391,22.5437476441564],[88.297401339259,22.5437700511579],[88.2974351706385,22.5438547266582],[88.2973474403439,22.5438849739542]]]},"properties": {
    "floor": "ground","fill-opacity":0,"stroke-opacity":1,"stroke":"#ff0000","ID":"33-5","REMARKS":"POLYGON ID-33","AREA":114.908}},
{"type":"Feature","geometry":{"type":"Polygon","coordinates":[[[88.2974351706385,22.5438547266582],[88.297401339259,22.5437700511579],[88.2974013431922,22.5437700489996],[88.2974924957646,22.5437386217261],[88.2975263274717,22.5438232979104],[88.2974351706385,22.5438547266582]]]},"properties": {
    "floor": "ground","fill-opacity":0,"stroke-opacity":1,"stroke":"#ff0000","ID":"33-15","REMARKS":"POLYGON ID-33","AREA":100}},
{"type":"Feature","geometry":{"type":"Polygon","coordinates":[[[88.2978909543671,22.5436975824207],[88.2978571224765,22.5436129063209],[88.2979482569169,22.5435814849743],[88.2979820863947,22.5436661619008],[88.2978909543671,22.5436975824207]]]},"properties": {
    "floor": "ground","fill-opacity":0,"stroke-opacity":1,"stroke":"#ff0000","ID":"33-92","REMARKS":"POLYGON ID-33","AREA":99.974}},
{"type":"Feature","geometry":{"type":"Polygon","coordinates":[[[88.2977996587551,22.5437290592763],[88.2977658408058,22.5436443783645],[88.2978571224765,22.5436129063209],[88.2978909543671,22.5436975824207],[88.2977996587551,22.5437290592763]]]},"properties": {
    "floor": "ground","fill-opacity":0,"stroke-opacity":1,"stroke":"#ff0000","ID":"33-77","REMARKS":"POLYGON ID-33","AREA":100.145}},
{"type":"Feature","geometry":{"type":"Polygon","coordinates":[[[88.2976174842611,22.5437918691128],[88.2975836525082,22.5437071929496],[88.297674809208,22.5436757641232],[88.2977086410068,22.5437604402653],[88.2976174842611,22.5437918691128]]]},"properties": {
    "floor": "ground","fill-opacity":0,"stroke-opacity":1,"stroke":"#ff0000","ID":"33-46","REMARKS":"POLYGON ID-33","AREA":100}},
{"type":"Feature","geometry":{"type":"Polygon","coordinates":[[[88.2975263274717,22.5438232979104],[88.2974924957646,22.5437386217261],[88.2975836525082,22.5437071929496],[88.2976174842611,22.5437918691128],[88.2975263274717,22.5438232979104]]]},"properties": {
    "floor": "ground","fill-opacity":0,"stroke-opacity":1,"stroke":"#ff0000","ID":"33-31","REMARKS":"POLYGON ID-33","AREA":100}},
{"type":"Feature","geometry":{"type":"Polygon","coordinates":[[[88.2977086410068,22.5437604402653],[88.297674809208,22.5436757641232],[88.2977658408058,22.5436443783645],[88.2977996587551,22.5437290592763],[88.2977086410068,22.5437604402653]]]},"properties": {
    "floor": "ground","fill-opacity":0,"stroke-opacity":1,"stroke":"#ff0000","ID":"33-61","REMARKS":"POLYGON ID-33","AREA":99.855}},
{"type":"Feature","geometry":{"type":"Polygon","coordinates":[[[88.2974689799146,22.5439393467172],[88.2975028340907,22.5440240790358],[88.2974115605912,22.5440553739118],[88.2973980171438,22.5440600175379],[88.2973727352501,22.5439725183271],[88.2974689799146,22.5439393467172]]]},"properties": {
    "floor": "ground","fill-opacity":0,"stroke-opacity":1,"stroke":"#ff0000","ID":"33-3","REMARKS":"POLYGON ID-33","AREA":110.213}},
{"type":"Feature","geometry":{"type":"Polygon","coordinates":[[[88.2975601405317,22.5439079273043],[88.2975939910171,22.5439926502493],[88.2975028361996,22.5440240783127],[88.2975028340907,22.5440240790358],[88.2974689799146,22.5439393467172],[88.2975601405317,22.5439079273043]]]},"properties": {
    "floor": "ground","fill-opacity":0,"stroke-opacity":1,"stroke":"#ff0000","ID":"33-13","REMARKS":"POLYGON ID-33","AREA":100.061}},
{"type":"Feature","geometry":{"type":"Polygon","coordinates":[[[88.2980159159149,22.5437508388141],[88.2980497454814,22.5438355157239],[88.2979586182795,22.5438669345906],[88.2979247825631,22.5437822491542],[88.2980159159149,22.5437508388141]]]},"properties": {
    "floor": "ground","fill-opacity":0,"stroke-opacity":1,"stroke":"#ff0000","ID":"33-90","REMARKS":"POLYGON ID-33","AREA":99.975}},
{"type":"Feature","geometry":{"type":"Polygon","coordinates":[[[88.2979247825631,22.5437822491542],[88.2979586182795,22.5438669345906],[88.2978672947847,22.5438984210702],[88.2978334692684,22.543813721449],[88.2979247825631,22.5437822491542]]]},"properties": {
    "floor": "ground","fill-opacity":0,"stroke-opacity":1,"stroke":"#ff0000","ID":"33-75","REMARKS":"POLYGON ID-33","AREA":100.192}},
{"type":"Feature","geometry":{"type":"Polygon","coordinates":[[[88.2977424616348,22.543845088329],[88.2977763047357,22.5439297925197],[88.2976851478982,22.5439612214094],[88.2976513011051,22.5438765078416],[88.2977424616348,22.543845088329]]]},"properties": {
    "floor": "ground","fill-opacity":0,"stroke-opacity":1,"stroke":"#ff0000","ID":"33-44","REMARKS":"POLYGON ID-33","AREA":100.039}},
{"type":"Feature","geometry":{"type":"Polygon","coordinates":[[[88.2976513011051,22.5438765078416],[88.2976851478982,22.5439612214094],[88.2975939910171,22.5439926502493],[88.2975601405317,22.5439079273043],[88.2976513011051,22.5438765078416]]]},"properties": {
    "floor": "ground","fill-opacity":0,"stroke-opacity":1,"stroke":"#ff0000","ID":"33-29","REMARKS":"POLYGON ID-33","AREA":100.05}},
{"type":"Feature","geometry":{"type":"Polygon","coordinates":[[[88.2978334692684,22.543813721449],[88.2978672947847,22.5438984210702],[88.2977763047357,22.5439297925197],[88.2977424616348,22.543845088329],[88.2978334692684,22.543813721449]]]},"properties": {
    "floor": "ground","fill-opacity":0,"stroke-opacity":1,"stroke":"#ff0000","ID":"33-59","REMARKS":"POLYGON ID-33","AREA":99.852}}
]}