{
    "type": "FeatureCollection",
    "features": [
        {
            "type": "Feature",
            "geometry": {
                "type": "Polygon",
                "coordinates": [
                    [
                        [88.3135438950748, 22.529809630642 ],
                        [88.31351783888  , 22.529922563079 ],
                        [88.313748227325 , 22.5299619051951],
                        [88.3137725318042, 22.5298578210186],
                        [88.3135438950748, 22.529809630642 ]
                    ]
                ]
            },
            "properties": {
    "floor": "ground",
                "fill-opacity": 0,
                "stroke-opacity": 1,
                "stroke": "#ff0000",
                "ID": "27S-B4-H1",
                "REMARKS": "POLYGON-57"
            },
            "id": "p57.1"
        },
        {
            "type": "Feature",
            "geometry": {
                "type": "Polygon",
                "coordinates": [
                    [
                        [88.3134689594239, 22.5301344158128],
                        [88.3134489228706, 22.5302212579944],
                        [88.3136785088645, 22.5302604752029],
                        [88.3136992950516, 22.5301714581477],
                        [88.3134689594239, 22.5301344158128]
                    ]
                ]
            },
            "properties": {
    "floor": "ground",
                "fill-opacity": 0,
                "stroke-opacity": 1,
                "stroke": "#ff0000",
                "ID": "27S-B1-H1",
                "REMARKS": "POLYGON-57"
            },
            "id": "p57.2"
        },
        {
            "type": "Feature",
            "geometry": {
                "type": "Polygon",
                "coordinates": [
                    [
                        [88.3134928417103, 22.5300309055028],
                        [88.3134689594239, 22.5301344158128],
                        [88.3136992950516, 22.5301714581477],
                        [88.3137221771316, 22.53007346541  ],
                        [88.3134928417103, 22.5300309055028]
                    ]
                ]
            },
            "properties": {
    "floor": "ground",
                "fill-opacity": 0,
                "stroke-opacity": 1,
                "stroke": "#ff0000",
                "ID": "27S-B2-H1",
                "REMARKS": "POLYGON-57"
            },
            "id": "p57.3"
        },
        {
            "type": "Feature",
            "geometry": {
                "type": "Polygon",
                "coordinates": [
                    [
                        [88.31351783888  , 22.529922563079 ],
                        [88.3134928417103, 22.5300309055028],
                        [88.3137221771316, 22.53007346541  ],
                        [88.313748227325 , 22.5299619051951],
                        [88.31351783888  , 22.529922563079 ]
                    ]
                ]
            },
            "properties": {
    "floor": "ground",
                "fill-opacity": 0,
                "stroke-opacity": 1,
                "stroke": "#ff0000",
                "ID": "27S-B3-H1",
                "REMARKS": "POLYGON-57"
            },
            "id": "p57.4"
        },
        {
            "type": "Feature",
            "geometry": {
                "type": "Polygon",
                "coordinates": [
                    [
                        [88.3134489228706, 22.5302212579944],
                        [88.3134689594239, 22.5301344158128],
                        [88.3132769139687, 22.5301035312634],
                        [88.3132710761255, 22.5301420476235],
                        [88.3132625285856, 22.5301894186674],
                        [88.3134489228706, 22.5302212579944]
                    ]
                ]
            },
            "properties": {
    "floor": "ground",
                "fill-opacity": 0,
                "stroke-opacity": 1,
                "stroke": "#ff0000",
                "ID": "27S-B1-H2",
                "REMARKS": "POLYGON-57"
            },
            "id": "p57.5"
        },
        {
            "type": "Feature",
            "geometry": {
                "type": "Polygon",
                "coordinates": [
                    [
                        [88.3134689594239, 22.5301344158128],
                        [88.3134928417103, 22.5300309055028],
                        [88.3132948561367, 22.5299941634784],
                        [88.3132910203855, 22.5300104613051],
                        [88.3132769139687, 22.5301035312634],
                        [88.3134689594239, 22.5301344158128]
                    ]
                ]
            },
            "properties": {
    "floor": "ground",
                "fill-opacity": 0,
                "stroke-opacity": 1,
                "stroke": "#ff0000",
                "ID": "27S-B2-H2",
                "REMARKS": "POLYGON-57"
            },
            "id": "p57.6"
        },
        {
            "type": "Feature",
            "geometry": {
                "type": "Polygon",
                "coordinates": [
                    [
                        [88.3134928417103, 22.5300309055028],
                        [88.31351783888  , 22.529922563079 ],
                        [88.3133196718717, 22.5298887232332],
                        [88.3132948561367, 22.5299941634784],
                        [88.3134928417103, 22.5300309055028]
                    ]
                ]
            },
            "properties": {
    "floor": "ground",
                "fill-opacity": 0,
                "stroke-opacity": 1,
                "stroke": "#ff0000",
                "ID": "27S-B3-H2",
                "REMARKS": "POLYGON-57"
            },
            "id": "p57.7"
        },
        {
            "type": "Feature",
            "geometry": {
                "type": "Polygon",
                "coordinates": [
                    [
                        [88.31351783888  , 22.529922563079 ],
                        [88.3135438950748, 22.529809630642 ],
                        [88.3133480039853, 22.5297683421516],
                        [88.3133196718717, 22.5298887232332],
                        [88.31351783888  , 22.529922563079 ]
                    ]
                ]
            },
            "properties": {
    "floor": "ground",
                "fill-opacity": 0,
                "stroke-opacity": 1,
                "stroke": "#ff0000",
                "ID": "27S-B4-H2",
                "REMARKS": "POLYGON-57"
            },
            "id": "p57.8"
        }
    ]
}
