{
    "type": "FeatureCollection", 
    "features": [
        {
            "type": "Feature", 
            "geometry": {
                "type": "Polygon", 
                "coordinates": [
                    [
                        [88.3140758922766, 22.5356226786218], 
                        [88.3140868070994, 22.5356701729535], 
                        [88.3142622948474, 22.5356293826597], 
                        [88.3142515178641, 22.5355780106912], 
                        [88.3140758922766, 22.5356226786218]  
                    ]
                ]
            }, 
            "properties": {
    "floor": "first",
                "fill-opacity": 0, 
                "stroke-opacity": 1, 
                "stroke": "#ff0000", 
                "ID": "23F-B20-H2", 
                "REMARKS": "POLYGON-47"
            }, 
            "id": "p47.1"
        }, 
        {
            "type": "Feature", 
            "geometry": {
                "type": "Polygon", 
                "coordinates": [
                    [
                        [88.3144663543308, 22.5366020980269], 
                        [88.3144784108342, 22.5366595692405], 
                        [88.3146806940651, 22.5366262971168], 
                        [88.3146663295924, 22.5365642099996], 
                        [88.3144663543308, 22.5366020980269]  
                    ]
                ]
            }, 
            "properties": {
    "floor": "first",
                "fill-opacity": 0, 
                "stroke-opacity": 1, 
                "stroke": "#ff0000", 
                "ID": "LIFT", 
                "REMARKS": "POLYGON-47"
            }, 
            "id": "p47.2"
        }, 
        {
            "type": "Feature", 
            "geometry": {
                "type": "Polygon", 
                "coordinates": [
                    [
                        [88.3144533823428, 22.5365402628605], 
                        [88.3144663543308, 22.5366020980269], 
                        [88.3146663295924, 22.5365642099996], 
                        [88.3146513274891, 22.536499366871 ], 
                        [88.3144533823428, 22.5365402628605]  
                    ]
                ]
            }, 
            "properties": {
    "floor": "first",
                "fill-opacity": 0, 
                "stroke-opacity": 1, 
                "stroke": "#ff0000", 
                "ID": "LIFT", 
                "REMARKS": "POLYGON-47"
            }, 
            "id": "p47.3"
        }, 
        {
            "type": "Feature", 
            "geometry": {
                "type": "Polygon", 
                "coordinates": [
                    [
                        [88.3144409766664, 22.5364811272015], 
                        [88.3144533823428, 22.5365402628605], 
                        [88.3146513274891, 22.536499366871 ], 
                        [88.3146371275738, 22.536437991015 ], 
                        [88.3144409766664, 22.5364811272015]  
                    ]
                ]
            }, 
            "properties": {
    "floor": "first",
                "fill-opacity": 0, 
                "stroke-opacity": 1, 
                "stroke": "#ff0000", 
                "ID": "23F-B3-H1", 
                "REMARKS": "POLYGON-47"
            }, 
            "id": "p47.4"
        }, 
        {
            "type": "Feature", 
            "geometry": {
                "type": "Polygon", 
                "coordinates": [
                    [
                        [88.3144291549138, 22.5364247750032], 
                        [88.3144409766664, 22.5364811272015], 
                        [88.3146371275738, 22.536437991015 ], 
                        [88.3146249846432, 22.5363855060004], 
                        [88.3144291549138, 22.5364247750032]  
                    ]
                ]
            }, 
            "properties": {
    "floor": "first",
                "fill-opacity": 0, 
                "stroke-opacity": 1, 
                "stroke": "#ff0000", 
                "ID": "23F-B4-H1", 
                "REMARKS": "POLYGON-47"
            }, 
            "id": "p47.5"
        }, 
        {
            "type": "Feature", 
            "geometry": {
                "type": "Polygon", 
                "coordinates": [
                    [
                        [88.3144171918546, 22.536367749222 ], 
                        [88.3144291549138, 22.5364247750032], 
                        [88.3146249846432, 22.5363855060004], 
                        [88.3146108855326, 22.5363245658496], 
                        [88.3144171918546, 22.536367749222 ]  
                    ]
                ]
            }, 
            "properties": {
    "floor": "first",
                "fill-opacity": 0, 
                "stroke-opacity": 1, 
                "stroke": "#ff0000", 
                "ID": "23F-B5-H1", 
                "REMARKS": "POLYGON-47"
            }, 
            "id": "p47.6"
        }, 
        {
            "type": "Feature", 
            "geometry": {
                "type": "Polygon", 
                "coordinates": [
                    [
                        [88.3144042606868, 22.5363061086384], 
                        [88.3144171918546, 22.536367749222 ], 
                        [88.3146108855326, 22.5363245658496], 
                        [88.3145965521096, 22.5362626129371], 
                        [88.3144042606868, 22.5363061086384]  
                    ]
                ]
            }, 
            "properties": {
    "floor": "first",
                "fill-opacity": 0, 
                "stroke-opacity": 1, 
                "stroke": "#ff0000", 
                "ID": "23F-B6-H1", 
                "REMARKS": "POLYGON-47"
            }, 
            "id": "p47.7"
        }, 
        {
            "type": "Feature", 
            "geometry": {
                "type": "Polygon", 
                "coordinates": [
                    [
                        [88.3143917623741, 22.5362465313982], 
                        [88.3144042606868, 22.5363061086384], 
                        [88.3145965521096, 22.5362626129371], 
                        [88.3145829037564, 22.536203621081 ], 
                        [88.3143917623741, 22.5362465313982]  
                    ]
                ]
            }, 
            "properties": {
    "floor": "first",
                "fill-opacity": 0, 
                "stroke-opacity": 1, 
                "stroke": "#ff0000", 
                "ID": "23F-B7-H1", 
                "REMARKS": "POLYGON-47"
            }, 
            "id": "p47.8"
        }, 
        {
            "type": "Feature", 
            "geometry": {
                "type": "Polygon", 
                "coordinates": [
                    [
                        [88.3143811116011, 22.5361957610521], 
                        [88.3143917623741, 22.5362465313982], 
                        [88.3145829037564, 22.536203621081 ], 
                        [88.3145707392062, 22.5361510426211], 
                        [88.3143811116011, 22.5361957610521]  
                    ]
                ]
            }, 
            "properties": {
    "floor": "first",
                "fill-opacity": 0, 
                "stroke-opacity": 1, 
                "stroke": "#ff0000", 
                "ID": "23F-B8-H1", 
                "REMARKS": "POLYGON-47"
            }, 
            "id": "p47.9"
        }, 
        {
            "type": "Feature", 
            "geometry": {
                "type": "Polygon", 
                "coordinates": [
                    [
                        [88.3143694324367, 22.5361400885468], 
                        [88.3143811116011, 22.5361957610521], 
                        [88.3145707392062, 22.5361510426211], 
                        [88.3145571855858, 22.5360924602253], 
                        [88.3143694324367, 22.5361400885468]  
                    ]
                ]
            }, 
            "properties": {
    "floor": "first",
                "fill-opacity": 0, 
                "stroke-opacity": 1, 
                "stroke": "#ff0000", 
                "ID": "23F-B9-H1", 
                "REMARKS": "POLYGON-47"
            }, 
            "id": "p47.10"
        }, 
        {
            "type": "Feature", 
            "geometry": {
                "type": "Polygon", 
                "coordinates": [
                    [
                        [88.3143591353379, 22.5360910041031], 
                        [88.3143694324367, 22.5361400885468], 
                        [88.3145571855858, 22.5360924602253], 
                        [88.3145461025642, 22.5360445564229], 
                        [88.3143591353379, 22.5360910041031]  
                    ]
                ]
            }, 
            "properties": {
    "floor": "first",
                "fill-opacity": 0, 
                "stroke-opacity": 1, 
                "stroke": "#ff0000", 
                "ID": "23F-B10-H1", 
                "REMARKS": "POLYGON-47"
            }, 
            "id": "p47.11"
        }, 
        {
            "type": "Feature", 
            "geometry": {
                "type": "Polygon", 
                "coordinates": [
                    [
                        [88.3143468447506, 22.5360324170531], 
                        [88.3143591353379, 22.5360910041031], 
                        [88.3145461025642, 22.5360445564229], 
                        [88.3145327540466, 22.535986860537 ], 
                        [88.3143468447506, 22.5360324170531]  
                    ]
                ]
            }, 
            "properties": {
    "floor": "first",
                "fill-opacity": 0, 
                "stroke-opacity": 1, 
                "stroke": "#ff0000", 
                "ID": "23F-B11-H1", 
                "REMARKS": "POLYGON-47"
            }, 
            "id": "p47.12"
        }, 
        {
            "type": "Feature", 
            "geometry": {
                "type": "Polygon", 
                "coordinates": [
                    [
                        [88.3143363321024, 22.5359823051234], 
                        [88.3143468447506, 22.5360324170531], 
                        [88.3145327540466, 22.535986860537 ], 
                        [88.314520132274 , 22.5359323058385], 
                        [88.3143363321024, 22.5359823051234]  
                    ]
                ]
            }, 
            "properties": {
    "floor": "first",
                "fill-opacity": 0, 
                "stroke-opacity": 1, 
                "stroke": "#ff0000", 
                "ID": "23F-B12-H1", 
                "REMARKS": "POLYGON-47"
            }, 
            "id": "p47.13"
        }, 
        {
            "type": "Feature", 
            "geometry": {
                "type": "Polygon", 
                "coordinates": [
                    [
                        [88.3141561349046, 22.5359718432468], 
                        [88.3141690001448, 22.5360278245488], 
                        [88.3143363321024, 22.5359823051234], 
                        [88.3143251432707, 22.5359289699472], 
                        [88.3141561349046, 22.5359718432468]  
                    ]
                ]
            }, 
            "properties": {
    "floor": "first",
                "fill-opacity": 0, 
                "stroke-opacity": 1, 
                "stroke": "#ff0000", 
                "ID": "23F-B13-H2", 
                "REMARKS": "POLYGON-47"
            }, 
            "id": "p47.14"
        }, 
        {
            "type": "Feature", 
            "geometry": {
                "type": "Polygon", 
                "coordinates": [
                    [
                        [88.3141446964477, 22.5359220703941], 
                        [88.3141561349046, 22.5359718432468], 
                        [88.3143251432707, 22.5359289699472], 
                        [88.314314692491 , 22.5358791529336], 
                        [88.3141446964477, 22.5359220703941]  
                    ]
                ]
            }, 
            "properties": {
    "floor": "first",
                "fill-opacity": 0, 
                "stroke-opacity": 1, 
                "stroke": "#ff0000", 
                "ID": "23F-B14-H2", 
                "REMARKS": "POLYGON-47"
            }, 
            "id": "p47.15"
        }, 
        {
            "type": "Feature", 
            "geometry": {
                "type": "Polygon", 
                "coordinates": [
                    [
                        [88.3141317573503, 22.5358657677131], 
                        [88.3141446964477, 22.5359220703941], 
                        [88.314314692491 , 22.5358791529336], 
                        [88.3143030469695, 22.5358236407983], 
                        [88.3141317573503, 22.5358657677131]  
                    ]
                ]
            }, 
            "properties": {
    "floor": "first",
                "fill-opacity": 0, 
                "stroke-opacity": 1, 
                "stroke": "#ff0000", 
                "ID": "23F-B15-H2", 
                "REMARKS": "POLYGON-47"
            }, 
            "id": "p47.16"
        }, 
        {
            "type": "Feature", 
            "geometry": {
                "type": "Polygon", 
                "coordinates": [
                    [
                        [88.3142915444838, 22.5357688104887], 
                        [88.3143030469695, 22.5358236407983], 
                        [88.3144846577726, 22.5357789754948], 
                        [88.3144711931769, 22.535720777888 ], 
                        [88.3142915444838, 22.5357688104887]  
                    ]
                ]
            }, 
            "properties": {
    "floor": "first",
                "fill-opacity": 0, 
                "stroke-opacity": 1, 
                "stroke": "#ff0000", 
                "ID": "23F-B16-H1", 
                "REMARKS": "POLYGON-47"
            }, 
            "id": "p47.17"
        }, 
        {
            "type": "Feature", 
            "geometry": {
                "type": "Polygon", 
                "coordinates": [
                    [
                        [88.3141078368696, 22.5357616810711], 
                        [88.3141200149457, 22.5358146722742], 
                        [88.3142915444838, 22.5357688104887], 
                        [88.3142815201853, 22.5357210264356], 
                        [88.3141078368696, 22.5357616810711]  
                    ]
                ]
            }, 
            "properties": {
    "floor": "first",
                "fill-opacity": 0, 
                "stroke-opacity": 1, 
                "stroke": "#ff0000", 
                "ID": "23F-B17-H2", 
                "REMARKS": "POLYGON-47"
            }, 
            "id": "p47.18"
        }, 
        {
            "type": "Feature", 
            "geometry": {
                "type": "Polygon", 
                "coordinates": [
                    [
                        [88.3140977186038, 22.535717652846 ], 
                        [88.3141078368696, 22.5357616810711], 
                        [88.3142815201853, 22.5357210264356], 
                        [88.3142717593302, 22.5356744981705], 
                        [88.3140977186038, 22.535717652846 ]  
                    ]
                ]
            }, 
            "properties": {
    "floor": "first",
                "fill-opacity": 0, 
                "stroke-opacity": 1, 
                "stroke": "#ff0000", 
                "ID": "23F-B18-H2", 
                "REMARKS": "POLYGON-47"
            }, 
            "id": "p47.19"
        }, 
        {
            "type": "Feature", 
            "geometry": {
                "type": "Polygon", 
                "coordinates": [
                    [
                        [88.3140868070994, 22.5356701729535], 
                        [88.3140977186038, 22.535717652846 ], 
                        [88.3142717593302, 22.5356744981705], 
                        [88.3142622948474, 22.5356293826597], 
                        [88.3140868070994, 22.5356701729535]  
                    ]
                ]
            }, 
            "properties": {
    "floor": "first",
                "fill-opacity": 0, 
                "stroke-opacity": 1, 
                "stroke": "#ff0000", 
                "ID": "23F-B19-H2", 
                "REMARKS": "POLYGON-47"
            }, 
            "id": "p47.20"
        }, 
        {
            "type": "Feature", 
            "geometry": {
                "type": "Polygon", 
                "coordinates": [
                    [
                        [88.3143078760875, 22.5366321238809], 
                        [88.3143201651316, 22.5366855979456], 
                        [88.3144784108342, 22.5366595692405], 
                        [88.3144663543308, 22.5366020980269], 
                        [88.3143078760875, 22.5366321238809]  
                    ]
                ]
            }, 
            "properties": {
    "floor": "first",
                "fill-opacity": 0, 
                "stroke-opacity": 1, 
                "stroke": "#ff0000", 
                "ID": "LIFT", 
                "REMARKS": "POLYGON-47"
            }, 
            "id": "p47.21"
        }, 
        {
            "type": "Feature", 
            "geometry": {
                "type": "Polygon", 
                "coordinates": [
                    [
                        [88.3142943176101, 22.536573126054 ], 
                        [88.3143078760875, 22.5366321238809], 
                        [88.3144663543308, 22.5366020980269], 
                        [88.3144533823428, 22.5365402628605], 
                        [88.3142943176101, 22.536573126054 ]  
                    ]
                ]
            }, 
            "properties": {
    "floor": "first",
                "fill-opacity": 0, 
                "stroke-opacity": 1, 
                "stroke": "#ff0000", 
                "ID": "LIFT", 
                "REMARKS": "POLYGON-47"
            }, 
            "id": "p47.22"
        }, 
        {
            "type": "Feature", 
            "geometry": {
                "type": "Polygon", 
                "coordinates": [
                    [
                        [88.3142812476038, 22.5365162537413], 
                        [88.3142943176101, 22.536573126054 ], 
                        [88.3144533823428, 22.5365402628605], 
                        [88.3144409766664, 22.5364811272015], 
                        [88.3142812476038, 22.5365162537413]  
                    ]
                ]
            }, 
            "properties": {
    "floor": "first",
                "fill-opacity": 0, 
                "stroke-opacity": 1, 
                "stroke": "#ff0000", 
                "ID": "23F-B3-H2", 
                "REMARKS": "POLYGON-47"
            }, 
            "id": "p47.23"
        }, 
        {
            "type": "Feature", 
            "geometry": {
                "type": "Polygon", 
                "coordinates": [
                    [
                        [88.3142676665466, 22.5364571576611], 
                        [88.3142812476038, 22.5365162537413], 
                        [88.3144409766664, 22.5364811272015], 
                        [88.3144291549138, 22.5364247750032], 
                        [88.3142676665466, 22.5364571576611]  
                    ]
                ]
            }, 
            "properties": {
    "floor": "first",
                "fill-opacity": 0, 
                "stroke-opacity": 1, 
                "stroke": "#ff0000", 
                "ID": "23F-B4-H2", 
                "REMARKS": "POLYGON-47"
            }, 
            "id": "p47.24"
        }, 
        {
            "type": "Feature", 
            "geometry": {
                "type": "Polygon", 
                "coordinates": [
                    [
                        [88.3142554084594, 22.5364038183012], 
                        [88.3142676665466, 22.5364571576611], 
                        [88.3144291549138, 22.5364247750032], 
                        [88.3144171918546, 22.536367749222 ], 
                        [88.3142554084594, 22.5364038183012]  
                    ]
                ]
            }, 
            "properties": {
    "floor": "first",
                "fill-opacity": 0, 
                "stroke-opacity": 1, 
                "stroke": "#ff0000", 
                "ID": "23F-B5-H2", 
                "REMARKS": "POLYGON-47"
            }, 
            "id": "p47.25"
        }, 
        {
            "type": "Feature", 
            "geometry": {
                "type": "Polygon", 
                "coordinates": [
                    [
                        [88.3142414185168, 22.5363429430135], 
                        [88.3142554084594, 22.5364038183012], 
                        [88.3144171918546, 22.536367749222 ], 
                        [88.3144042606868, 22.5363061086384], 
                        [88.3142414185168, 22.5363429430135]  
                    ]
                ]
            }, 
            "properties": {
    "floor": "first",
                "fill-opacity": 0, 
                "stroke-opacity": 1, 
                "stroke": "#ff0000", 
                "ID": "23F-B6-H2", 
                "REMARKS": "POLYGON-47"
            }, 
            "id": "p47.26"
        }, 
        {
            "type": "Feature", 
            "geometry": {
                "type": "Polygon", 
                "coordinates": [
                    [
                        [88.3142277248722, 22.5362833570252], 
                        [88.3142414185168, 22.5363429430135], 
                        [88.3144042606868, 22.5363061086384], 
                        [88.3143917623741, 22.5362465313982], 
                        [88.3142277248722, 22.5362833570252]  
                    ]
                ]
            }, 
            "properties": {
    "floor": "first",
                "fill-opacity": 0, 
                "stroke-opacity": 1, 
                "stroke": "#ff0000", 
                "ID": "23F-B7-H2", 
                "REMARKS": "POLYGON-47"
            }, 
            "id": "p47.27"
        }, 
        {
            "type": "Feature", 
            "geometry": {
                "type": "Polygon", 
                "coordinates": [
                    [
                        [88.3142165145172, 22.5362345767262], 
                        [88.3142277248722, 22.5362833570252], 
                        [88.3143917623741, 22.5362465313982], 
                        [88.3143811116011, 22.5361957610521], 
                        [88.3142165145172, 22.5362345767262]  
                    ]
                ]
            }, 
            "properties": {
    "floor": "first",
                "fill-opacity": 0, 
                "stroke-opacity": 1, 
                "stroke": "#ff0000", 
                "ID": "23F-B8-H2", 
                "REMARKS": "POLYGON-47"
            }, 
            "id": "p47.28"
        }, 
        {
            "type": "Feature", 
            "geometry": {
                "type": "Polygon", 
                "coordinates": [
                    [
                        [88.3142044197818, 22.5361819481685], 
                        [88.3142165145172, 22.5362345767262], 
                        [88.3143811116011, 22.5361957610521], 
                        [88.3143694324367, 22.5361400885468], 
                        [88.3142044197818, 22.5361819481685]  
                    ]
                ]
            }, 
            "properties": {
    "floor": "first",
                "fill-opacity": 0, 
                "stroke-opacity": 1, 
                "stroke": "#ff0000", 
                "ID": "23F-B9-H2", 
                "REMARKS": "POLYGON-47"
            }, 
            "id": "p47.29"
        }, 
        {
            "type": "Feature", 
            "geometry": {
                "type": "Polygon", 
                "coordinates": [
                    [
                        [88.3141930043491, 22.5361322755023], 
                        [88.3142044197818, 22.5361819481685], 
                        [88.3143694324367, 22.5361400885468], 
                        [88.3143591353379, 22.5360910041031], 
                        [88.3141930043491, 22.5361322755023]  
                    ]
                ]
            }, 
            "properties": {
    "floor": "first",
                "fill-opacity": 0, 
                "stroke-opacity": 1, 
                "stroke": "#ff0000", 
                "ID": "23F-B10-H2", 
                "REMARKS": "POLYGON-47"
            }, 
            "id": "p47.30"
        }, 
        {
            "type": "Feature", 
            "geometry": {
                "type": "Polygon", 
                "coordinates": [
                    [
                        [88.3141794806753, 22.5360734291184], 
                        [88.3141930043491, 22.5361322755023], 
                        [88.3143591353379, 22.5360910041031], 
                        [88.3143468447506, 22.5360324170531], 
                        [88.3141794806753, 22.5360734291184]  
                    ]
                ]
            }, 
            "properties": {
    "floor": "first",
                "fill-opacity": 0, 
                "stroke-opacity": 1, 
                "stroke": "#ff0000", 
                "ID": "23F-B11-H2", 
                "REMARKS": "POLYGON-47"
            }, 
            "id": "p47.31"
        }, 
        {
            "type": "Feature", 
            "geometry": {
                "type": "Polygon", 
                "coordinates": [
                    [
                        [88.3141690001448, 22.5360278245488], 
                        [88.3141794806753, 22.5360734291184], 
                        [88.3143468447506, 22.5360324170531], 
                        [88.3143363321024, 22.5359823051234], 
                        [88.3141690001448, 22.5360278245488]  
                    ]
                ]
            }, 
            "properties": {
    "floor": "first",
                "fill-opacity": 0, 
                "stroke-opacity": 1, 
                "stroke": "#ff0000", 
                "ID": "23F-B12-H2", 
                "REMARKS": "POLYGON-47"
            }, 
            "id": "p47.32"
        }, 
        {
            "type": "Feature", 
            "geometry": {
                "type": "Polygon", 
                "coordinates": [
                    [
                        [88.3143251432707, 22.5359289699472], 
                        [88.3143363321024, 22.5359823051234], 
                        [88.314520132274 , 22.5359323058385], 
                        [88.3145085937072, 22.5358824330467], 
                        [88.3143251432707, 22.5359289699472]  
                    ]
                ]
            }, 
            "properties": {
    "floor": "first",
                "fill-opacity": 0, 
                "stroke-opacity": 1, 
                "stroke": "#ff0000", 
                "ID": "23F-B13-H1", 
                "REMARKS": "POLYGON-47"
            }, 
            "id": "p47.33"
        }, 
        {
            "type": "Feature", 
            "geometry": {
                "type": "Polygon", 
                "coordinates": [
                    [
                        [88.314314692491 , 22.5358791529336], 
                        [88.3143251432707, 22.5359289699472], 
                        [88.3145085937072, 22.5358824330467], 
                        [88.3144971760492, 22.5358330828559], 
                        [88.314314692491 , 22.5358791529336]  
                    ]
                ]
            }, 
            "properties": {
    "floor": "first",
                "fill-opacity": 0, 
                "stroke-opacity": 1, 
                "stroke": "#ff0000", 
                "ID": "23F-B14-H1", 
                "REMARKS": "POLYGON-47"
            }, 
            "id": "p47.34"
        }, 
        {
            "type": "Feature", 
            "geometry": {
                "type": "Polygon", 
                "coordinates": [
                    [
                        [88.3143030469695, 22.5358236407983], 
                        [88.314314692491 , 22.5358791529336], 
                        [88.3144971760492, 22.5358330828559], 
                        [88.3144846577726, 22.5357789754948], 
                        [88.3143030469695, 22.5358236407983]  
                    ]
                ]
            }, 
            "properties": {
    "floor": "first",
                "fill-opacity": 0, 
                "stroke-opacity": 1, 
                "stroke": "#ff0000", 
                "ID": "23F-B15-H1", 
                "REMARKS": "POLYGON-47"
            }, 
            "id": "p47.35"
        }, 
        {
            "type": "Feature", 
            "geometry": {
                "type": "Polygon", 
                "coordinates": [
                    [
                        [88.3141200149457, 22.5358146722742], 
                        [88.3141317573503, 22.5358657677131], 
                        [88.3143030469695, 22.5358236407983], 
                        [88.3142915444838, 22.5357688104887], 
                        [88.3141200149457, 22.5358146722742]  
                    ]
                ]
            }, 
            "properties": {
    "floor": "first",
                "fill-opacity": 0, 
                "stroke-opacity": 1, 
                "stroke": "#ff0000", 
                "ID": "23F-B16-H2", 
                "REMARKS": "POLYGON-47"
            }, 
            "id": "p47.36"
        }, 
        {
            "type": "Feature", 
            "geometry": {
                "type": "Polygon", 
                "coordinates": [
                    [
                        [88.3142815201853, 22.5357210264356], 
                        [88.3142915444838, 22.5357688104887], 
                        [88.3144711931769, 22.535720777888 ], 
                        [88.3144615036409, 22.5356788971052], 
                        [88.3142815201853, 22.5357210264356]  
                    ]
                ]
            }, 
            "properties": {
    "floor": "first",
                "fill-opacity": 0, 
                "stroke-opacity": 1, 
                "stroke": "#ff0000", 
                "ID": "23F-B17-H1", 
                "REMARKS": "POLYGON-47"
            }, 
            "id": "p47.37"
        }, 
        {
            "type": "Feature", 
            "geometry": {
                "type": "Polygon", 
                "coordinates": [
                    [
                        [88.3142717593302, 22.5356744981705], 
                        [88.3142815201853, 22.5357210264356], 
                        [88.3144615036409, 22.5356788971052], 
                        [88.3144502465557, 22.535630240953 ], 
                        [88.3142717593302, 22.5356744981705]  
                    ]
                ]
            }, 
            "properties": {
    "floor": "first",
                "fill-opacity": 0, 
                "stroke-opacity": 1, 
                "stroke": "#ff0000", 
                "ID": "23F-B18-H1", 
                "REMARKS": "POLYGON-47"
            }, 
            "id": "p47.38"
        }, 
        {
            "type": "Feature", 
            "geometry": {
                "type": "Polygon", 
                "coordinates": [
                    [
                        [88.3142622948474, 22.5356293826597], 
                        [88.3142717593302, 22.5356744981705], 
                        [88.3144502465557, 22.535630240953 ], 
                        [88.3144404664123, 22.5355879685408], 
                        [88.3142622948474, 22.5356293826597]  
                    ]
                ]
            }, 
            "properties": {
    "floor": "first",
                "fill-opacity": 0, 
                "stroke-opacity": 1, 
                "stroke": "#ff0000", 
                "ID": "23F-B19-H1", 
                "REMARKS": "POLYGON-47"
            }, 
            "id": "p47.39"
        }, 
        {
            "type": "Feature", 
            "geometry": {
                "type": "Polygon", 
                "coordinates": [
                    [
                        [88.3142515178641, 22.5355780106912], 
                        [88.3142622948474, 22.5356293826597], 
                        [88.3144404664123, 22.5355879685408], 
                        [88.314427790141 , 22.5355331782841], 
                        [88.3142515178641, 22.5355780106912]  
                    ]
                ]
            }, 
            "properties": {
    "floor": "first",
                "fill-opacity": 0, 
                "stroke-opacity": 1, 
                "stroke": "#ff0000", 
                "ID": "23F-B20-H1", 
                "REMARKS": "POLYGON-47"
            }, 
            "id": "p47.40"
        }
    ]
}
