{"type":"FeatureCollection", "features": [
{"type":"Feature","geometry":{"type":"Polygon","coordinates":[[[88.3140616841358,22.5304211797614],[88.3139648247643,22.5304000421084],[88.3139872812847,22.5303129184696],[88.3140841405973,22.530334056112],[88.3140616841358,22.5304211797614]]]},"properties": {
    "floor": "ground","fill-opacity":0,"stroke-opacity":1,"stroke":"#ff0000","ID":"26-23","REMARKS":"POLYGON ID-26"}},
{"type":"Feature","geometry":{"type":"Polygon","coordinates":[[[88.3138006074297,22.5310735950265],[88.3136715079019,22.5310437589815],[88.3136854722852,22.5309800952541],[88.3138174764009,22.5310106025788],[88.3138006074297,22.5310735950265]]]},"properties": {
    "floor": "ground","fill-opacity":0,"stroke-opacity":1,"stroke":"#ff0000","ID":"26-2","REMARKS":"POLYGON ID-26"}},
{"type":"Feature","geometry":{"type":"Polygon","coordinates":[[[88.3143051932185,22.5307388945169],[88.3142800484769,22.5308237550284],[88.3141820215635,22.5308015742949],[88.3142055017938,22.5307168065287],[88.3143051932185,22.5307388945169]]]},"properties": {
    "floor": "ground","fill-opacity":0,"stroke-opacity":1,"stroke":"#ff0000","ID":"26-59","REMARKS":"POLYGON ID-26"}},
{"type":"Feature","geometry":{"type":"Polygon","coordinates":[[[88.3141054479195,22.5306946381647],[88.3140832706697,22.5307792296766],[88.3139845198044,22.5307568849961],[88.3140053940739,22.530672469737],[88.3141054479195,22.5306946381647]]]},"properties": {
    "floor": "ground","fill-opacity":0,"stroke-opacity":1,"stroke":"#ff0000","ID":"26-34","REMARKS":"POLYGON ID-26"}},
{"type":"Feature","geometry":{"type":"Polygon","coordinates":[[[88.3142055017938,22.5307168065287],[88.3141820215635,22.5308015742949],[88.3140832706697,22.5307792296766],[88.3141054479195,22.5306946381647],[88.3142055017938,22.5307168065287]]]},"properties": {
    "floor": "ground","fill-opacity":0,"stroke-opacity":1,"stroke":"#ff0000","ID":"26-49","REMARKS":"POLYGON ID-26"}},
{"type":"Feature","geometry":{"type":"Polygon","coordinates":[[[88.3140053940739,22.530672469737],[88.3139845198044,22.5307568849961],[88.3138857689679,22.5307345402534],[88.313905340257,22.5306503012455],[88.3140053940739,22.530672469737]]]},"properties": {
    "floor": "ground","fill-opacity":0,"stroke-opacity":1,"stroke":"#ff0000","ID":"26-19","REMARKS":"POLYGON ID-26"}},
{"type":"Feature","geometry":{"type":"Polygon","coordinates":[[[88.3138661976577,22.5308187792593],[88.3138322706797,22.5308109384423],[88.3138322706798,22.5308109384423],[88.3138964269349,22.5305597827544],[88.3139249115251,22.5305660622355],[88.313905340257,22.5306503012455],[88.3138857689679,22.5307345402534],[88.3138661976577,22.5308187792593]]]},"properties": {
    "floor": "ground","fill-opacity":0,"stroke-opacity":1,"stroke":"#ff0000","ID":"26-6","REMARKS":"POLYGON ID-26"}},
{"type":"Feature","geometry":{"type":"Polygon","coordinates":[[[88.3142800484769,22.5308237550284],[88.3142668711312,22.5308682269633],[88.3142559892477,22.5309088628701],[88.3141585413073,22.5308863420583],[88.3141820215635,22.5308015742949],[88.3142800484769,22.5308237550284]]]},"properties": {
    "floor": "ground","fill-opacity":0,"stroke-opacity":1,"stroke":"#ff0000","ID":"26-58","REMARKS":"POLYGON ID-26"}},
{"type":"Feature","geometry":{"type":"Polygon","coordinates":[[[88.3140832706697,22.5307792296766],[88.3140610933955,22.5308638211859],[88.3139977903972,22.5308491913982],[88.3139636455123,22.5308413002529],[88.3139845198044,22.5307568849961],[88.3140832706697,22.5307792296766]]]},"properties": {
    "floor": "ground","fill-opacity":0,"stroke-opacity":1,"stroke":"#ff0000","ID":"26-33","REMARKS":"POLYGON ID-26"}},
{"type":"Feature","geometry":{"type":"Polygon","coordinates":[[[88.3141820215635,22.5308015742949],[88.3141585413073,22.5308863420583],[88.3141268897974,22.5308790271873],[88.3140610933955,22.5308638211859],[88.3140832706697,22.5307792296766],[88.3141820215635,22.5308015742949]]]},"properties": {
    "floor": "ground","fill-opacity":0,"stroke-opacity":1,"stroke":"#ff0000","ID":"26-48","REMARKS":"POLYGON ID-26"}},
{"type":"Feature","geometry":{"type":"Polygon","coordinates":[[[88.3139845198044,22.5307568849961],[88.3139636455123,22.5308413002529],[88.3138686910471,22.5308193555027],[88.3138661976577,22.5308187792593],[88.3138857689679,22.5307345402534],[88.3139845198044,22.5307568849961]]]},"properties": {
    "floor": "ground","fill-opacity":0,"stroke-opacity":1,"stroke":"#ff0000","ID":"26-18","REMARKS":"POLYGON ID-26"}},
{"type":"Feature","geometry":{"type":"Polygon","coordinates":[[[88.3142055017938,22.5307168065287],[88.314228743233,22.5306329007444],[88.3143303388799,22.5306540308032],[88.3143051932185,22.5307388945169],[88.3142055017938,22.5307168065287]]]},"properties": {
    "floor": "ground","fill-opacity":0,"stroke-opacity":1,"stroke":"#ff0000","ID":"26-60","REMARKS":"POLYGON ID-26"}},
{"type":"Feature","geometry":{"type":"Polygon","coordinates":[[[88.3140053940739,22.530672469737],[88.3140261857756,22.530588388287],[88.3141104097697,22.5306069555308],[88.3141274506584,22.5306107122017],[88.3141054479195,22.5306946381647],[88.3140053940739,22.530672469737]]]},"properties": {
    "floor": "ground","fill-opacity":0,"stroke-opacity":1,"stroke":"#ff0000","ID":"26-35","REMARKS":"POLYGON ID-26"}},
{"type":"Feature","geometry":{"type":"Polygon","coordinates":[[[88.3141054479195,22.5306946381647],[88.3141274506584,22.5306107122017],[88.314217401236,22.5306305418095],[88.3142174012361,22.5306305418095],[88.314228743233,22.5306329007444],[88.3142055017938,22.5307168065287],[88.3141054479195,22.5306946381647]]]},"properties": {
    "floor": "ground","fill-opacity":0,"stroke-opacity":1,"stroke":"#ff0000","ID":"26-50","REMARKS":"POLYGON ID-26"}},
{"type":"Feature","geometry":{"type":"Polygon","coordinates":[[[88.313905340257,22.5306503012455],[88.3139249115251,22.5305660622355],[88.3140034183359,22.530583369179],[88.3140261857756,22.530588388287],[88.3140053940739,22.530672469737],[88.313905340257,22.5306503012455]]]},"properties": {
    "floor": "ground","fill-opacity":0,"stroke-opacity":1,"stroke":"#ff0000","ID":"26-20","REMARKS":"POLYGON ID-26"}},
{"type":"Feature","geometry":{"type":"Polygon","coordinates":[[[88.3141104097697,22.5306069555308],[88.3140261857756,22.530588388287],[88.3140034183359,22.530583369179],[88.3140232479234,22.5305040147858],[88.3140394692894,22.5305073659246],[88.3141301803679,22.5305261057073],[88.3141104097697,22.5306069555308]]]},"properties": {
    "floor": "ground","fill-opacity":0,"stroke-opacity":1,"stroke":"#ff0000","ID":"26-36","REMARKS":"POLYGON ID-26"}},
{"type":"Feature","geometry":{"type":"Polygon","coordinates":[[[88.3140034183359,22.530583369179],[88.3139249115251,22.5305660622355],[88.3138964269349,22.5305597827544],[88.3139163155092,22.5304819237916],[88.3139163155091,22.5304819237916],[88.3139423338982,22.5304872988957],[88.3140232479234,22.5305040147858],[88.3140034183359,22.530583369179]]]},"properties": {
    "floor": "ground","fill-opacity":0,"stroke-opacity":1,"stroke":"#ff0000","ID":"26-21","REMARKS":"POLYGON ID-26"}},
{"type":"Feature","geometry":{"type":"Polygon","coordinates":[[[88.3141301803679,22.5305261057073],[88.3141366047055,22.5305274328935],[88.3142371128427,22.530548196556],[88.3142371128428,22.530548196556],[88.3142174012361,22.5306305418095],[88.314217401236,22.5306305418095],[88.3141274506584,22.5306107122017],[88.3141104097697,22.5306069555308],[88.3141301803679,22.5305261057073]]]},"properties": {
    "floor": "ground","fill-opacity":0,"stroke-opacity":1,"stroke":"#ff0000","ID":"26-51","REMARKS":"POLYGON ID-26"}},
{"type":"Feature","geometry":{"type":"Polygon","coordinates":[[[88.3140394692894,22.5305073659246],[88.3140232479234,22.5305040147858],[88.3139423338982,22.5304872988957],[88.3139648247643,22.5304000421084],[88.3140616841358,22.5304211797614],[88.3140394692894,22.5305073659246]]]},"properties": {
    "floor": "ground","fill-opacity":0,"stroke-opacity":1,"stroke":"#ff0000","ID":"26-22","REMARKS":"POLYGON ID-26"}},
{"type":"Feature","geometry":{"type":"Polygon","coordinates":[[[88.3141065970335,22.5302469324599],[88.3140097377797,22.530225794828],[88.3140321942494,22.5301386711838],[88.3141290534444,22.5301598088051],[88.3141065970335,22.5302469324599]]]},"properties": {
    "floor": "ground","fill-opacity":0,"stroke-opacity":1,"stroke":"#ff0000","ID":"26-25","REMARKS":"POLYGON ID-26"}},
{"type":"Feature","geometry":{"type":"Polygon","coordinates":[[[88.3140841405973,22.530334056112],[88.3139872812847,22.5303129184696],[88.3140097377797,22.530225794828],[88.3141065970335,22.5302469324599],[88.3140841405973,22.530334056112]]]},"properties": {
    "floor": "ground","fill-opacity":0,"stroke-opacity":1,"stroke":"#ff0000","ID":"26-24","REMARKS":"POLYGON ID-26"}},
{"type":"Feature","geometry":{"type":"Polygon","coordinates":[[[88.3141515098299,22.5300726851476],[88.3140546506938,22.5300515475368],[88.3140771071128,22.5299644238872],[88.3141739661902,22.5299855614874],[88.3141515098299,22.5300726851476]]]},"properties": {
    "floor": "ground","fill-opacity":0,"stroke-opacity":1,"stroke":"#ff0000","ID":"26-27","REMARKS":"POLYGON ID-26"}},
{"type":"Feature","geometry":{"type":"Polygon","coordinates":[[[88.3141290534444,22.5301598088051],[88.3140321942494,22.5301386711838],[88.3140546506938,22.5300515475368],[88.3141515098299,22.5300726851476],[88.3141290534444,22.5301598088051]]]},"properties": {
    "floor": "ground","fill-opacity":0,"stroke-opacity":1,"stroke":"#ff0000","ID":"26-26","REMARKS":"POLYGON ID-26"}},
{"type":"Feature","geometry":{"type":"Polygon","coordinates":[[[88.3139648247643,22.5304000421084],[88.3138693831291,22.5303792137843],[88.3138915561657,22.5302920282782],[88.3139872812847,22.5303129184696],[88.3139648247643,22.5304000421084]]]},"properties": {
    "floor": "ground","fill-opacity":0,"stroke-opacity":1,"stroke":"#ff0000","ID":"26-8","REMARKS":"POLYGON ID-26"}},
{"type":"Feature","geometry":{"type":"Polygon","coordinates":[[[88.3139423338982,22.5304872988957],[88.3139163155091,22.5304819237916],[88.3138472100676,22.5304663992878],[88.3138693831291,22.5303792137843],[88.3139648247643,22.5304000421084],[88.3139423338982,22.5304872988957]]]},"properties": {
    "floor": "ground","fill-opacity":0,"stroke-opacity":1,"stroke":"#ff0000","ID":"26-7","REMARKS":"POLYGON ID-26"}},
{"type":"Feature","geometry":{"type":"Polygon","coordinates":[[[88.3140097377797,22.530225794828],[88.3139137291772,22.5302048427694],[88.3139359021638,22.530117657258],[88.3140321942494,22.5301386711838],[88.3140097377797,22.530225794828]]]},"properties": {
    "floor": "ground","fill-opacity":0,"stroke-opacity":1,"stroke":"#ff0000","ID":"26-10","REMARKS":"POLYGON ID-26"}},
{"type":"Feature","geometry":{"type":"Polygon","coordinates":[[[88.3139872812847,22.5303129184696],[88.3138915561657,22.5302920282782],[88.3139137291772,22.5302048427694],[88.3140097377797,22.530225794828],[88.3139872812847,22.5303129184696]]]},"properties": {
    "floor": "ground","fill-opacity":0,"stroke-opacity":1,"stroke":"#ff0000","ID":"26-9","REMARKS":"POLYGON ID-26"}},
{"type":"Feature","geometry":{"type":"Polygon","coordinates":[[[88.3140546506938,22.5300515475368],[88.3139580751254,22.5300304717439],[88.313980248062,22.5299432862272],[88.3140771071128,22.5299644238872],[88.3140546506938,22.5300515475368]]]},"properties": {
    "floor": "ground","fill-opacity":0,"stroke-opacity":1,"stroke":"#ff0000","ID":"26-12","REMARKS":"POLYGON ID-26"}},
{"type":"Feature","geometry":{"type":"Polygon","coordinates":[[[88.3140321942494,22.5301386711838],[88.3139359021638,22.530117657258],[88.3139580751254,22.5300304717439],[88.3140546506938,22.5300515475368],[88.3140321942494,22.5301386711838]]]},"properties": {
    "floor": "ground","fill-opacity":0,"stroke-opacity":1,"stroke":"#ff0000","ID":"26-11","REMARKS":"POLYGON ID-26"}},
{"type":"Feature","geometry":{"type":"Polygon","coordinates":[[[88.3141809999364,22.5303551936947],[88.314278233912,22.5303764129683],[88.3142572990265,22.5304638686646],[88.3142572990264,22.5304638686646],[88.3141585435337,22.5304423173547],[88.3141809999364,22.5303551936947]]]},"properties": {
    "floor": "ground","fill-opacity":0,"stroke-opacity":1,"stroke":"#ff0000","ID":"26-53","REMARKS":"POLYGON ID-26"}},
{"type":"Feature","geometry":{"type":"Polygon","coordinates":[[[88.3141585435337,22.5304423173547],[88.3142572990264,22.5304638686646],[88.3142572990265,22.5304638686646],[88.3142371128428,22.530548196556],[88.3142371128427,22.530548196556],[88.3141366047055,22.5305274328936],[88.3141366047055,22.5305274328935],[88.3141585435337,22.5304423173547]]]},"properties": {
    "floor": "ground","fill-opacity":0,"stroke-opacity":1,"stroke":"#ff0000","ID":"26-52","REMARKS":"POLYGON ID-26"}},
{"type":"Feature","geometry":{"type":"Polygon","coordinates":[[[88.3142259126658,22.5301809463667],[88.3143227719137,22.5302020838685],[88.3143003156205,22.5302892075444],[88.3142034563138,22.5302680700321],[88.3142259126658,22.5301809463667]]]},"properties": {
    "floor": "ground","fill-opacity":0,"stroke-opacity":1,"stroke":"#ff0000","ID":"26-55","REMARKS":"POLYGON ID-26"}},
{"type":"Feature","geometry":{"type":"Polygon","coordinates":[[[88.3142034563138,22.5302680700321],[88.3143003156205,22.5302892075444],[88.3142833884522,22.5303548798091],[88.314278233912,22.5303764129683],[88.3141809999364,22.5303551936947],[88.3142034563138,22.5302680700321]]]},"properties": {
    "floor": "ground","fill-opacity":0,"stroke-opacity":1,"stroke":"#ff0000","ID":"26-54","REMARKS":"POLYGON ID-26"}},
{"type":"Feature","geometry":{"type":"Polygon","coordinates":[[[88.3142708252939,22.5300066990278],[88.3143676844241,22.5300278365085],[88.3143452281816,22.5301149601899],[88.3142483689925,22.5300938226986],[88.3142708252939,22.5300066990278]]]},"properties": {
    "floor": "ground","fill-opacity":0,"stroke-opacity":1,"stroke":"#ff0000","ID":"26-57","REMARKS":"POLYGON ID-26"}},
{"type":"Feature","geometry":{"type":"Polygon","coordinates":[[[88.3142483689925,22.5300938226986],[88.3143452281816,22.5301149601899],[88.3143227719137,22.5302020838685],[88.3142259126658,22.5301809463667],[88.3142483689925,22.5300938226986]]]},"properties": {
    "floor": "ground","fill-opacity":0,"stroke-opacity":1,"stroke":"#ff0000","ID":"26-56","REMARKS":"POLYGON ID-26"}},
{"type":"Feature","geometry":{"type":"Polygon","coordinates":[[[88.3141585435337,22.5304423173547],[88.3140616841358,22.5304211797614],[88.3140841405973,22.530334056112],[88.3141809999364,22.5303551936947],[88.3141585435337,22.5304423173547]]]},"properties": {
    "floor": "ground","fill-opacity":0,"stroke-opacity":1,"stroke":"#ff0000","ID":"26-38","REMARKS":"POLYGON ID-26"}},
{"type":"Feature","geometry":{"type":"Polygon","coordinates":[[[88.3141366047055,22.5305274328936],[88.3141301803679,22.5305261057073],[88.3140394692894,22.5305073659246],[88.3140616841358,22.5304211797614],[88.3141585435337,22.5304423173547],[88.3141366047055,22.5305274328935],[88.3141366047055,22.5305274328936]]]},"properties": {
    "floor": "ground","fill-opacity":0,"stroke-opacity":1,"stroke":"#ff0000","ID":"26-37","REMARKS":"POLYGON ID-26"}},
{"type":"Feature","geometry":{"type":"Polygon","coordinates":[[[88.3142034563138,22.5302680700321],[88.3141065970335,22.5302469324599],[88.3141290534444,22.5301598088051],[88.3142259126658,22.5301809463667],[88.3142034563138,22.5302680700321]]]},"properties": {
    "floor": "ground","fill-opacity":0,"stroke-opacity":1,"stroke":"#ff0000","ID":"26-40","REMARKS":"POLYGON ID-26"}},
{"type":"Feature","geometry":{"type":"Polygon","coordinates":[[[88.3141809999364,22.5303551936947],[88.3140841405973,22.530334056112],[88.3141065970335,22.5302469324599],[88.3142034563138,22.5302680700321],[88.3141809999364,22.5303551936947]]]},"properties": {
    "floor": "ground","fill-opacity":0,"stroke-opacity":1,"stroke":"#ff0000","ID":"26-39","REMARKS":"POLYGON ID-26"}},
{"type":"Feature","geometry":{"type":"Polygon","coordinates":[[[88.3142483689925,22.5300938226986],[88.3141515098299,22.5300726851476],[88.3141739661902,22.5299855614874],[88.3142708252939,22.5300066990278],[88.3142483689925,22.5300938226986]]]},"properties": {
    "floor": "ground","fill-opacity":0,"stroke-opacity":1,"stroke":"#ff0000","ID":"26-42","REMARKS":"POLYGON ID-26"}},
{"type":"Feature","geometry":{"type":"Polygon","coordinates":[[[88.3142259126658,22.5301809463667],[88.3141290534444,22.5301598088051],[88.3141515098299,22.5300726851476],[88.3142483689925,22.5300938226986],[88.3142259126658,22.5301809463667]]]},"properties": {
    "floor": "ground","fill-opacity":0,"stroke-opacity":1,"stroke":"#ff0000","ID":"26-41","REMARKS":"POLYGON ID-26"}},
{"type":"Feature","geometry":{"type":"Polygon","coordinates":[[[88.3137852125009,22.5311445372685],[88.3137043165709,22.5311280704951],[88.3136715079019,22.5310437589815],[88.3138006074297,22.5310735950265],[88.3138022642746,22.5310739779373],[88.3137852125009,22.5311445372685]]]},"properties": {
    "floor": "ground","fill-opacity":0,"stroke-opacity":1,"stroke":"#ff0000","ID":"26-1","REMARKS":"POLYGON ID-26"}},
{"type":"Feature","geometry":{"type":"Polygon","coordinates":[[[88.3138343453582,22.5309476101296],[88.3136994366573,22.5309164315255],[88.313713401018,22.5308527677959],[88.3138512143018,22.5308846176788],[88.3138343453582,22.5309476101296]]]},"properties": {
    "floor": "ground","fill-opacity":0,"stroke-opacity":1,"stroke":"#ff0000","ID":"26-4","REMARKS":"POLYGON ID-26"}},
{"type":"Feature","geometry":{"type":"Polygon","coordinates":[[[88.3138174764009,22.5310106025788],[88.3136854722852,22.5309800952541],[88.3136994366573,22.5309164315255],[88.3138343453582,22.5309476101296],[88.3138174764009,22.5310106025788]]]},"properties": {
    "floor": "ground","fill-opacity":0,"stroke-opacity":1,"stroke":"#ff0000","ID":"26-3","REMARKS":"POLYGON ID-26"}},
{"type":"Feature","geometry":{"type":"Polygon","coordinates":[[[88.3138512143018,22.5308846176788],[88.313713401018,22.5308527677959],[88.3137273653676,22.5307891040651],[88.3138322706797,22.5308109384423],[88.3138661976577,22.5308187792593],[88.3138686910471,22.5308193555027],[88.3138512143018,22.5308846176788]]]},"properties": {
    "floor": "ground","fill-opacity":0,"stroke-opacity":1,"stroke":"#ff0000","ID":"26-5","REMARKS":"POLYGON ID-26"}},
{"type":"Feature","geometry":{"type":"Polygon","coordinates":[[[88.3139117987673,22.5311703044492],[88.3137852125009,22.5311445372685],[88.3138022642746,22.5310739779373],[88.3139297070076,22.5311034309651],[88.3139117987673,22.5311703044492]]]},"properties": {
    "floor": "ground","fill-opacity":0,"stroke-opacity":1,"stroke":"#ff0000","ID":"26-13","REMARKS":"POLYGON ID-26"}},
{"type":"Feature","geometry":{"type":"Polygon","coordinates":[[[88.3140588066356,22.5311332667974],[88.3139297070076,22.5311034309651],[88.3139465759223,22.5310404385067],[88.3140756754939,22.5310702743283],[88.3140588066356,22.5311332667974]]]},"properties": {
    "floor": "ground","fill-opacity":0,"stroke-opacity":1,"stroke":"#ff0000","ID":"26-29","REMARKS":"POLYGON ID-26"}},
{"type":"Feature","geometry":{"type":"Polygon","coordinates":[[[88.3140925443384,22.5310072818577],[88.3139634448233,22.5309774460468],[88.3139803137103,22.5309144535854],[88.314109413169,22.5309442893856],[88.3140925443384,22.5310072818577]]]},"properties": {
    "floor": "ground","fill-opacity":0,"stroke-opacity":1,"stroke":"#ff0000","ID":"26-31","REMARKS":"POLYGON ID-26"}},
{"type":"Feature","geometry":{"type":"Polygon","coordinates":[[[88.3140756754939,22.5310702743283],[88.3139465759223,22.5310404385067],[88.3139634448233,22.5309774460468],[88.3140925443384,22.5310072818577],[88.3140756754939,22.5310702743283]]]},"properties": {
    "floor": "ground","fill-opacity":0,"stroke-opacity":1,"stroke":"#ff0000","ID":"26-30","REMARKS":"POLYGON ID-26"}},
{"type":"Feature","geometry":{"type":"Polygon","coordinates":[[[88.314109413169,22.5309442893856],[88.3139803137103,22.5309144535854],[88.3139977903972,22.5308491913982],[88.3140610933955,22.5308638211859],[88.3141268897974,22.5308790271873],[88.314109413169,22.5309442893856]]]},"properties": {
    "floor": "ground","fill-opacity":0,"stroke-opacity":1,"stroke":"#ff0000","ID":"26-32","REMARKS":"POLYGON ID-26"}},
{"type":"Feature","geometry":{"type":"Polygon","coordinates":[[[88.3140418017931,22.5311967670111],[88.3139117987673,22.5311703044492],[88.3139297070076,22.5311034309651],[88.3140588066356,22.5311332667974],[88.3140418017931,22.5311967670111]]]},"properties": {
    "floor": "ground","fill-opacity":0,"stroke-opacity":1,"stroke":"#ff0000","ID":"26-28","REMARKS":"POLYGON ID-26"}},
{"type":"Feature","geometry":{"type":"Polygon","coordinates":[[[88.3140756754939,22.5310702743283],[88.3142047751156,22.5311001100435],[88.3141879063137,22.5311631025233],[88.3140588066356,22.5311332667974],[88.3140756754939,22.5310702743283]]]},"properties": {
    "floor": "ground","fill-opacity":0,"stroke-opacity":1,"stroke":"#ff0000","ID":"26-44","REMARKS":"POLYGON ID-26"}},
{"type":"Feature","geometry":{"type":"Polygon","coordinates":[[[88.314109413169,22.5309442893856],[88.3142385126778,22.5309741250794],[88.3142216439036,22.5310371175622],[88.3140925443384,22.5310072818577],[88.314109413169,22.5309442893856]]]},"properties": {
    "floor": "ground","fill-opacity":0,"stroke-opacity":1,"stroke":"#ff0000","ID":"26-46","REMARKS":"POLYGON ID-26"}},
{"type":"Feature","geometry":{"type":"Polygon","coordinates":[[[88.3140925443384,22.5310072818577],[88.3142216439036,22.5310371175622],[88.3142047751156,22.5311001100435],[88.3140756754939,22.5310702743283],[88.3140925443384,22.5310072818577]]]},"properties": {
    "floor": "ground","fill-opacity":0,"stroke-opacity":1,"stroke":"#ff0000","ID":"26-45","REMARKS":"POLYGON ID-26"}},
{"type":"Feature","geometry":{"type":"Polygon","coordinates":[[[88.3141268897974,22.5308790271873],[88.3141585413073,22.5308863420583],[88.3142559892477,22.5309088628701],[88.3142385126778,22.5309741250794],[88.314109413169,22.5309442893856],[88.3141268897974,22.5308790271873]]]},"properties": {
    "floor": "ground","fill-opacity":0,"stroke-opacity":1,"stroke":"#ff0000","ID":"26-47","REMARKS":"POLYGON ID-26"}},
{"type":"Feature","geometry":{"type":"Polygon","coordinates":[[[88.3140588066356,22.5311332667974],[88.3141879063137,22.5311631025233],[88.314171804863,22.5312232294655],[88.3140418017931,22.5311967670111],[88.3140588066356,22.5311332667974]]]},"properties": {
    "floor": "ground","fill-opacity":0,"stroke-opacity":1,"stroke":"#ff0000","ID":"26-43","REMARKS":"POLYGON ID-26"}},
{"type":"Feature","geometry":{"type":"Polygon","coordinates":[[[88.3138174764009,22.5310106025788],[88.3139465759223,22.5310404385067],[88.3139297070076,22.5311034309651],[88.3138022642746,22.5310739779373],[88.3138006074297,22.5310735950265],[88.3138174764009,22.5310106025788]]]},"properties": {
    "floor": "ground","fill-opacity":0,"stroke-opacity":1,"stroke":"#ff0000","ID":"26-14","REMARKS":"POLYGON ID-26"}},
{"type":"Feature","geometry":{"type":"Polygon","coordinates":[[[88.3138512143018,22.5308846176788],[88.3139803137103,22.5309144535854],[88.3139634448233,22.5309774460468],[88.3138343453582,22.5309476101296],[88.3138512143018,22.5308846176788]]]},"properties": {
    "floor": "ground","fill-opacity":0,"stroke-opacity":1,"stroke":"#ff0000","ID":"26-16","REMARKS":"POLYGON ID-26"}},
{"type":"Feature","geometry":{"type":"Polygon","coordinates":[[[88.3138343453582,22.5309476101296],[88.3139634448233,22.5309774460468],[88.3139465759223,22.5310404385067],[88.3138174764009,22.5310106025788],[88.3138343453582,22.5309476101296]]]},"properties": {
    "floor": "ground","fill-opacity":0,"stroke-opacity":1,"stroke":"#ff0000","ID":"26-15","REMARKS":"POLYGON ID-26"}},
{"type":"Feature","geometry":{"type":"Polygon","coordinates":[[[88.3138686910471,22.5308193555027],[88.3139636455123,22.5308413002529],[88.3139977903972,22.5308491913982],[88.3139803137103,22.5309144535854],[88.3138512143018,22.5308846176788],[88.3138686910471,22.5308193555027]]]},"properties": {
    "floor": "ground","fill-opacity":0,"stroke-opacity":1,"stroke":"#ff0000","ID":"26-17","REMARKS":"POLYGON ID-26"}}
]}