{"type":"FeatureCollection", "features": [
{"type":"Feature","geometry":{"type":"Polygon","coordinates":[[[88.3124928189735,22.5394963444086],[88.3124731848769,22.5394443541584],[88.312645614439,22.5394429473757],[88.3126463599455,22.5394950917182],[88.3124928189735,22.5394963444086]]]},"properties": {
    "floor": "ground","fill-opacity":0,"stroke-opacity":1,"stroke":"#ff0000","ID":"19-5","REMARKS":"POLYGON ID-19"}},
{"type":"Feature","geometry":{"type":"Polygon","coordinates":[[[88.3124731848769,22.5394443541584],[88.312454169271,22.5393940016022],[88.3126448491158,22.5393894168345],[88.312645614439,22.5394429473757],[88.3124731848769,22.5394443541584]]]},"properties": {
    "floor": "ground","fill-opacity":0,"stroke-opacity":1,"stroke":"#ff0000","ID":"19-6","REMARKS":"POLYGON ID-19"}},
{"type":"Feature","geometry":{"type":"Polygon","coordinates":[[[88.3125386045747,22.539617582553],[88.3125158189237,22.5395572472385],[88.3126472332547,22.5395561750601],[88.312648110628,22.5396175424995],[88.3125386045747,22.539617582553]]]},"properties": {
    "floor": "ground","fill-opacity":0,"stroke-opacity":1,"stroke":"#ff0000","ID":"19-3","REMARKS":"POLYGON ID-19"}},
{"type":"Feature","geometry":{"type":"Polygon","coordinates":[[[88.3125158189237,22.5395572472385],[88.3124928189735,22.5394963444086],[88.3126463599455,22.5394950917182],[88.3126472332547,22.5395561750601],[88.3125158189237,22.5395572472385]]]},"properties": {
    "floor": "ground","fill-opacity":0,"stroke-opacity":1,"stroke":"#ff0000","ID":"19-4","REMARKS":"POLYGON ID-19"}},
{"type":"Feature","geometry":{"type":"Polygon","coordinates":[[[88.3130939858161,22.5396156992282],[88.3131746258456,22.5398543057613],[88.3130969561618,22.5398551372135],[88.3130954692061,22.5397352748417],[88.3130939858161,22.5396156992282]]]},"properties": {
    "floor": "ground","fill-opacity":0,"stroke-opacity":1,"stroke":"#ff0000","ID":"19-19","REMARKS":"POLYGON ID-19"}},
{"type":"Feature","geometry":{"type":"Polygon","coordinates":[[[88.3125705331206,22.5397021277143],[88.3125386045747,22.539617582553],[88.312648110628,22.5396175424995],[88.3126600211167,22.5396175381385],[88.312660056599,22.539701397291],[88.3125705331206,22.5397021277143]]]},"properties": {
    "floor": "ground","fill-opacity":0,"stroke-opacity":1,"stroke":"#ff0000","ID":"19-2","REMARKS":"POLYGON ID-19"}},
{"type":"Feature","geometry":{"type":"Polygon","coordinates":[[[88.312660056599,22.539701397291],[88.3126600723777,22.5397383273963],[88.3126601236352,22.5398598127972],[88.3126302040574,22.5398601329944],[88.3125705331206,22.5397021277143],[88.312660056599,22.539701397291]]]},"properties": {
    "floor": "ground","fill-opacity":0,"stroke-opacity":1,"stroke":"#ff0000","ID":"19-1","REMARKS":"POLYGON ID-19"}},
{"type":"Feature","geometry":{"type":"Polygon","coordinates":[[[88.3130229030739,22.5397357836826],[88.3130954692061,22.5397352748417],[88.3130969561618,22.5398551372135],[88.3130243930555,22.539855913966],[88.3130243881884,22.539855502678],[88.3130229030739,22.5397357836826]]]},"properties": {
    "floor": "ground","fill-opacity":0,"stroke-opacity":1,"stroke":"#ff0000","ID":"19-17","REMARKS":"POLYGON ID-19"}},
{"type":"Feature","geometry":{"type":"Polygon","coordinates":[[[88.3130214189054,22.5396161402716],[88.3130939858161,22.5396156992282],[88.3130954692061,22.5397352748417],[88.3130229030739,22.5397357836826],[88.3130214189054,22.5396161402716]]]},"properties": {
    "floor": "ground","fill-opacity":0,"stroke-opacity":1,"stroke":"#ff0000","ID":"19-18","REMARKS":"POLYGON ID-19"}},
{"type":"Feature","geometry":{"type":"Polygon","coordinates":[[[88.3127341417403,22.5398590206369],[88.3126601236352,22.5398598127972],[88.3126600722257,22.5397383273635],[88.3126600723777,22.5397383273963],[88.3127326385217,22.539737818719],[88.312734123386,22.5398575377289],[88.3127341417403,22.5398590206369]]]},"properties": {
    "floor": "ground","fill-opacity":0,"stroke-opacity":1,"stroke":"#ff0000","ID":"19-7","REMARKS":"POLYGON ID-19"}},
{"type":"Feature","geometry":{"type":"Polygon","coordinates":[[[88.3127326385217,22.539737818719],[88.3126600723777,22.5397383273963],[88.3126600722257,22.5397383273635],[88.312660056599,22.539701397291],[88.3126600211167,22.5396175381385],[88.3127312616101,22.5396175120359],[88.3127311536656,22.5396180997072],[88.3127326385217,22.539737818719]]]},"properties": {
    "floor": "ground","fill-opacity":0,"stroke-opacity":1,"stroke":"#ff0000","ID":"19-8","REMARKS":"POLYGON ID-19"}},
{"type":"Feature","geometry":{"type":"Polygon","coordinates":[[[88.3128067006899,22.5398582440598],[88.3127341417403,22.5398590206369],[88.312734123386,22.5398575377289],[88.3127326385217,22.539737818719],[88.3128052046632,22.539737310009],[88.3128066895901,22.5398570290153],[88.3128067006899,22.5398582440598]]]},"properties": {
    "floor": "ground","fill-opacity":0,"stroke-opacity":1,"stroke":"#ff0000","ID":"19-9","REMARKS":"POLYGON ID-19"}},
{"type":"Feature","geometry":{"type":"Polygon","coordinates":[[[88.3128052046632,22.539737310009],[88.3127326385217,22.539737818719],[88.3127311536656,22.5396180997072],[88.3127312616101,22.5396175120359],[88.3127998209276,22.5396174868858],[88.3128037379212,22.5396174630855],[88.3128037197446,22.5396175910008],[88.3128052046632,22.539737310009]]]},"properties": {
    "floor": "ground","fill-opacity":0,"stroke-opacity":1,"stroke":"#ff0000","ID":"19-10","REMARKS":"POLYGON ID-19"}},
{"type":"Feature","geometry":{"type":"Polygon","coordinates":[[[88.3128792658364,22.5398574673836],[88.3128067006899,22.5398582440598],[88.3128066895901,22.5398570290153],[88.3128052046632,22.539737310009],[88.3128777708025,22.5397368012662],[88.3128792557919,22.5398565202689],[88.3128792658364,22.5398574673836]]]},"properties": {
    "floor": "ground","fill-opacity":0,"stroke-opacity":1,"stroke":"#ff0000","ID":"19-11","REMARKS":"POLYGON ID-19"}},
{"type":"Feature","geometry":{"type":"Polygon","coordinates":[[[88.3128777708025,22.5397368012662],[88.3128052046632,22.539737310009],[88.3128037197446,22.5396175910008],[88.3128037379212,22.5396174630855],[88.3128762751627,22.5396170223206],[88.3128762858213,22.5396170822618],[88.3128777708025,22.5397368012662]]]},"properties": {
    "floor": "ground","fill-opacity":0,"stroke-opacity":1,"stroke":"#ff0000","ID":"19-12","REMARKS":"POLYGON ID-19"}},
{"type":"Feature","geometry":{"type":"Polygon","coordinates":[[[88.3129518276227,22.5398566907107],[88.3128792658364,22.5398574673836],[88.3128792557919,22.5398565202689],[88.3128777708025,22.5397368012662],[88.3129503369394,22.5397362924908],[88.3129518219913,22.5398560114898],[88.3129518276227,22.5398566907107]]]},"properties": {
    "floor": "ground","fill-opacity":0,"stroke-opacity":1,"stroke":"#ff0000","ID":"19-13","REMARKS":"POLYGON ID-19"}},
{"type":"Feature","geometry":{"type":"Polygon","coordinates":[[[88.3129503369394,22.5397362924908],[88.3128777708025,22.5397368012662],[88.3128762858213,22.5396170822618],[88.3128762751627,22.5396170223206],[88.3129488519923,22.5396165812823],[88.3129503369394,22.5397362924908]]]},"properties": {
    "floor": "ground","fill-opacity":0,"stroke-opacity":1,"stroke":"#ff0000","ID":"19-14","REMARKS":"POLYGON ID-19"}},
{"type":"Feature","geometry":{"type":"Polygon","coordinates":[[[88.3130243930555,22.539855913966],[88.3129518276227,22.5398566907107],[88.3129518219913,22.5398560114898],[88.3129503369394,22.5397362924908],[88.3130229030739,22.5397357836826],[88.3130243881884,22.539855502678],[88.3130243930555,22.539855913966]]]},"properties": {
    "floor": "ground","fill-opacity":0,"stroke-opacity":1,"stroke":"#ff0000","ID":"19-15","REMARKS":"POLYGON ID-19"}},
{"type":"Feature","geometry":{"type":"Polygon","coordinates":[[[88.3130229030739,22.5397357836826],[88.3129503369394,22.5397362924908],[88.3129488519923,22.5396165812823],[88.3130214189054,22.5396161402716],[88.3130229030739,22.5397357836826]]]},"properties": {
    "floor": "ground","fill-opacity":0,"stroke-opacity":1,"stroke":"#ff0000","ID":"19-16","REMARKS":"POLYGON ID-19"}}
]}