{"type":"FeatureCollection", "features": [
{"type":"Feature","geometry":{"type":"Polygon","coordinates":[[[88.3004430878385,22.5470618875991],[88.3003610002996,22.5470897159916],[88.3003199780816,22.5469904661462],[88.3004023958136,22.5469634367677],[88.3004430878385,22.5470618875991]]]},"properties": {
    "floor": "ground","fill-opacity":0,"stroke-opacity":1,"stroke":"#ff0000","ID":"39-2","REMARKS":"POLYGON ID-39","AREA":105.341}},
{"type":"Feature","geometry":{"type":"Polygon","coordinates":[[[88.3003610002996,22.5470897159916],[88.3002773601703,22.5471180706719],[88.3002375603155,22.5470174954839],[88.3003199780816,22.5469904661462],[88.3003610002996,22.5470897159916]]]},"properties": {
    "floor": "ground","fill-opacity":0,"stroke-opacity":1,"stroke":"#ff0000","ID":"39-1","REMARKS":"POLYGON ID-39","AREA":107.201}},
{"type":"Feature","geometry":{"type":"Polygon","coordinates":[[[88.3006072628115,22.5470062306928],[88.3005251753425,22.5470340591662],[88.3004848135114,22.5469364073483],[88.3005672311751,22.5469093778882],[88.3006072628115,22.5470062306928]]]},"properties": {
    "floor": "ground","fill-opacity":0,"stroke-opacity":1,"stroke":"#ff0000","ID":"39-4","REMARKS":"POLYGON ID-39","AREA":103.638}},
{"type":"Feature","geometry":{"type":"Polygon","coordinates":[[[88.3005251753425,22.5470340591662],[88.3004430878385,22.5470618875991],[88.3004023958136,22.5469634367677],[88.3004848135114,22.5469364073483],[88.3005251753425,22.5470340591662]]]},"properties": {
    "floor": "ground","fill-opacity":0,"stroke-opacity":1,"stroke":"#ff0000","ID":"39-3","REMARKS":"POLYGON ID-39","AREA":104.49}},
{"type":"Feature","geometry":{"type":"Polygon","coordinates":[[[88.3007714376449,22.5469505736248],[88.3006893502457,22.546978402179],[88.3006496488047,22.5468823483872],[88.3007320664001,22.5468553188454],[88.3007714376449,22.5469505736248]]]},"properties": {
    "floor": "ground","fill-opacity":0,"stroke-opacity":1,"stroke":"#ff0000","ID":"39-6","REMARKS":"POLYGON ID-39","AREA":101.935}},
{"type":"Feature","geometry":{"type":"Polygon","coordinates":[[[88.3006893502457,22.546978402179],[88.3006072628115,22.5470062306928],[88.3005672311751,22.5469093778882],[88.3006496488047,22.5468823483872],[88.3006893502457,22.546978402179]]]},"properties": {
    "floor": "ground","fill-opacity":0,"stroke-opacity":1,"stroke":"#ff0000","ID":"39-5","REMARKS":"POLYGON ID-39","AREA":102.787}},
{"type":"Feature","geometry":{"type":"Polygon","coordinates":[[[88.3009356123386,22.5468949163949],[88.3008535250092,22.5469227450301],[88.3008144839614,22.5468282892627],[88.3008969014885,22.5468012596393],[88.3009356123386,22.5468949163949]]]},"properties": {
    "floor": "ground","fill-opacity":0,"stroke-opacity":1,"stroke":"#ff0000","ID":"39-8","REMARKS":"POLYGON ID-39","AREA":100.233}},
{"type":"Feature","geometry":{"type":"Polygon","coordinates":[[[88.3008535250092,22.5469227450301],[88.3007714376449,22.5469505736248],[88.3007320664001,22.5468553188454],[88.3008144839614,22.5468282892627],[88.3008535250092,22.5469227450301]]]},"properties": {
    "floor": "ground","fill-opacity":0,"stroke-opacity":1,"stroke":"#ff0000","ID":"39-7","REMARKS":"POLYGON ID-39","AREA":101.084}},
{"type":"Feature","geometry":{"type":"Polygon","coordinates":[[[88.3010997868927,22.5468392590033],[88.3010176996331,22.5468670877193],[88.3009793189815,22.5467742299751],[88.3010617364404,22.54674720027],[88.3010997868927,22.5468392590033]]]},"properties": {
    "floor": "ground","fill-opacity":0,"stroke-opacity":1,"stroke":"#ff0000","ID":"39-10","REMARKS":"POLYGON ID-39","AREA":98.53}},
{"type":"Feature","geometry":{"type":"Polygon","coordinates":[[[88.3010176996331,22.5468670877193],[88.3009356123386,22.5468949163949],[88.3008969014885,22.5468012596393],[88.3009793189815,22.5467742299751],[88.3010176996331,22.5468670877193]]]},"properties": {
    "floor": "ground","fill-opacity":0,"stroke-opacity":1,"stroke":"#ff0000","ID":"39-9","REMARKS":"POLYGON ID-39","AREA":99.381}},
{"type":"Feature","geometry":{"type":"Polygon","coordinates":[[[88.3013386574043,22.5466563806368],[88.3014477643477,22.5466205975127],[88.3014735292654,22.5466878952563],[88.3013668878856,22.5467246807567],[88.3013386574043,22.5466563806368]]]},"properties": {
    "floor": "ground","fill-opacity":0,"stroke-opacity":1,"stroke":"#ff0000","ID":"39-16","REMARKS":"POLYGON ID-39","AREA":94.433}},
{"type":"Feature","geometry":{"type":"Polygon","coordinates":[[[88.3011818741174,22.5468114302468],[88.3010997868927,22.5468392590033],[88.3010617364404,22.54674720027],[88.3011441538651,22.5467201705241],[88.3011818741174,22.5468114302468]]]},"properties": {
    "floor": "ground","fill-opacity":0,"stroke-opacity":1,"stroke":"#ff0000","ID":"39-11","REMARKS":"POLYGON ID-39","AREA":97.678}},
{"type":"Feature","geometry":{"type":"Polygon","coordinates":[[[88.3012655616023,22.5467830589251],[88.3011818741174,22.5468114302468],[88.3011441538651,22.5467201705241],[88.3012265712557,22.5466931407374],[88.3012567252346,22.5467626808116],[88.3012655616023,22.5467830589251]]]},"properties": {
    "floor": "ground","fill-opacity":0,"stroke-opacity":1,"stroke":"#ff0000","ID":"39-12","REMARKS":"POLYGON ID-39","AREA":97.766}},
{"type":"Feature","geometry":{"type":"Polygon","coordinates":[[[88.3013668878856,22.5467246807567],[88.3014735292654,22.5466878952563],[88.3015012689085,22.5467603508817],[88.3013960037283,22.5467951228163],[88.3013668878856,22.5467246807567]]]},"properties": {
    "floor": "ground","fill-opacity":0,"stroke-opacity":1,"stroke":"#ff0000","ID":"39-15","REMARKS":"POLYGON ID-39","AREA":97.781}},
{"type":"Feature","geometry":{"type":"Polygon","coordinates":[[[88.3013668878856,22.5467246807567],[88.3012567252346,22.5467626808116],[88.3012265712557,22.5466931407374],[88.3013386574043,22.5466563806368],[88.3013668878856,22.5467246807567]]]},"properties": {
    "floor": "ground","fill-opacity":0,"stroke-opacity":1,"stroke":"#ff0000","ID":"39-14","REMARKS":"POLYGON ID-39","AREA":99.632}},
{"type":"Feature","geometry":{"type":"Polygon","coordinates":[[[88.3013960037283,22.5467951228163],[88.3012864804627,22.5468313012212],[88.3012655616023,22.5467830589251],[88.3012567252346,22.5467626808116],[88.3013668878856,22.5467246807567],[88.3013960037283,22.5467951228163]]]},"properties": {
    "floor": "ground","fill-opacity":0,"stroke-opacity":1,"stroke":"#ff0000","ID":"39-13","REMARKS":"POLYGON ID-39","AREA":99.396}}
]}