{
    "type": "FeatureCollection",
    "features": [
        {
            "type": "Feature",
            "geometry": {
                "type": "Polygon",
                "coordinates": [
                    [
                        [88.3137997255122, 22.5287605445297],
                        [88.3138272441748, 22.5286516075005],
                        [88.3136217312489, 22.5286137958683],
                        [88.3135953387763, 22.5287285177508],
                        [88.3137997255122, 22.5287605445297]
                    ]
                ]
            },
            "properties": {
    "floor": "ground",
                "fill-opacity": 0,
                "stroke-opacity": 1,
                "stroke": "#ff0000",
                "ID": "28N-B3-H2",
                "REMARKS": "POLYGON-58"
            },
            "id": "p58.1"
        },
        {
            "type": "Feature",
            "geometry": {
                "type": "Polygon",
                "coordinates": [
                    [
                        [88.3137738834562, 22.5288628444433],
                        [88.3137444233582, 22.528979466955 ],
                        [88.3139548793238, 22.5290156646816],
                        [88.3139822265336, 22.5288956784423],
                        [88.3137738834562, 22.5288628444433]
                    ]
                ]
            },
            "properties": {
    "floor": "ground",
                "fill-opacity": 0,
                "stroke-opacity": 1,
                "stroke": "#ff0000",
                "ID": "28N-B1-H1",
                "REMARKS": "POLYGON-58"
            },
            "id": "p58.2"
        },
        {
            "type": "Feature",
            "geometry": {
                "type": "Polygon",
                "coordinates": [
                    [
                        [88.3137997255122, 22.5287605445297],
                        [88.3137738834562, 22.5288628444433],
                        [88.3139822265336, 22.5288956784423],
                        [88.3140056709956, 22.5287928155597],
                        [88.3137997255122, 22.5287605445297]
                    ]
                ]
            },
            "properties": {
    "floor": "ground",
                "fill-opacity": 0,
                "stroke-opacity": 1,
                "stroke": "#ff0000",
                "ID": "28N-B2-H1",
                "REMARKS": "POLYGON-58"
            },
            "id": "p58.3"
        },
        {
            "type": "Feature",
            "geometry": {
                "type": "Polygon",
                "coordinates": [
                    [
                        [88.3138272441748, 22.5286516075005],
                        [88.3138526751845, 22.5285509347797],
                        [88.3136459213463, 22.5285086471943],
                        [88.3136217312489, 22.5286137958683],
                        [88.3138272441748, 22.5286516075005]
                    ]
                ]
            },
            "properties": {
    "floor": "ground",
                "fill-opacity": 0,
                "stroke-opacity": 1,
                "stroke": "#ff0000",
                "ID": "28N-B4-H2",
                "REMARKS": "POLYGON-58"
            },
            "id": "p58.4"
        },
        {
            "type": "Feature",
            "geometry": {
                "type": "Polygon",
                "coordinates": [
                    [
                        [88.3137444233582, 22.528979466955 ],
                        [88.3137738834562, 22.5288628444433],
                        [88.3135717641127, 22.5288309912789],
                        [88.3135454784039, 22.5289452490841],
                        [88.3137444233582, 22.528979466955 ]
                    ]
                ]
            },
            "properties": {
    "floor": "ground",
                "fill-opacity": 0,
                "stroke-opacity": 1,
                "stroke": "#ff0000",
                "ID": "28N-B1-H2",
                "REMARKS": "POLYGON-58"
            },
            "id": "p58.5"
        },
        {
            "type": "Feature",
            "geometry": {
                "type": "Polygon",
                "coordinates": [
                    [
                        [88.3137738834562, 22.5288628444433],
                        [88.3137997255122, 22.5287605445297],
                        [88.3135953387763, 22.5287285177508],
                        [88.3135717641127, 22.5288309912789],
                        [88.3137738834562, 22.5288628444433]
                    ]
                ]
            },
            "properties": {
    "floor": "ground",
                "fill-opacity": 0,
                "stroke-opacity": 1,
                "stroke": "#ff0000",
                "ID": "28N-B2-H2",
                "REMARKS": "POLYGON-58"
            },
            "id": "p58.6"
        },
        {
            "type": "Feature",
            "geometry": {
                "type": "Polygon",
                "coordinates": [
                    [
                        [88.3138526751845, 22.5285509347797],
                        [88.3138272441748, 22.5286516075005],
                        [88.3140293787319, 22.5286887975579],
                        [88.3140460530836, 22.5286156386227],
                        [88.3140403547236, 22.5285893210782],
                        [88.3138526751845, 22.5285509347797]
                    ]
                ]
            },
            "properties": {
    "floor": "ground",
                "fill-opacity": 0,
                "stroke-opacity": 1,
                "stroke": "#ff0000",
                "ID": "28N-B4-H1",
                "REMARKS": "POLYGON-58"
            },
            "id": "p58.7"
        },
        {
            "type": "Feature",
            "geometry": {
                "type": "Polygon",
                "coordinates": [
                    [
                        [88.3138272441748, 22.5286516075005],
                        [88.3137997255122, 22.5287605445297],
                        [88.3140056709956, 22.5287928155597],
                        [88.3140293787319, 22.5286887975579],
                        [88.3138272441748, 22.5286516075005]
                    ]
                ]
            },
            "properties": {
    "floor": "ground",
                "fill-opacity": 0,
                "stroke-opacity": 1,
                "stroke": "#ff0000",
                "ID": "28N-B3-H1",
                "REMARKS": "POLYGON-58"
            },
            "id": "p58.8"
        }
    ]
}
