{"type":"FeatureCollection", "features": [
{"type":"Feature","geometry":{"type":"Polygon","coordinates":[[[88.313464576804,22.5327616327418],[88.3133987142116,22.5327708614336],[88.3133663619547,22.532618635354],[88.3134335100295,22.5326154555369],[88.313464576804,22.5327616327418]]]},"properties": {
    "floor": "ground","fill-opacity":0,"stroke-opacity":1,"stroke":"#ff0000","ID":"25-5","REMARKS":"POLYGON ID-25"}},
{"type":"Feature","geometry":{"type":"Polygon","coordinates":[[[88.3134891950199,22.532877467557],[88.3134241960867,22.5328907602435],[88.3133987142116,22.5327708614336],[88.313464576804,22.5327616327418],[88.3134891950199,22.532877467557]]]},"properties": {
    "floor": "ground","fill-opacity":0,"stroke-opacity":1,"stroke":"#ff0000","ID":"25-4","REMARKS":"POLYGON ID-25"}},
{"type":"Feature","geometry":{"type":"Polygon","coordinates":[[[88.3134335100295,22.5326154555369],[88.3133663619547,22.532618635354],[88.3133251452413,22.5324246990578],[88.3133957718316,22.5324378870788],[88.3134335100295,22.5326154555369]]]},"properties": {
    "floor": "ground","fill-opacity":0,"stroke-opacity":1,"stroke":"#ff0000","ID":"25-6","REMARKS":"POLYGON ID-25"}},
{"type":"Feature","geometry":{"type":"Polygon","coordinates":[[[88.3133987142116,22.5327708614336],[88.3133390451164,22.5327792222661],[88.3133006082896,22.5326217491113],[88.3133663619547,22.532618635354],[88.3133987142116,22.5327708614336]]]},"properties": {
    "floor": "ground","fill-opacity":0,"stroke-opacity":1,"stroke":"#ff0000","ID":"25-2","REMARKS":"POLYGON ID-25"}},
{"type":"Feature","geometry":{"type":"Polygon","coordinates":[[[88.3134241960867,22.5328907602435],[88.3133690239441,22.5329020432678],[88.3133390451164,22.5327792222661],[88.3133987142116,22.5327708614336],[88.3134241960867,22.5328907602435]]]},"properties": {
    "floor": "ground","fill-opacity":0,"stroke-opacity":1,"stroke":"#ff0000","ID":"25-1","REMARKS":"POLYGON ID-25"}},
{"type":"Feature","geometry":{"type":"Polygon","coordinates":[[[88.3133663619547,22.532618635354],[88.3133006082896,22.5326217491113],[88.3132490429173,22.5324104885214],[88.3133251452413,22.5324246990578],[88.3133663619547,22.532618635354]]]},"properties": {
    "floor": "ground","fill-opacity":0,"stroke-opacity":1,"stroke":"#ff0000","ID":"25-3","REMARKS":"POLYGON ID-25"}},
{"type":"Feature","geometry":{"type":"Polygon","coordinates":[[[88.3136168729233,22.5327402928437],[88.3135368687994,22.5327515031273],[88.3135048551918,22.5326120769346],[88.3135867898164,22.5326081968215],[88.3136168729233,22.5327402928437]]]},"properties": {
    "floor": "ground","fill-opacity":0,"stroke-opacity":1,"stroke":"#ff0000","ID":"25-11","REMARKS":"POLYGON ID-25"}},
{"type":"Feature","geometry":{"type":"Polygon","coordinates":[[[88.3136410406642,22.5328464140664],[88.313562356104,22.5328625056258],[88.3135368687994,22.5327515031273],[88.3136168729233,22.5327402928437],[88.3136410406642,22.5328464140664]]]},"properties": {
    "floor": "ground","fill-opacity":0,"stroke-opacity":1,"stroke":"#ff0000","ID":"25-10","REMARKS":"POLYGON ID-25"}},
{"type":"Feature","geometry":{"type":"Polygon","coordinates":[[[88.3135867898164,22.5326081968215],[88.3135048551918,22.5326120769346],[88.3134679544039,22.5324513656116],[88.3135475262736,22.5324662238948],[88.3135438433526,22.5325360139014],[88.3135709698646,22.5325387307183],[88.3135867898164,22.5326081968215]]]},"properties": {
    "floor": "ground","fill-opacity":0,"stroke-opacity":1,"stroke":"#ff0000","ID":"25-12","REMARKS":"POLYGON ID-25"}},
{"type":"Feature","geometry":{"type":"Polygon","coordinates":[[[88.3135368687994,22.5327515031273],[88.313464576804,22.5327616327418],[88.3134335100295,22.5326154555369],[88.3135048551918,22.5326120769346],[88.3135368687994,22.5327515031273]]]},"properties": {
    "floor": "ground","fill-opacity":0,"stroke-opacity":1,"stroke":"#ff0000","ID":"25-8","REMARKS":"POLYGON ID-25"}},
{"type":"Feature","geometry":{"type":"Polygon","coordinates":[[[88.313562356104,22.5328625056258],[88.3134891950199,22.532877467557],[88.313464576804,22.5327616327418],[88.3135368687994,22.5327515031273],[88.313562356104,22.5328625056258]]]},"properties": {
    "floor": "ground","fill-opacity":0,"stroke-opacity":1,"stroke":"#ff0000","ID":"25-7","REMARKS":"POLYGON ID-25"}},
{"type":"Feature","geometry":{"type":"Polygon","coordinates":[[[88.3135048551918,22.5326120769346],[88.3134335100295,22.5326154555369],[88.3133957718316,22.5324378870788],[88.3134679544039,22.5324513656116],[88.3135048551918,22.5326120769346]]]},"properties": {
    "floor": "ground","fill-opacity":0,"stroke-opacity":1,"stroke":"#ff0000","ID":"25-9","REMARKS":"POLYGON ID-25"}},
{"type":"Feature","geometry":{"type":"Polygon","coordinates":[[[88.3136628600308,22.5326045943871],[88.3137627334203,22.5325998646582],[88.3137714140567,22.5327186382187],[88.3136866142748,22.5327305205596],[88.3136628600308,22.5326045943871]]]},"properties": {
    "floor": "ground","fill-opacity":0,"stroke-opacity":1,"stroke":"#ff0000","ID":"25-16","REMARKS":"POLYGON ID-25"}},
{"type":"Feature","geometry":{"type":"Polygon","coordinates":[[[88.3136866142748,22.5327305205596],[88.3137714140567,22.5327186382187],[88.3137745254472,22.532761210019],[88.3136953384759,22.5327767692915],[88.3136866142748,22.5327305205596]]]},"properties": {
    "floor": "ground","fill-opacity":0,"stroke-opacity":1,"stroke":"#ff0000","ID":"25-16","REMARKS":"POLYGON ID-25"}},
{"type":"Feature","geometry":{"type":"Polygon","coordinates":[[[88.3136519659924,22.5325468427411],[88.3137596464772,22.5325576272233],[88.3137627334203,22.5325998646582],[88.3136628600308,22.5326045943871],[88.3136519659924,22.5325468427411]]]},"properties": {
    "floor": "ground","fill-opacity":0,"stroke-opacity":1,"stroke":"#ff0000","ID":"25-18","REMARKS":"POLYGON ID-25"}},
{"type":"Feature","geometry":{"type":"Polygon","coordinates":[[[88.3136866142748,22.5327305205596],[88.3136168729233,22.5327402928437],[88.3135867898164,22.5326081968215],[88.3136628600308,22.5326045943871],[88.3136866142748,22.5327305205596]]]},"properties": {
    "floor": "ground","fill-opacity":0,"stroke-opacity":1,"stroke":"#ff0000","ID":"25-14","REMARKS":"POLYGON ID-25"}},
{"type":"Feature","geometry":{"type":"Polygon","coordinates":[[[88.3136953384759,22.5327767692915],[88.3136534055984,22.5327850085727],[88.3136681299279,22.5328408741071],[88.3136410406642,22.5328464140664],[88.3136168729233,22.5327402928437],[88.3136866142748,22.5327305205596],[88.3136953384759,22.5327767692915]]]},"properties": {
    "floor": "ground","fill-opacity":0,"stroke-opacity":1,"stroke":"#ff0000","ID":"25-13","REMARKS":"POLYGON ID-25"}},
{"type":"Feature","geometry":{"type":"Polygon","coordinates":[[[88.3136628600308,22.5326045943871],[88.3135867898164,22.5326081968215],[88.3135709698646,22.5325387307183],[88.3136519659924,22.5325468427411],[88.3136628600308,22.5326045943871]]]},"properties": {
    "floor": "ground","fill-opacity":0,"stroke-opacity":1,"stroke":"#ff0000","ID":"25-15","REMARKS":"POLYGON ID-25"}}
]}