{
    "type": "FeatureCollection", 
    "features": [
        {
            "type": "Feature", 
            "geometry": {
                "type": "Polygon", 
                "coordinates": [
                    [
                        [88.3128576352559, 22.5393727644884], 
                        [88.3128577636232, 22.5394051319416], 
                        [88.3130318169993, 22.539402822193 ], 
                        [88.3130302626491, 22.5393690850696], 
                        [88.3128576352559, 22.5393727644884]  
                    ]
                ]
            }, 
            "properties": {
    "floor": "ground",
                "fill-opacity": 0, 
                "stroke-opacity": 1, 
                "stroke": "#ff0000", 
                "ID": "12ST-B7-H1", 
                "REMARKS": "POLYGON-71"
            }, 
            "id": "p71.1"
        }, 
        {
            "type": "Feature", 
            "geometry": {
                "type": "Polygon", 
                "coordinates": [
                    [
                        [88.3128585463211, 22.5396024868975], 
                        [88.3128584077212, 22.5395675393495], 
                        [88.312689693776 , 22.539563520895 ], 
                        [88.312689843407 , 22.5395685652501], 
                        [88.312689843407 , 22.5396001437921], 
                        [88.3128585463211, 22.5396024868975]  
                    ]
                ]
            }, 
            "properties": {
    "floor": "ground",
                "fill-opacity": 0, 
                "stroke-opacity": 1, 
                "stroke": "#ff0000", 
                "ID": "12ST-B1-H2", 
                "REMARKS": "POLYGON-71"
            }, 
            "id": "p71.2"
        }, 
        {
            "type": "Feature", 
            "geometry": {
                "type": "Polygon", 
                "coordinates": [
                    [
                        [88.3128582772924, 22.5395346521121], 
                        [88.3128584077212, 22.5395675393495], 
                        [88.3130369145272, 22.5395717910519], 
                        [88.3130386318573, 22.5395507384773], 
                        [88.3130381038728, 22.5395392785905], 
                        [88.3128582772924, 22.5395346521121]  
                    ]
                ]
            }, 
            "properties": {
    "floor": "ground",
                "fill-opacity": 0, 
                "stroke-opacity": 1, 
                "stroke": "#ff0000", 
                "ID": "12ST-B2-H1", 
                "REMARKS": "POLYGON-71"
            }, 
            "id": "p71.3"
        }, 
        {
            "type": "Feature", 
            "geometry": {
                "type": "Polygon", 
                "coordinates": [
                    [
                        [88.3128581445999, 22.5395011940849], 
                        [88.3128582772924, 22.5395346521121], 
                        [88.3130381038728, 22.5395392785905], 
                        [88.3130365589548, 22.5395057461915], 
                        [88.3128581445999, 22.5395011940849]  
                    ]
                ]
            }, 
            "properties": {
    "floor": "ground",
                "fill-opacity": 0, 
                "stroke-opacity": 1, 
                "stroke": "#ff0000", 
                "ID": "12ST-B3-H1", 
                "REMARKS": "POLYGON-71"
            }, 
            "id": "p71.4"
        }, 
        {
            "type": "Feature", 
            "geometry": {
                "type": "Polygon", 
                "coordinates": [
                    [
                        [88.3128580099296, 22.5394672373539], 
                        [88.3128581445999, 22.5395011940849], 
                        [88.3130365589548, 22.5395057461915], 
                        [88.3130348686143, 22.5394690574036], 
                        [88.3128580099296, 22.5394672373539]  
                    ]
                ]
            }, 
            "properties": {
    "floor": "ground",
                "fill-opacity": 0, 
                "stroke-opacity": 1, 
                "stroke": "#ff0000", 
                "ID": "12ST-B4-H1", 
                "REMARKS": "POLYGON-71"
            }, 
            "id": "p71.5"
        }, 
        {
            "type": "Feature", 
            "geometry": {
                "type": "Polygon", 
                "coordinates": [
                    [
                        [88.3128578857512, 22.5394359261432], 
                        [88.3128580099296, 22.5394672373539], 
                        [88.3130348686143, 22.5394690574036], 
                        [88.3130334300597, 22.5394378336199], 
                        [88.3128578857512, 22.5394359261432]  
                    ]
                ]
            }, 
            "properties": {
    "floor": "ground",
                "fill-opacity": 0, 
                "stroke-opacity": 1, 
                "stroke": "#ff0000", 
                "ID": "12ST-B5-H1", 
                "REMARKS": "POLYGON-71"
            }, 
            "id": "p71.6"
        }, 
        {
            "type": "Feature", 
            "geometry": {
                "type": "Polygon", 
                "coordinates": [
                    [
                        [88.3128577636232, 22.5394051319416], 
                        [88.3128578857512, 22.5394359261432], 
                        [88.3130334300597, 22.5394378336199], 
                        [88.3130318169993, 22.539402822193 ], 
                        [88.3128577636232, 22.5394051319416]  
                    ]
                ]
            }, 
            "properties": {
    "floor": "ground",
                "fill-opacity": 0, 
                "stroke-opacity": 1, 
                "stroke": "#ff0000", 
                "ID": "12ST-B6-H1", 
                "REMARKS": "POLYGON-71"
            }, 
            "id": "p71.7"
        }, 
        {
            "type": "Feature", 
            "geometry": {
                "type": "Polygon", 
                "coordinates": [
                    [
                        [88.3128584077212, 22.5395675393495], 
                        [88.3128585463211, 22.5396024868975], 
                        [88.3130342115396, 22.5396049267019], 
                        [88.3130369145272, 22.5395717910519], 
                        [88.3128584077212, 22.5395675393495]  
                    ]
                ]
            }, 
            "properties": {
    "floor": "ground",
                "fill-opacity": 0, 
                "stroke-opacity": 1, 
                "stroke": "#ff0000", 
                "ID": "12ST-B1-H1", 
                "REMARKS": "POLYGON-71"
            }, 
            "id": "p71.8"
        }, 
        {
            "type": "Feature", 
            "geometry": {
                "type": "Polygon", 
                "coordinates": [
                    [
                        [88.3128584077212, 22.5395675393495], 
                        [88.3128582772924, 22.5395346521121], 
                        [88.3126887080323, 22.5395302895284], 
                        [88.312689693776 , 22.539563520895 ], 
                        [88.3128584077212, 22.5395675393495]  
                    ]
                ]
            }, 
            "properties": {
    "floor": "ground",
                "fill-opacity": 0, 
                "stroke-opacity": 1, 
                "stroke": "#ff0000", 
                "ID": "12ST-B2-H2", 
                "REMARKS": "POLYGON-71"
            }, 
            "id": "p71.9"
        }, 
        {
            "type": "Feature", 
            "geometry": {
                "type": "Polygon", 
                "coordinates": [
                    [
                        [88.3128582772924, 22.5395346521121], 
                        [88.3128581445999, 22.5395011940849], 
                        [88.3126877159871, 22.5394968457284], 
                        [88.3126887080323, 22.5395302895284], 
                        [88.3128582772924, 22.5395346521121]  
                    ]
                ]
            }, 
            "properties": {
    "floor": "ground",
                "fill-opacity": 0, 
                "stroke-opacity": 1, 
                "stroke": "#ff0000", 
                "ID": "12ST-B3-H2", 
                "REMARKS": "POLYGON-71"
            }, 
            "id": "p71.10"
        }, 
        {
            "type": "Feature", 
            "geometry": {
                "type": "Polygon", 
                "coordinates": [
                    [
                        [88.3128581445999, 22.5395011940849], 
                        [88.3128580099296, 22.5394672373539], 
                        [88.312686785444 , 22.5394654752856], 
                        [88.3126877159871, 22.5394968457284], 
                        [88.3128581445999, 22.5395011940849]  
                    ]
                ]
            }, 
            "properties": {
    "floor": "ground",
                "fill-opacity": 0, 
                "stroke-opacity": 1, 
                "stroke": "#ff0000", 
                "ID": "12ST-B4-H2", 
                "REMARKS": "POLYGON-71"
            }, 
            "id": "p71.11"
        }, 
        {
            "type": "Feature", 
            "geometry": {
                "type": "Polygon", 
                "coordinates": [
                    [
                        [88.3128580099296, 22.5394672373539], 
                        [88.3128578857512, 22.5394359261432], 
                        [88.3126858534766, 22.5394340568285], 
                        [88.312686785444 , 22.5394654752856], 
                        [88.3128580099296, 22.5394672373539]  
                    ]
                ]
            }, 
            "properties": {
    "floor": "ground",
                "fill-opacity": 0, 
                "stroke-opacity": 1, 
                "stroke": "#ff0000", 
                "ID": "12ST-B5-H2", 
                "REMARKS": "POLYGON-71"
            }, 
            "id": "p71.12"
        }, 
        {
            "type": "Feature", 
            "geometry": {
                "type": "Polygon", 
                "coordinates": [
                    [
                        [88.3128578857512, 22.5394359261432], 
                        [88.3128577636232, 22.5394051319416], 
                        [88.3126850634577, 22.5394074237327], 
                        [88.3126858534766, 22.5394340568285], 
                        [88.3128578857512, 22.5394359261432]  
                    ]
                ]
            }, 
            "properties": {
    "floor": "ground",
                "fill-opacity": 0, 
                "stroke-opacity": 1, 
                "stroke": "#ff0000", 
                "ID": "12ST-B6-H2", 
                "REMARKS": "POLYGON-71"
            }, 
            "id": "p71.13"
        }, 
        {
            "type": "Feature", 
            "geometry": {
                "type": "Polygon", 
                "coordinates": [
                    [
                        [88.3128577636232, 22.5394051319416], 
                        [88.3128576352559, 22.5393727644884], 
                        [88.312684145047 , 22.5393764622975], 
                        [88.3126850634577, 22.5394074237327], 
                        [88.3128577636232, 22.5394051319416]  
                    ]
                ]
            }, 
            "properties": {
    "floor": "ground",
                "fill-opacity": 0, 
                "stroke-opacity": 1, 
                "stroke": "#ff0000", 
                "ID": "12ST-B7-H2", 
                "REMARKS": "POLYGON-71"
            }, 
            "id": "p71.14"
        }
    ]
}
