{"type":"FeatureCollection", "features": [
{"type":"Feature","geometry":{"type":"Polygon","coordinates":[[[88.3139287519511,22.5339500144649],[88.3139740090792,22.5339409579443],[88.3139802241982,22.5339689630119],[88.3140211978195,22.5339595436799],[88.3140427220012,22.5340555996768],[88.313956795345,22.5340751077499],[88.3139287519511,22.5339500144649]]]},"properties": {
    "floor": "ground","fill-opacity":0,"stroke-opacity":1,"stroke":"#ff0000","ID":"24-10","REMARKS":"POLYGON ID-24"}},
{"type":"Feature","geometry":{"type":"Polygon","coordinates":[[[88.313956795345,22.5340751077499],[88.3140427220012,22.5340555996768],[88.3140581368317,22.5341243913688],[88.3140068616561,22.5341362911417],[88.3140182469246,22.53418058237],[88.3139821487781,22.5341882016906],[88.313956795345,22.5340751077499]]]},"properties": {
    "floor": "ground","fill-opacity":0,"stroke-opacity":1,"stroke":"#ff0000","ID":"24-9","REMARKS":"POLYGON ID-24"}},
{"type":"Feature","geometry":{"type":"Polygon","coordinates":[[[88.3137898235264,22.5339778157042],[88.3138620983623,22.5339633526614],[88.3138634073572,22.5339691492639],[88.313890533509,22.5340901512512],[88.3138186645859,22.5341064677017],[88.3137898235264,22.5339778157042]]]},"properties": {
    "floor": "ground","fill-opacity":0,"stroke-opacity":1,"stroke":"#ff0000","ID":"24-6","REMARKS":"POLYGON ID-24"}},
{"type":"Feature","geometry":{"type":"Polygon","coordinates":[[[88.3138186645859,22.5341064677017],[88.313890533509,22.5340901512512],[88.3139156605359,22.534202235497],[88.313843546049,22.5342174568122],[88.3138186645859,22.5341064677017]]]},"properties": {
    "floor": "ground","fill-opacity":0,"stroke-opacity":1,"stroke":"#ff0000","ID":"24-5","REMARKS":"POLYGON ID-24"}},
{"type":"Feature","geometry":{"type":"Polygon","coordinates":[[[88.3138620983623,22.5339633526614],[88.3139287519511,22.5339500144649],[88.313956795345,22.5340751077499],[88.313890533509,22.5340901512512],[88.3138634073572,22.5339691492639],[88.3138620983623,22.5339633526614]]]},"properties": {
    "floor": "ground","fill-opacity":0,"stroke-opacity":1,"stroke":"#ff0000","ID":"24-8","REMARKS":"POLYGON ID-24"}},
{"type":"Feature","geometry":{"type":"Polygon","coordinates":[[[88.313890533509,22.5340901512512],[88.313956795345,22.5340751077499],[88.3139821487781,22.5341882016906],[88.3139156605359,22.534202235497],[88.313890533509,22.5340901512512]]]},"properties": {
    "floor": "ground","fill-opacity":0,"stroke-opacity":1,"stroke":"#ff0000","ID":"24-7","REMARKS":"POLYGON ID-24"}},
{"type":"Feature","geometry":{"type":"Polygon","coordinates":[[[88.3137467956441,22.5341227841209],[88.3136799360133,22.5341379632435],[88.3136462337186,22.5340065496055],[88.313717539565,22.5339922805379],[88.3137467956441,22.5341227841209]]]},"properties": {
    "floor": "ground","fill-opacity":0,"stroke-opacity":1,"stroke":"#ff0000","ID":"24-2","REMARKS":"POLYGON ID-24"}},
{"type":"Feature","geometry":{"type":"Polygon","coordinates":[[[88.3137714315446,22.5342326780958],[88.3137076776719,22.5342461346627],[88.3136799360133,22.5341379632435],[88.3137467956441,22.5341227841209],[88.3137714315446,22.5342326780958]]]},"properties": {
    "floor": "ground","fill-opacity":0,"stroke-opacity":1,"stroke":"#ff0000","ID":"24-1","REMARKS":"POLYGON ID-24"}},
{"type":"Feature","geometry":{"type":"Polygon","coordinates":[[[88.313717539565,22.5339922805379],[88.3137898235264,22.5339778157042],[88.3138186645859,22.5341064677017],[88.3137467956441,22.5341227841209],[88.313717539565,22.5339922805379]]]},"properties": {
    "floor": "ground","fill-opacity":0,"stroke-opacity":1,"stroke":"#ff0000","ID":"24-4","REMARKS":"POLYGON ID-24"}},
{"type":"Feature","geometry":{"type":"Polygon","coordinates":[[[88.3137467956441,22.5341227841209],[88.3138186645859,22.5341064677017],[88.313843546049,22.5342174568122],[88.3137714315446,22.5342326780958],[88.3137467956441,22.5341227841209]]]},"properties": {
    "floor": "ground","fill-opacity":0,"stroke-opacity":1,"stroke":"#ff0000","ID":"24-3","REMARKS":"POLYGON ID-24"}}
]}